{"type":"Topology","arcs":[[[2031,865479],[37,72],[23,-9],[-32,-72],[-28,9]],[[1107,864646],[48,-23],[-31,-48],[-49,22],[32,49]],[[286,863212],[-4,-5]],[[282,863207],[-1,-1]],[[281,863206],[-5,0]],[[276,863206],[10,6]],[[1343,865293],[-101,-139],[-78,-132],[-25,-21],[-43,-77]],[[1096,864924],[-6,27],[34,89]],[[1124,865040],[124,189],[91,125],[38,-12],[-34,-49]],[[302,862984],[27,-3]],[[329,862981],[1,-18]],[[330,862963],[8,-49]],[[338,862914],[-3,-1]],[[335,862913],[-9,4]],[[326,862917],[-46,31],[-6,25],[28,11]],[[679,863515],[-56,30],[17,21],[55,-30],[-16,-21]],[[936,863438],[23,34],[40,-18],[-23,-34],[-40,18]],[[484,865038],[106,164],[91,-103],[4,-45],[-13,-67],[-23,-33],[-165,84]],[[1550,863381],[18,-35],[-40,-26],[-13,-13],[-23,15],[58,59]],[[1569,863344],[8,-55],[-40,-4],[-5,34],[37,25]],[[1584,863354],[25,-61],[-30,-3],[5,64]],[[1337,863367],[39,-26]],[[1376,863341],[-39,26]],[[1255,863233],[-6,1]],[[1249,863234],[6,-1]],[[1690,863428],[34,3],[8,-51],[-34,-4],[-8,52]],[[862,864602],[-19,8]],[[843,864610],[107,174],[57,70]],[[1007,864854],[67,57]],[[1074,864911],[-18,-53],[-74,-80],[-12,-65],[-59,-62],[-25,-59],[-24,10]],[[2085,865743],[33,-14],[-23,-42],[-32,12],[22,44]],[[1443,865223],[37,-5],[-59,-90],[-1,-53],[-48,-29],[24,77],[36,54],[11,46]],[[765,865173],[-35,-34],[0,-97],[-56,-113],[-23,19],[44,36],[27,59],[-15,53],[30,83],[28,-6]],[[2344,865195],[-83,32],[41,77],[51,-34],[-9,-75]],[[994,862846],[53,-2],[2,-33],[-54,2],[-1,33]],[[1603,864050],[-30,14],[40,55],[35,-20],[-45,-49]],[[635,862825],[9,19]],[[644,862844],[-22,49],[60,-7],[-56,-128],[-47,-33],[-43,17],[30,53],[41,-16],[28,46]],[[351,863235],[-5,-21]],[[346,863214],[5,21]],[[839,862982],[1,2]],[[840,862984],[-1,-2]],[[788,862970],[3,0]],[[791,862970],[-3,0]],[[1669,864447],[52,78],[17,-21],[-46,-69],[-23,12]],[[1907,864867],[-42,-32],[-41,20],[24,35],[59,-23]],[[992,863104],[0,10]],[[992,863114],[54,31],[55,116],[8,91],[46,59],[-46,-179],[-37,-90],[-39,-34],[-41,-4]],[[1975,864823],[6,-6]],[[1981,864817],[-40,-21],[-61,-86],[53,-51],[91,17],[28,27],[50,-52],[-80,-47],[-65,26],[-84,15],[-14,57],[59,77],[57,44]],[[1550,865281],[37,53],[-3,41],[70,81],[-54,-132],[-50,-43]],[[1403,863970],[-19,11]],[[1384,863981],[19,-11]],[[2738,864519],[2,-70],[-40,1],[38,69]],[[1881,865529],[-5,2]],[[1876,865531],[5,-2]],[[1881,865529],[-5,2]],[[1435,865491],[-39,16],[45,74],[52,15]],[[1493,865596],[22,-4],[-80,-101]],[[1007,864854],[-10,3],[121,185],[6,-2]],[[1096,864924],[-22,-13]],[[247,863055],[6,4]],[[253,863059],[-6,-4]],[[247,863055],[29,151]],[[281,863206],[1,-2]],[[282,863204],[29,-33],[-35,-34],[-23,-78]],[[2769,864034],[1,-7]],[[2770,864027],[-1,7]],[[992,863104],[0,10]],[[1977,865573],[16,47],[46,-37],[-17,-32],[-45,22]],[[1716,865065],[-54,25],[35,48],[51,-27],[-32,-46]],[[297,863200],[-15,7]],[[282,863207],[4,5]],[[286,863212],[11,-12]],[[1147,865689],[21,55],[56,-16],[-20,-58],[-57,19]],[[823,864567],[20,43]],[[862,864602],[-39,-88],[-35,16],[35,37]],[[1901,865047],[31,-7]],[[1932,865040],[1,0]],[[1933,865040],[-32,7]],[[1933,865040],[-1,0]],[[1901,865047],[32,-7]],[[1975,864823],[55,95],[-10,42],[33,83],[59,2],[40,-48],[100,-55],[31,-67],[-48,-57],[-79,38],[-72,-14],[91,96],[-114,63],[-12,-21],[63,-25],[15,-27],[-65,-100],[-31,-23],[-50,12]],[[204,864235],[54,74],[28,-53],[-23,-25],[-59,4]],[[1384,863981],[19,-11]],[[1337,863367],[39,-26]],[[420,864652],[5,-1]],[[425,864651],[-5,1]],[[2859,863260],[-20,27],[12,46],[156,8],[45,12],[10,-31],[-138,-29],[-65,-33]],[[420,864652],[5,-1]],[[644,862844],[-9,-19]],[[2817,863912],[-3,0]],[[2814,863912],[3,0]],[[2770,864027],[-1,7]],[[2769,864034],[1,-7]],[[297,863200],[-15,4]],[[351,863235],[-5,-21]],[[2018,865652],[-34,-28],[-14,13],[-51,-7],[1,36],[81,-22],[17,8]],[[1433,865012],[154,-70],[3,-8],[-447,-669],[-19,-7],[-147,67],[-1,15],[446,669],[11,3]],[[839,862982],[-48,-12]],[[788,862970],[52,14]],[[840,862984],[-1,-2]],[[2016,864513],[77,51],[76,69],[33,-26],[-112,-97],[-3,-40],[-71,43]],[[21,864267],[53,-21],[-17,-40],[-57,30],[21,31]],[[1255,863233],[-6,1]],[[338,862914],[-3,-1]],[[335,862913],[-9,4]],[[326,862917],[-10,-9],[-29,29],[-15,24],[2,15],[8,8],[20,0]],[[302,862984],[27,-3]],[[329,862981],[1,-18]],[[330,862963],[8,-49]]],"transform":{"scale":[0.000051557002319771966,0.00004716731941537826],"translate":[-74.0315761,0]},"objects":{"parks":{"type":"GeometryCollection","geometries":[{"type":null,"properties":{"@id":"relation/1538806","leisure":"park","type":"multipolygon"},"id":"relation/1538806"},{"type":null,"properties":{"@id":"relation/1751075","leisure":"park","name":"John Jay Park","type":"multipolygon","wikidata":"Q6241723","wikipedia":"en:John Jay Park"},"id":"relation/1751075"},{"arcs":[[0]],"type":"Polygon","properties":{"@id":"relation/3690749","ele":"26","gnis:county_id":"005","gnis:created":"01/23/1980","gnis:feature_id":"950642","gnis:state_id":"36","leisure":"park","name":"Franz Sigel Park","type":"multipolygon"},"id":"relation/3690749"},{"type":null,"properties":{"@id":"relation/3792501","ele":"15","gnis:county_id":"005","gnis:created":"01/14/2008","gnis:feature_id":"2374623","gnis:state_id":"36","leisure":"park","name":"O'Brien Oval","type":"multipolygon"},"id":"relation/3792501"},{"type":null,"properties":{"@id":"relation/3910502","leisure":"park","name":"Aqueduct Walk","type":"multipolygon","website":"https://www.nycgovparks.org/parks/X001A/map"},"id":"relation/3910502"},{"type":null,"properties":{"@id":"relation/4099553","ele":"12","gnis:county_id":"061","gnis:created":"01/23/1980","gnis:feature_id":"964477","gnis:state_id":"36","leisure":"park","name":"Sara D. Roosevelt Park","type":"multipolygon","website":"https://www.nycgovparks.org/parks/sara-d-roosevelt-park","wikidata":"Q7421605","wikipedia":"en:Sara Delano Roosevelt Park"},"id":"relation/4099553"},{"type":null,"properties":{"@id":"relation/4499527","leisure":"park","name":"Crotona Parkway Malls","type":"multipolygon"},"id":"relation/4499527"},{"type":null,"properties":{"@id":"relation/4618066","leisure":"park","name":"Hawthorne/Rooney Tennis Courts","type":"multipolygon"},"id":"relation/4618066"},{"type":null,"properties":{"@id":"relation/4623388","ele":"4","gnis:county_id":"005","gnis:created":"01/15/2008","gnis:feature_id":"2374907","gnis:state_id":"36","leisure":"park","name":"Starlight Park","type":"multipolygon","wikidata":"Q7602080"},"id":"relation/4623388"},{"type":null,"properties":{"@id":"relation/4623432","ele":"23","gnis:feature_id":"2083390","leisure":"park","name":"Verdi Square","type":"multipolygon","wikidata":"Q7921110"},"id":"relation/4623432"},{"type":null,"properties":{"@id":"relation/5465006","alt_name":"Laguardia Landing Lights","leisure":"park","name":"Landing Lights Park","type":"multipolygon","website":"https://www.nycgovparks.org/parks/laguardia-landing-lights/"},"id":"relation/5465006"},{"type":null,"properties":{"@id":"relation/5568778","highway":"pedestrian","leisure":"park","type":"multipolygon"},"id":"relation/5568778"},{"type":null,"properties":{"@id":"relation/6433485","boundary":"protected_area","facility":"Bronx River Trail","governance":"government_managed","leisure":"park","name":"Bronx River Trail","protect_class":"21","protection_object":"recreation","protection_title":"Trailway","related_law":"New York State Constitution, Article XIV","site_ownership":"state","source":"http://gis.ny.gov/gisdata/inventories/details.cfm?DSID=1114","type":"multipolygon","website":"http://www.dec.ny.gov/"},"id":"relation/6433485"},{"type":null,"properties":{"@id":"relation/6802606","leisure":"park","name":"Mannahatta Park","type":"multipolygon"},"id":"relation/6802606"},{"type":null,"properties":{"@id":"relation/6922068","leisure":"park","name":"Greenstreet","type":"multipolygon"},"id":"relation/6922068"},{"type":null,"properties":{"@id":"relation/6992452","area":"yes","highway":"pedestrian","leisure":"park","name":"Dag Hammarskjold Plaza","type":"multipolygon"},"id":"relation/6992452"},{"type":null,"properties":{"@id":"relation/7095444","leisure":"park","name":"Union Square Park","name:ko":"유니온 스퀘어 공원","name:ru":"Юнион-сквер","type":"multipolygon","website":"https://www.nycgovparks.org/parks/union-square-park","wikidata":"Q110007","wikipedia":"en:Union Square, Manhattan"},"id":"relation/7095444"},{"type":null,"properties":{"@id":"relation/7095669","ele":"8","leisure":"park","name":"Stuyvesant Square","type":"multipolygon","website":"https://www.nycgovparks.org/parks/stuyvesant-square","wikidata":"Q1478163","wikipedia":"en:Stuyvesant Square"},"id":"relation/7095669"},{"arcs":[[1]],"type":"Polygon","properties":{"@id":"relation/7109446","alt_name":"Theodore Roosevelt Memorial Park","ele":"26","gnis:county_id":"061","gnis:created":"01/31/2006","gnis:feature_id":"2083476","gnis:state_id":"36","leisure":"park","name":"Theodore Roosevelt Park","old_name":"Manhattan Square","type":"multipolygon","website":"https://www.nycgovparks.org/parks/theodore-roosevelt-park/","wikidata":"Q34865050"},"id":"relation/7109446"},{"type":null,"properties":{"@id":"relation/7141751","building":"yes","building:colour":"#3D4647","building:material":"metal","building:part":"yes","height":"7.5","layer":"1","leisure":"park","min_height":"5;5.5","name":"The High Line","name:he":"רכבת מעגלית נחמדה","old_railway_operator":"NYC","roof:material":"concrete;grass","roof:shape":"flat","type":"multipolygon","website":"https://www.thehighline.org/","wheelchair":"yes","wikidata":"Q843869","wikipedia":"en:High Line (New York City)"},"id":"relation/7141751"},{"type":null,"properties":{"@id":"relation/8176996","leisure":"park","name":"Old Slip Park","type":"multipolygon"},"id":"relation/8176996"},{"type":null,"properties":{"@id":"relation/8456861","leisure":"park","name":"Columbia University Well Garden","type":"multipolygon"},"id":"relation/8456861"},{"type":null,"properties":{"@id":"relation/9308941","construction":"yes","leisure":"park","name":"Elizabeth H. Berger Plaza","operator":"New York City Department of Parks & Recreation","type":"multipolygon","website":"https://www.nycgovparks.org/planning-and-building/capital-project-tracker/project/5994","wikidata":"Q24192795","wikipedia":"en:Elizabeth H. Berger Plaza"},"id":"relation/9308941"},{"type":null,"properties":{"@id":"relation/9340888","leisure":"park","type":"multipolygon"},"id":"relation/9340888"},{"arcs":[[2,3,4,5]],"type":"Polygon","properties":{"@id":"relation/9643461","alt_name":"Rockefeller Park","ele":"0","gnis:feature_id":"2060116","leisure":"park","name":"Nelson A. Rockefeller Park","type":"multipolygon","website":"http://bpcparks.org/whats-here/parks/rockefeller-park/"},"id":"relation/9643461"},{"type":null,"properties":{"@id":"relation/10025591","ele":"17","gnis:county_id":"061","gnis:created":"10/06/2008","gnis:feature_id":"2500944","gnis:state_id":"36","leisure":"park","name":"West 59th Street Recreation Center","type":"multipolygon"},"id":"relation/10025591"},{"type":null,"properties":{"@id":"relation/10170445","highway":"pedestrian","leisure":"park","name":"Low Plaza","type":"multipolygon"},"id":"relation/10170445"},{"arcs":[[6,7,8]],"type":"Polygon","properties":{"@id":"relation/10230920","leisure":"park","name":"Riverside Park","type":"multipolygon","wikidata":"Q1339602","wikipedia":"en:Riverside Park (Manhattan)"},"id":"relation/10230920"},{"type":null,"properties":{"@id":"relation/10571875","leisure":"park","name":"Duke Ellington Circle","old_name":"Frawley Circle","type":"multipolygon","wikidata":"Q5312765","wikipedia":"en:Duke Ellington Circle"},"id":"relation/10571875"},{"type":null,"properties":{"@id":"relation/10831115","layer":"2","leisure":"park","name":"Pier C Park","type":"multipolygon"},"id":"relation/10831115"},{"arcs":[[9,10,11,12,13,14]],"type":"Polygon","properties":{"@id":"way/5029111","ele":"3","gnis:feature_id":"943167","leisure":"park","name":"Battery Park","wikidata":"Q13689","wikipedia":"en:Battery Park"},"id":"way/5029111"},{"type":null,"properties":{"@id":"way/20070720","ele":"23","leisure":"park","name":"Cadman Plaza Park","wikidata":"Q4251046","wikipedia":"en:Cadman Plaza"},"id":"way/20070720"},{"type":null,"properties":{"@id":"way/20521006","ele":"23","leisure":"park","name":"Walt Whitman Park"},"id":"way/20521006"},{"type":null,"properties":{"@id":"way/20521884","leisure":"park","name":"Bar and Grill Park"},"id":"way/20521884"},{"type":null,"properties":{"@id":"way/20523420","leisure":"park","name":"Bridge Park 3"},"id":"way/20523420"},{"type":null,"properties":{"@id":"way/20523422","leisure":"park","name":"Bridge Park 1"},"id":"way/20523422"},{"type":null,"properties":{"@id":"way/22727025","addr:city":"New York","addr:full":"Between 40th and 42nd Streets at 6th Avenue","addr:postcode":"10018","addr:state":"NY","ele":"20","gnis:county_id":"061","gnis:created":"01/17/2006","gnis:feature_id":"2083160","gnis:state_id":"36","leisure":"park","name":"Bryant Park","name:ja":"ブライアントパーク","name:ko":"브라이언트 공원","name:tr":"Bryant Park","opening_hours":"Mo-Su 07:00-23:00","tourism":"attraction","website":"http://www.bryantpark.org","wheelchair":"yes","wikidata":"Q995174","wikipedia":"en:Bryant Park"},"id":"way/22727025"},{"type":null,"properties":{"@id":"way/22899286","area":"yes","leisure":"park","name":"Madison Square Park","name:en":"Madison Square Park","name:ru":"Мэдисон-сквер","name:zh":"麦迪逊广场公园","opening_hours":"06:00-23:00","phone":"212.520.7600","wikidata":"Q110000","wikipedia":"en:Madison Square"},"id":"way/22899286"},{"arcs":[[15]],"type":"Polygon","properties":{"@id":"way/22899302","leisure":"park","name":"Washington Square Park","start_date":"1871","wikidata":"Q909592","wikipedia":"en:Washington Square Park"},"id":"way/22899302"},{"type":null,"properties":{"@id":"way/22900913","ele":"6","gnis:county_id":"061","gnis:created":"10/02/2008","gnis:feature_id":"2500738","gnis:state_id":"36","leisure":"park","name":"Doctor Gertrude B Kelly Playground"},"id":"way/22900913"},{"type":null,"properties":{"@id":"way/22900959","ele":"5","gnis:county_id":"061","gnis:created":"01/23/1980","gnis:feature_id":"946476","gnis:state_id":"36","leisure":"park","name":"Chelsea Park","website":"https://www.nycgovparks.org/parks/chelsea-park/","wikidata":"Q34816973"},"id":"way/22900959"},{"type":null,"properties":{"@id":"way/22901074","access":"private","ele":"10","gnis:feature_id":"951469","leisure":"park","name":"Gramercy Park","wikidata":"Q1191972","wikipedia":"en:Gramercy Park"},"id":"way/22901074"},{"type":null,"properties":{"@id":"way/22903972","leisure":"park","name":"Chelsea Waterside Park"},"id":"way/22903972"},{"type":null,"properties":{"@id":"way/22904239","leisure":"park"},"id":"way/22904239"},{"type":null,"properties":{"@id":"way/22926662","leisure":"park","name":"Liberty Park","wikidata":"Q16932670","wikipedia":"en:Liberty Park"},"id":"way/22926662"},{"type":null,"properties":{"@id":"way/22926980","dog":"leashed","ele":"2","gnis:feature_id":"2060137","leisure":"park","name":"Washington Market Park","opening_hours":"Mo-Su 06:00-01:00","smoking":"no","website":"https://www.nycgovparks.org/parks/washington-market-park","wikidata":"Q7972039","wikipedia":"en:Washington Market Park"},"id":"way/22926980"},{"type":null,"properties":{"@id":"way/22941918","addr:city":"New York","ele":"7","gnis:feature_id":"973532","leisure":"park","name":"DeWitt Clinton Park","start_date":"1906","wikidata":"Q5244179","wikipedia":"en:DeWitt Clinton Park"},"id":"way/22941918"},{"type":null,"properties":{"@id":"way/22961817","ele":"7","gnis:county_id":"061","gnis:created":"10/02/2008","gnis:feature_id":"2500739","gnis:state_id":"36","leisure":"park","name":"Jackson Square Park","wikidata":"Q6117380","wikipedia":"en:Jackson Square Park"},"id":"way/22961817"},{"type":null,"properties":{"@id":"way/22961821","ele":"5","gnis:feature_id":"2500740","leisure":"park","name":"Corporal John A. Seravalli Playground"},"id":"way/22961821"},{"type":null,"properties":{"@id":"way/22961904","ele":"3","gnis:feature_id":"2083023","leisure":"park","name":"Clement Clarke Moore Park","playground":"yes","start_date":"1968","website":"https://www.nycgovparks.org/parks/clement-clarke-moore-park/","wikidata":"Q34818415"},"id":"way/22961904"},{"type":null,"properties":{"@id":"way/23048485","addr:city":"New York City","addr:housenumber":"42nd","addr:postcode":"10016","addr:state":"NY","addr:street":"Tudor City Place","leisure":"park","name":"Tudor City Parc"},"id":"way/23048485"},{"type":null,"properties":{"@id":"way/23048493","leisure":"park"},"id":"way/23048493"},{"type":null,"properties":{"@id":"way/24404209","leisure":"park","name":"Stevens Park"},"id":"way/24404209"},{"type":null,"properties":{"@id":"way/24404232","ele":"9","gnis:county_id":"017","gnis:created":"07/01/1981","gnis:feature_id":"2060275","gnis:state_id":"34","leisure":"park","name":"Hudson Park","sport":"baseball","wikidata":"Q34836444"},"id":"way/24404232"},{"type":null,"properties":{"@id":"way/24404263","ele":"0","gnis:county_id":"017","gnis:created":"07/01/1981","gnis:feature_id":"2060265","gnis:state_id":"34","leisure":"park","name":"Pier A Park","wikidata":"Q49542404"},"id":"way/24404263"},{"type":null,"properties":{"@id":"way/24404317","ele":"6","gnis:county_id":"017","gnis:created":"07/01/1981","gnis:feature_id":"2060263","gnis:state_id":"34","leisure":"park","name":"Elysian Park","wikidata":"Q49486840"},"id":"way/24404317"},{"type":null,"properties":{"@id":"way/24404351","leisure":"park","name":"Sinatra Park","wikidata":"Q34861839"},"id":"way/24404351"},{"type":null,"properties":{"@id":"way/25026338","leisure":"park","name":"Zuccotti Park","name:ko":"즈카티 공원","old_name":"Liberty Plaza Park","wikidata":"Q227659","wikipedia":"en:Zuccotti Park"},"id":"way/25026338"},{"type":null,"properties":{"@id":"way/25154401","ele":"5","gnis:county_id":"081","gnis:created":"12/08/2005","gnis:feature_id":"2080528","gnis:state_id":"36","leisure":"park","name":"G U Harvey Playground"},"id":"way/25154401"},{"type":null,"properties":{"@id":"way/25154502","ele":"8","gnis:county_id":"081","gnis:created":"01/23/1980","gnis:feature_id":"950592","gnis:state_id":"36","leisure":"park","name":"Francis Lewis Park","website":"https://www.nycgovparks.org/parks/francis-lewis-park/"},"id":"way/25154502"},{"type":null,"properties":{"@id":"way/25161343","leisure":"park"},"id":"way/25161343"},{"arcs":[[16]],"type":"Polygon","properties":{"@id":"way/25162896","ele":"5","gnis:feature_id":"967646","leisure":"park","name":"Tompkins Square Park","website":"https://www.nycgovparks.org/parks/tompkins-square-park/","wikidata":"Q1310674","wikipedia":"en:Tompkins Square Park"},"id":"way/25162896"},{"type":null,"properties":{"@id":"way/25163359","ele":"28","gnis:county_id":"081","gnis:created":"01/23/1980","gnis:feature_id":"962249","gnis:state_id":"36","leisure":"park","name":"Raymond O'Conner Park","wikidata":"Q34855787"},"id":"way/25163359"},{"type":null,"properties":{"@id":"way/25355873","ele":"3","gnis:county_id":"081","gnis:created":"09/07/2007","gnis:feature_id":"2352594","gnis:state_id":"36","leisure":"park","name":"Gantry Plaza State Park","note":"Managed by Queens West Development Corporation as part of Gantry Plaza State Park","source":"http://www.gantrypark.com/Maps/ParkMap/tabid/656/Default.aspx","website":"https://parks.ny.gov/parks/149/details.aspx"},"id":"way/25355873"},{"type":null,"properties":{"@id":"way/25355909","ele":"4","gnis:county_id":"081","gnis:created":"09/07/2007","gnis:feature_id":"2352570","gnis:state_id":"36","leisure":"park","name":"John F Murray Playground"},"id":"way/25355909"},{"type":null,"properties":{"@id":"way/25419495","addr:city":"Queens","addr:postcode":"11106","addr:street":"Vernon Boulevard between 33th Road and 34th Avenue","ele":"5","gnis:county_id":"081","gnis:created":"01/23/1980","gnis:feature_id":"962150","gnis:state_id":"36","leisure":"park","name":"Rainey Park","website":"https://www.nycgovparks.org/parks/Q048/"},"id":"way/25419495"},{"type":null,"properties":{"@id":"way/25420828","ele":"28","gnis:county_id":"081","gnis:created":"09/07/2007","gnis:feature_id":"2352554","gnis:state_id":"36","leisure":"park","name":"Joe Sabba Park"},"id":"way/25420828"},{"type":null,"properties":{"@id":"way/25428484","addr:city":"Long Island City","addr:housenumber":"4-09","addr:postcode":"11101","addr:street":"47th Road","ele":"0","gnis:county_id":"081","gnis:created":"12/05/2005","gnis:feature_id":"2080356","gnis:state_id":"36","leisure":"park","name":"Gantry Plaza State Park","phone":"(718) 786-6385","website":"http://nysparks.com/parks/149/details.aspx","wheelchair":"yes","wikidata":"Q1262366","wikipedia":"en:Gantry Plaza State Park"},"id":"way/25428484"},{"type":null,"properties":{"@id":"way/25430809","ele":"9","gnis:county_id":"081","gnis:created":"03/21/2008","gnis:feature_id":"2414469","gnis:state_id":"36","leisure":"park","name":"Hoffman Park","wikidata":"Q34835297"},"id":"way/25430809"},{"arcs":[[17]],"type":"Polygon","properties":{"@id":"way/27459755","alt_name":"James J. Braddock North Hudson County Park","ele":"64","gnis:county_id":"017","gnis:created":"07/01/1981","gnis:feature_id":"878857","gnis:state_id":"34","leisure":"park","name":"North Hudson Park","wikidata":"Q49506616"},"id":"way/27459755"},{"type":null,"properties":{"@id":"way/30657456","ele":"6","gnis:county_id":"061","gnis:created":"10/02/2008","gnis:feature_id":"2500744","gnis:state_id":"36","leisure":"park","name":"Christopher Park","wikidata":"Q34817635"},"id":"way/30657456"},{"type":null,"properties":{"@id":"way/30657462","ele":"6","gnis:county_id":"061","gnis:created":"01/17/2006","gnis:feature_id":"2082894","gnis:state_id":"36","leisure":"park","name":"Sheridan Square Garden"},"id":"way/30657462"},{"type":null,"properties":{"@id":"way/31009822","leisure":"park","name":"Stuyvesant Cove Park","wikidata":"Q7629257"},"id":"way/31009822"},{"type":null,"properties":{"@id":"way/32888938","leisure":"park","name":"McCarren Park"},"id":"way/32888938"},{"arcs":[[18]],"type":"Polygon","properties":{"@id":"way/32888940","ele":"4","gnis:county_id":"047","gnis:created":"01/23/1980","gnis:feature_id":"956729","gnis:state_id":"36","leisure":"park","name":"McCarren Park"},"id":"way/32888940"},{"arcs":[[19]],"type":"Polygon","properties":{"@id":"way/32888942","leisure":"park","name":"McCarren Park"},"id":"way/32888942"},{"type":null,"properties":{"@id":"way/32888943","leisure":"park","name":"McCarren Park"},"id":"way/32888943"},{"arcs":[[20]],"type":"Polygon","properties":{"@id":"way/32888945","leisure":"park","name":"McCarren Park"},"id":"way/32888945"},{"type":null,"properties":{"@id":"way/33804388","landuse":"recreation_ground","leisure":"park","name":"East River Esplanade","website":"https://www.nycgovparks.org/parks/east-river-esplanade_36-to-38"},"id":"way/33804388"},{"type":null,"properties":{"@id":"way/33804400","barrier":"fence","bicycle":"no","ele":"5","gnis:feature_id":"963513","leisure":"park","name":"Saint Vartan Park"},"id":"way/33804400"},{"type":null,"properties":{"@id":"way/33804405","leisure":"park"},"id":"way/33804405"},{"arcs":[[21,22]],"type":"Polygon","properties":{"@id":"way/33819583","addr:city":"Brooklyn","addr:housenumber":"90","addr:street":"Kent Avenue","leisure":"park","name":"East River State Park","website":"http://www.nysparks.com/parks/155/details.aspx","wheelchair":"yes","wikidata":"Q5329281","wikipedia":"en:East River State Park"},"id":"way/33819583"},{"arcs":[[23,24]],"type":"Polygon","properties":{"@id":"way/33819586","leisure":"park","name":"Grand Ferry Park"},"id":"way/33819586"},{"arcs":[[25]],"type":"Polygon","properties":{"@id":"way/33819642","ele":"6","gnis:county_id":"047","gnis:created":"01/23/1980","gnis:edited":"10/17/2005","gnis:feature_id":"956768","gnis:state_id":"36","leisure":"park","name":"Monsignor McGolrick Park","wikidata":"Q14706922","wikipedia":"en:McGolrick Park"},"id":"way/33819642"},{"type":null,"properties":{"@id":"way/34040424","leisure":"park","name":"Newtown Creek Nature Walk"},"id":"way/34040424"},{"type":null,"properties":{"@id":"way/36185652","leisure":"park","name":"Bellevue Society Garden"},"id":"way/36185652"},{"type":null,"properties":{"@id":"way/36865288","leisure":"park","name":"Desalvio Playground","wikidata":"Q5244081","wikipedia":"en:DeSalvio Playground"},"id":"way/36865288"},{"arcs":[[26,27,28,29]],"type":"Polygon","properties":{"@id":"way/37003318","leisure":"park","name":"Riverside Park"},"id":"way/37003318"},{"type":null,"properties":{"@id":"way/38158617","ele":"23","gnis:feature_id":"954607","leisure":"park","name":"Joyce Kilmer Park","wikidata":"Q34839360"},"id":"way/38158617"},{"arcs":[[30]],"type":"Polygon","properties":{"@id":"way/38159224","ele":"6","gnis:county_id":"005","gnis:created":"01/23/1980","gnis:feature_id":"958139","gnis:state_id":"36","leisure":"park","name":"John Mullaly Park"},"id":"way/38159224"},{"type":null,"properties":{"@id":"way/38159225","leisure":"park","name":"John Mullaly Park"},"id":"way/38159225"},{"type":null,"properties":{"@id":"way/39015952","leisure":"park","name":"Schaefer Esplanade"},"id":"way/39015952"},{"arcs":[[31]],"type":"Polygon","properties":{"@id":"way/39243853","gnis:feature_id":"957684","leisure":"park","name":"Morningside Park","wikidata":"Q6913001","wikipedia":"en:Morningside Park (Manhattan)"},"id":"way/39243853"},{"type":null,"properties":{"@id":"way/39648033","leisure":"park","name":"Tryon Park","wikidata":"Q49572277"},"id":"way/39648033"},{"type":null,"properties":{"@id":"way/39648187","leisure":"park"},"id":"way/39648187"},{"type":null,"properties":{"@id":"way/39648234","ele":"92","gnis:county_id":"003","gnis:created":"07/01/1981","gnis:feature_id":"2054687","gnis:state_id":"34","landuse":"recreation_ground","leisure":"park","name":"William Birch Park","source":"NJ2002LULC","wikidata":"Q49580943"},"id":"way/39648234"},{"type":null,"properties":{"@id":"way/39648275","addr:city":"Fort Lee","addr:postcode":"07024","addr:state":"NJ","leisure":"park","name":"Constitution Park","source":"NJ2002LULC","website":"https://www.fortleenj.org/index.php/departments-offices/fort-lee-parks-department/135-constitution-park.html","wikidata":"Q49479902"},"id":"way/39648275"},{"type":null,"properties":{"@id":"way/39648884","leisure":"park","name":"Amman Park","wikidata":"Q34807389"},"id":"way/39648884"},{"type":null,"properties":{"@id":"way/39680302","ele":"44","gnis:county_id":"017","gnis:created":"09/08/1979","gnis:feature_id":"875945","gnis:state_id":"34","leisure":"park","name":"Donnelly Memorial Park","source":"NJ2002LULC","wikidata":"Q49483737"},"id":"way/39680302"},{"type":null,"properties":{"@id":"way/39681042","ele":"57","gnis:county_id":"017","gnis:created":"09/08/1979","gnis:feature_id":"878375","gnis:state_id":"34","leisure":"park","name":"Miller Park","source":"NJ2002LULC","wikidata":"Q34851173"},"id":"way/39681042"},{"type":null,"properties":{"@id":"way/39830418","landuse":"grass","leisure":"park","name":"Denning Park","source":"NJ2002LULC"},"id":"way/39830418"},{"arcs":[[32]],"type":"Polygon","properties":{"@id":"way/39831420","leisure":"park","source":"NJ2002LULC"},"id":"way/39831420"},{"type":null,"properties":{"@id":"way/39841753","leisure":"park","natural":"wood","source":"NJ2002LULC"},"id":"way/39841753"},{"type":null,"properties":{"@id":"way/40117419","leisure":"park","sport":"skateboard"},"id":"way/40117419"},{"arcs":[[33]],"type":"Polygon","properties":{"@id":"way/40336208","leisure":"park","name":"Saint Mary's Park","wikidata":"Q20858366"},"id":"way/40336208"},{"type":null,"properties":{"@id":"way/40663077","leisure":"park","name":"Trinity Park"},"id":"way/40663077"},{"arcs":[[34]],"type":"Polygon","properties":{"@id":"way/40709911","leisure":"park","name":"Commodore John Barry Park"},"id":"way/40709911"},{"type":null,"properties":{"@id":"way/41915294","ele":"3","gnis:county_id":"003","gnis:created":"07/01/1981","gnis:feature_id":"2054530","gnis:state_id":"34","landuse":"recreation_ground","leisure":"park","name":"Willis Park","source":"NJ2002LULC","wikidata":"Q49581329"},"id":"way/41915294"},{"type":null,"properties":{"@id":"way/44225581","ele":"10","gnis:county_id":"061","gnis:created":"11/01/2006","gnis:edited":"08/01/2007","gnis:feature_id":"2095891","gnis:state_id":"36","leisure":"park","name":"Petrosino Square","source":"Yahoo","wikidata":"Q16983511"},"id":"way/44225581"},{"type":null,"properties":{"@id":"way/44804002","leisure":"park","name":"Castle Hill Park","wikidata":"Q34814877"},"id":"way/44804002"},{"type":null,"properties":{"@id":"way/44818097","leisure":"park"},"id":"way/44818097"},{"type":null,"properties":{"@id":"way/44844928","description":"This park area should be updated. Morris Yacht & Beach Club and the Tony seafood restaurants are both private entities. Park designation gives impression that it is public land which it isn't","leisure":"park","name":"Belden Point Park","wikidata":"Q34806551"},"id":"way/44844928"},{"type":null,"properties":{"@id":"way/44946244","leisure":"park","sport":"baseball"},"id":"way/44946244"},{"type":null,"properties":{"@id":"way/44996091","leisure":"park","name":"Lafayette Avenue Park"},"id":"way/44996091"},{"arcs":[[35]],"type":"Polygon","properties":{"@id":"way/47798671","ele":"3","gnis:county_id":"081","gnis:created":"12/08/2005","gnis:feature_id":"2080532","gnis:state_id":"36","leisure":"park","name":"Queensbridge Park"},"id":"way/47798671"},{"type":null,"properties":{"@id":"way/48686595","leisure":"park","name":"WNYC Transmitter Park","wikidata":"Q23092174"},"id":"way/48686595"},{"type":null,"properties":{"@id":"way/48997911","leisure":"park","name":"Macri Square"},"id":"way/48997911"},{"type":null,"properties":{"@id":"way/48997912","leisure":"park","name":"Jaime Campiz Playground"},"id":"way/48997912"},{"type":null,"properties":{"@id":"way/49031717","leisure":"park","name":"Mount Carmel Square"},"id":"way/49031717"},{"type":null,"properties":{"@id":"way/49034777","leisure":"park","name":"Badame Sessa Memorial Square"},"id":"way/49034777"},{"type":null,"properties":{"@id":"way/53189828","leisure":"park","name":"John Delury Square"},"id":"way/53189828"},{"type":null,"properties":{"@id":"way/55824235","leisure":"park","name":"Brook Ave Park"},"id":"way/55824235"},{"arcs":[[36,37]],"type":"Polygon","properties":{"@id":"way/56469108","leisure":"park","name":"Brooklyn Bridge Park","website":"https://www.brooklynbridgepark.org/","wikidata":"Q929440","wikipedia":"en:Brooklyn Bridge Park"},"id":"way/56469108"},{"type":null,"properties":{"@id":"way/59582314","leisure":"park","name":"Maxwell Place Park"},"id":"way/59582314"},{"type":null,"properties":{"@id":"way/66374787","dog":"leashed","ele":"5","gnis:county_id":"061","gnis:created":"10/02/2008","gnis:feature_id":"2500762","gnis:state_id":"36","leisure":"park","maintenance":"ok","name":"Columbus Park","smoking":"no","source":"local_knowledge;osmsync:findafountain","source:pkey":"1156","wikidata":"Q17299837","wikipedia":"en:Columbus Park (Manhattan)"},"id":"way/66374787"},{"arcs":[[38,39]],"type":"Polygon","properties":{"@id":"way/75311774","leisure":"park","name":"Battery Park City Ball Fields","operator":"Battery Park City Authority","website":"http://bpcparks.org/whats-here/parks/ball-fields/"},"id":"way/75311774"},{"type":null,"properties":{"@id":"way/75364733","leisure":"park","name":"Bogardus Garden","website":"https://www.bogardusgarden.org/"},"id":"way/75364733"},{"type":null,"properties":{"@id":"way/86144190","ele":"6","gnis:county_id":"061","gnis:feature_id":"2500741","gnis:state_id":"36","leisure":"park","name":"Abingdon Square","wikidata":"Q4667850","wikipedia":"en:Abingdon Square Park"},"id":"way/86144190"},{"type":null,"properties":{"@id":"way/86144198","leisure":"park"},"id":"way/86144198"},{"type":null,"properties":{"@id":"way/86256760","leisure":"park","name":"Arthur Strickler Triangle"},"id":"way/86256760"},{"type":null,"properties":{"@id":"way/86336886","leisure":"park","name":"Sherman Square","website":"https://www.nycgovparks.org/parks/sherman-square","wikidata":"Q5620968"},"id":"way/86336886"},{"type":null,"properties":{"@id":"way/86338375","ele":"11","gnis:feature_id":"2083321","leisure":"park","name":"Greenacre Park","website":"https://greenacrepark.org","wikidata":"Q47321179","wikipedia":"en:Greenacre Park"},"id":"way/86338375"},{"type":null,"properties":{"@id":"way/86714429","ele":"9","gnis:feature_id":"2500472","leisure":"park","name":"Kimlau Square"},"id":"way/86714429"},{"type":null,"properties":{"@id":"way/92736192","alt_name":"Right Triangle Playground","ele":"3","gnis:county_id":"047","gnis:created":"03/19/2008","gnis:feature_id":"2377231","gnis:state_id":"36","leisure":"park","name":"Greenpoint Playground"},"id":"way/92736192"},{"type":null,"properties":{"@id":"way/92736193","leisure":"park","name":"Newtown Barge Playground"},"id":"way/92736193"},{"type":null,"properties":{"@id":"way/92739762","leisure":"park","name":"Manhattan Ave. Park"},"id":"way/92739762"},{"arcs":[[40,41]],"type":"Polygon","properties":{"@id":"way/95163093","ele":"1","leisure":"park","name":"Brooklyn Bridge Park","source":"bing"},"id":"way/95163093"},{"arcs":[[42,43]],"type":"Polygon","properties":{"@id":"way/95163097","ele":"0","leisure":"park","name":"Empire-Fulton Ferry State Park","source":"bing"},"id":"way/95163097"},{"type":null,"properties":{"@id":"way/95833119","ele":"12","gnis:county_id":"061","gnis:created":"01/17/2006","gnis:edited":"10/01/2008","gnis:feature_id":"2082974","gnis:state_id":"36","leisure":"park","name":"Cooper Triangle"},"id":"way/95833119"},{"type":null,"properties":{"@id":"way/102001129","ele":"4","gnis:county_id":"047","gnis:created":"02/22/2008","gnis:feature_id":"2381056","gnis:state_id":"36","leisure":"park","name":"Classon Triangle","source":"Bing"},"id":"way/102001129"},{"type":null,"properties":{"@id":"way/104077634","ele":"39","gnis:county_id":"061","gnis:created":"06/12/2006","gnis:edited":"10/02/2008","gnis:feature_id":"2078994","gnis:state_id":"36","leisure":"park","name":"Gorman Memorial Park","source":"http://www.nycgovparks.org/parks/M031/"},"id":"way/104077634"},{"type":null,"properties":{"@id":"way/104078386","leisure":"park","name":"Bennett Park","source":"http://www.nycgovparks.org/parks/bennettpark/highlights/6419","website":"https://www.nycgovparks.org/parks/bennett-park","wikidata":"Q2729185","wikipedia":"en:Bennett Park (New York City)"},"id":"way/104078386"},{"type":null,"properties":{"@id":"way/108153375","ele":"5","gnis:county_id":"061","gnis:created":"10/02/2008","gnis:feature_id":"2500761","gnis:state_id":"36","leisure":"park","name":"Collect Pond Park","website":"https://www.nycgovparks.org/parks/collect-pond-park/","wikidata":"Q5146020"},"id":"way/108153375"},{"type":null,"properties":{"@id":"way/108153380","ele":"5","gnis:county_id":"061","gnis:created":"10/02/2008","gnis:feature_id":"2500763","gnis:state_id":"36","leisure":"park","name":"Thomas Paine Park","opening_hours":"Mo-Su 06:00-01:00","website":"https://www.nycgovparks.org/parks/thomas-paine-park","wikidata":"Q34865250"},"id":"way/108153380"},{"type":null,"properties":{"@id":"way/108153674","access":"no","ele":"4","gnis:feature_id":"2072135","leisure":"park","name":"Saint John's Park","source":"bing","wikidata":"Q7588803","wikipedia":"en:St. John's Park"},"id":"way/108153674"},{"type":null,"properties":{"@id":"way/108153676","dog":"leashed","gnis:feature_id":"2082960","leisure":"park","name":"Duarte Square","opening_hours":"Mo-Su 06:00-01:00","smoking":"no","website":"https://www.nycgovparks.org/parks/duarte-square","wheelchair":"yes","wikidata":"Q14706247","wikipedia":"en:Duarte Square"},"id":"way/108153676"},{"arcs":[[44]],"type":"Polygon","properties":{"@id":"way/108159406","ele":"9","gnis:county_id":"061","gnis:created":"01/23/1980","gnis:edited":"10/27/2005","gnis:feature_id":"973403","gnis:state_id":"36","leisure":"park","name":"Carl Schurz Park","source":"bing","wikidata":"Q5040790","wikipedia":"en:Carl Schurz Park"},"id":"way/108159406"},{"arcs":[[45]],"type":"Polygon","properties":{"@id":"way/108159407","ele":"2","gnis:county_id":"061","gnis:created":"01/23/1980","gnis:feature_id":"953965","gnis:state_id":"36","leisure":"park","name":"Jefferson Park","source":"bing"},"id":"way/108159407"},{"type":null,"properties":{"@id":"way/108199253","layer":"1","leisure":"park","level":"1","name":"Robert Moses Plaza","operator":"Fordham University"},"id":"way/108199253"},{"type":null,"properties":{"@id":"way/108199260","layer":"1","leisure":"park","level":"1","name":"St. Peter's Garden","operator":"Fordham University"},"id":"way/108199260"},{"type":null,"properties":{"@id":"way/108201933","ele":"0","gnis:county_id":"061","gnis:created":"06/12/2006","gnis:feature_id":"2076786","gnis:state_id":"36","leisure":"park","name":"Mill Rock Park","website":"https://www.nycgovparks.org/parks/mill-rock-park","wikidata":"Q34850981"},"id":"way/108201933"},{"type":null,"properties":{"@id":"way/108220705","leisure":"park"},"id":"way/108220705"},{"type":null,"properties":{"@id":"way/108220718","ele":"0","gnis:county_id":"061","gnis:created":"06/12/2006","gnis:feature_id":"2076785","gnis:state_id":"36","leisure":"park","name":"Lighthouse Park","wikidata":"Q34842802"},"id":"way/108220718"},{"type":null,"properties":{"@id":"way/108235832","leisure":"park","name":"Corlears Hook Park","source":"bing","wikidata":"Q34819896"},"id":"way/108235832"},{"type":null,"properties":{"@id":"way/108235833","leisure":"park","name":"Rector Park","source":"bing","wikidata":"Q34855841"},"id":"way/108235833"},{"type":null,"properties":{"@id":"way/108235836","comment":"polygon may not be exact","ele":"10","gnis:county_id":"061","gnis:created":"01/23/1980","gnis:feature_id":"964887","gnis:state_id":"36","leisure":"park","name":"Seward Park","source":"bing","wikidata":"Q7458187"},"id":"way/108235836"},{"type":null,"properties":{"@id":"way/108235837","alt_name":"New York Vietnam Veterans Memorial Park","ele":"1","gnis:feature_id":"2057411","leisure":"park","name":"Vietnam Veterans Plaza","source":"bing","website":"https://www.vietnamveteransplaza.com/","wikidata":"Q16902703","wikipedia":"en:Vietnam Veterans Plaza"},"id":"way/108235837"},{"arcs":[[46,47]],"type":"Polygon","properties":{"@id":"way/108235842","alt_name":"East River Park","ele":"1","gnis:feature_id":"973379","leisure":"park","name":"John V. Lindsay East River Park","source":"bing","start_date":"1939","wikidata":"Q1962990","wikipedia":"en:East River Park"},"id":"way/108235842"},{"arcs":[[48,49]],"type":"Polygon","properties":{"@id":"way/108236534","comment":"boundary may not be exact please update if so","ele":"3","gnis:county_id":"061","gnis:created":"01/23/1980","gnis:feature_id":"968796","gnis:state_id":"36","leisure":"park","name":"Wards Island Park","source":"bing","website":"https://www.nycgovparks.org/parks/wards-island-park"},"id":"way/108236534"},{"type":null,"properties":{"@id":"way/108237828","ele":"8","gnis:county_id":"061","gnis:created":"01/23/1980","gnis:edited":"10/17/2005","gnis:feature_id":"947175","gnis:state_id":"36","leisure":"park","name":"Jackie Robinson Park","source":"bing"},"id":"way/108237828"},{"type":null,"properties":{"@id":"way/108239585","ele":"46","gnis:county_id":"061","gnis:created":"10/02/2008","gnis:feature_id":"2500808","gnis:state_id":"36","leisure":"park","name":"Jacob Schiff Playground","source":"bing"},"id":"way/108239585"},{"type":null,"properties":{"@id":"way/108239586","ele":"33","gnis:county_id":"061","gnis:created":"10/02/2008","gnis:feature_id":"2500807","gnis:state_id":"36","leisure":"park","name":"Montefiore Park","source":"bing"},"id":"way/108239586"},{"type":null,"properties":{"@id":"way/108239588","ele":"41","gnis:county_id":"061","gnis:created":"10/06/2008","gnis:feature_id":"2500973","gnis:state_id":"36","leisure":"park","name":"Alexander Hamilton Playground","source":"bing","wikidata":"Q34802339"},"id":"way/108239588"},{"arcs":[[50]],"type":"Polygon","properties":{"@id":"way/108239589","ele":"19","gnis:county_id":"061","gnis:created":"01/23/1980","gnis:feature_id":"964033","gnis:state_id":"36","leisure":"park","name":"Saint Nicholas Park","source":"bing","wikidata":"Q7590845"},"id":"way/108239589"},{"type":null,"properties":{"@id":"way/108295732","leisure":"park"},"id":"way/108295732"},{"type":null,"properties":{"@id":"way/108295735","leisure":"park"},"id":"way/108295735"},{"type":null,"properties":{"@id":"way/108295739","barrier":"fence","leisure":"park"},"id":"way/108295739"},{"type":null,"properties":{"@id":"way/108296005","leisure":"park"},"id":"way/108296005"},{"arcs":[[51,52]],"type":"Polygon","properties":{"@id":"way/108315458","addr:city":"New York","addr:housenumber":"1","addr:postcode":"10044","addr:street":"FDR Four Freedoms Park","leisure":"park","name":"FDR Four Freedoms Park","official_name":"Franklin D. Roosevelt Four Freedoms Park","opening_hours":"We-Mo 09:00-19:00; Tu off","start_date":"2012","website":"https://www.fdrfourfreedomspark.org/","wikidata":"Q74980","wikipedia":"en:Four Freedoms Park"},"id":"way/108315458"},{"arcs":[[53]],"type":"Polygon","properties":{"@id":"way/108329320","addr:city":"Jackson Heights","addr:housenumber":"80-01","addr:postcode":"11370","addr:state":"NY","addr:street":"19th Avenue","leisure":"park","name":"Elmjack Little League"},"id":"way/108329320"},{"type":null,"properties":{"@id":"way/109267278","leisure":"park","name":"Coenties Slip Park","source":"survey"},"id":"way/109267278"},{"type":null,"properties":{"@id":"way/109269750","ele":"15","gnis:feature_id":"2083287","leisure":"park","name":"Grand Army Plaza","name:ko":"그랜드 아미 플라자","name:ru":"Великая армейская площадь","wikidata":"Q1139579","wikipedia":"en:Grand Army Plaza (Manhattan)"},"id":"way/109269750"},{"type":null,"properties":{"@id":"way/109328312","ele":"4","gnis:feature_id":"2500577","leisure":"park","name":"Joseph C. Sauer Park","wikidata":"Q34839109"},"id":"way/109328312"},{"type":null,"properties":{"@id":"way/109330342","ele":"5","gnis:feature_id":"2500479","leisure":"park","name":"James Madison Plaza"},"id":"way/109330342"},{"type":null,"properties":{"@id":"way/109337495","ele":"3","gnis:county_id":"061","gnis:created":"01/01/2000","gnis:feature_id":"2057421","gnis:state_id":"36","leisure":"park","name":"Hanover Square","source":"bing","wikidata":"Q34833410"},"id":"way/109337495"},{"type":null,"properties":{"@id":"way/109441961","ele":"2","gnis:county_id":"061","gnis:created":"01/01/2000","gnis:feature_id":"2058383","gnis:state_id":"36","leisure":"park","name":"Titanic Memorial Park"},"id":"way/109441961"},{"type":null,"properties":{"@id":"way/109447376","ele":"5","gnis:feature_id":"2058391","leisure":"park","name":"Louise Nevelson Plaza","start_date":"1978"},"id":"way/109447376"},{"type":null,"properties":{"@id":"way/111563947","ele":"10","gnis:county_id":"061","gnis:created":"12/08/2005","gnis:feature_id":"2080614","gnis:state_id":"36","leisure":"park","name":"Peretz Square","website":"https://www.nycgovparks.org/parks/M123/highlights/6509","wikidata":"Q7167902","wikipedia":"en:Peretz Square"},"id":"way/111563947"},{"type":null,"properties":{"@id":"way/112168184","ele":"12","fixme":"Survey to see results of park construction, espcially path connections between streets","gnis:feature_id":"2377132","leisure":"park","name":"Green Central Knoll"},"id":"way/112168184"},{"type":null,"properties":{"@id":"way/112692313","ele":"5","gnis:county_id":"061","gnis:created":"01/23/1980","gnis:feature_id":"944522","gnis:state_id":"36","leisure":"park","name":"Bowling Green","website":"https://www.nycgovparks.org/parks/bowling-green","wikidata":"Q895455","wikipedia":"en:Bowling Green (New York City)"},"id":"way/112692313"},{"type":null,"properties":{"@id":"way/113690621","leisure":"park","name":"Marsh & McLennan Public Space"},"id":"way/113690621"},{"type":null,"properties":{"@id":"way/113723738","ele":"33","gnis:feature_id":"2083440","leisure":"park","name":"Straus Park","source":"bing","wikidata":"Q7622320"},"id":"way/113723738"},{"type":null,"properties":{"@id":"way/113727156","ele":"5","gnis:county_id":"081","gnis:created":"01/23/1980","gnis:feature_id":"955145","gnis:state_id":"36","leisure":"park","name":"Leavitts Park","source":"bing","wikidata":"Q34841763"},"id":"way/113727156"},{"type":null,"properties":{"@id":"way/113727159","ele":"4","gnis:county_id":"081","gnis:created":"12/08/2005","gnis:feature_id":"2080530","gnis:state_id":"36","leisure":"park","name":"Powell's Cove Park","source":"bing","website":"https://www.nycgovparks.org/parks/powells-cove-park/"},"id":"way/113727159"},{"type":null,"properties":{"@id":"way/113727161","ele":"8","gnis:county_id":"081","gnis:created":"08/10/2007","gnis:feature_id":"2330911","gnis:state_id":"36","leisure":"park","name":"Alexander Grey Triangle","source":"bing","wikidata":"Q34802330"},"id":"way/113727161"},{"type":null,"properties":{"@id":"way/113727168","ele":"7","gnis:county_id":"081","gnis:created":"08/10/2007","gnis:edited":"12/05/2007","gnis:feature_id":"2330910","gnis:state_id":"36","leisure":"park","name":"Whitestone Playground","source":"bing","wikidata":"Q34869538"},"id":"way/113727168"},{"type":null,"properties":{"@id":"way/113727170","ele":"5","gnis:county_id":"081","gnis:created":"08/10/2007","gnis:edited":"10/24/2007","gnis:feature_id":"2330921","gnis:state_id":"36","leisure":"park","name":"Cadwallader Colden Playground","source":"bing","wikidata":"Q34813282"},"id":"way/113727170"},{"type":null,"properties":{"@id":"way/113757309","description":"This park honors Grover Cleveland (1837-1908), the 22nd and 24th President of the United States.","grass":"finely_mown","leisure":"park","name":"Grover Cleveland Park","source":"bing"},"id":"way/113757309"},{"type":null,"properties":{"@id":"way/117994215","ele":"16","gnis:feature_id":"2500942","leisure":"park","name":"Samuel N Bennerson Playground","source":"Bing"},"id":"way/117994215"},{"type":null,"properties":{"@id":"way/117994217","addr:city":"New York","addr:postcode":"10023","addr:state":"NY","addr:street":"West 62nd Street","ele":"22","gnis:feature_id":"2044307","leisure":"park","name":"Damrosch Park","smoking":"no","source":"Bing","wikidata":"Q14706233","wikipedia":"en:Damrosch Park"},"id":"way/117994217"},{"type":null,"properties":{"@id":"way/118116798","leisure":"park","name":"Pier 84"},"id":"way/118116798"},{"type":null,"properties":{"@id":"way/118116802","leisure":"park","source":"Bing"},"id":"way/118116802"},{"type":null,"properties":{"@id":"way/118505053","leisure":"park","name":"Hudson River Park","wheelchair":"yes"},"id":"way/118505053"},{"type":null,"properties":{"@id":"way/118524658","ele":"40","gnis:county_id":"061","gnis:created":"02/03/2006","gnis:feature_id":"2083663","gnis:state_id":"36","leisure":"park","name":"Johnny Hartman Plaza","old_name":"Alexander Hamilton Square","source":"Bing"},"id":"way/118524658"},{"type":null,"properties":{"@id":"way/118524659","ele":"6","gnis:county_id":"061","gnis:created":"10/02/2008","gnis:feature_id":"2500801","gnis:state_id":"36","leisure":"park","name":"Courtney Callender Playground","source":"Bing","wikidata":"Q34820165"},"id":"way/118524659"},{"type":null,"properties":{"@id":"way/118524660","ele":"5","gnis:county_id":"061","gnis:created":"10/02/2008","gnis:feature_id":"2500805","gnis:state_id":"36","leisure":"park","name":"Alice Kornegay Triangle","source":"Bing","wikidata":"Q34802391"},"id":"way/118524660"},{"type":null,"properties":{"@id":"way/118524662","ele":"9","gnis:county_id":"061","gnis:created":"10/02/2008","gnis:feature_id":"2500784","gnis:state_id":"36","leisure":"park","name":"Colonel Charles Young Triangle","source":"Bing","wikidata":"Q34819252"},"id":"way/118524662"},{"type":null,"properties":{"@id":"way/118524664","ele":"8","gnis:county_id":"061","gnis:created":"10/02/2008","gnis:feature_id":"2500788","gnis:state_id":"36","leisure":"park","name":"Renaissance Playground","source":"Bing","wikidata":"Q34856376"},"id":"way/118524664"},{"arcs":[[54,55]],"type":"Polygon","properties":{"@id":"way/118524667","ele":"1","gnis:county_id":"061","gnis:created":"10/02/2008","gnis:feature_id":"2500783","gnis:state_id":"36","leisure":"park","name":"Harlem Lane Playground","source":"Bing"},"id":"way/118524667"},{"type":null,"properties":{"@id":"way/118524668","ele":"5","gnis:county_id":"061","gnis:created":"10/02/2008","gnis:feature_id":"2500798","gnis:state_id":"36","leisure":"park","name":"Howard Bennett Playground","wikidata":"Q34836014"},"id":"way/118524668"},{"type":null,"properties":{"@id":"way/118524669","ele":"5","gnis:county_id":"061","gnis:created":"10/02/2008","gnis:feature_id":"2500800","gnis:state_id":"36","leisure":"park","name":"Moore Playground","source":"Bing"},"id":"way/118524669"},{"type":null,"properties":{"@id":"way/118524671","ele":"2","gnis:county_id":"061","gnis:created":"10/02/2008","gnis:feature_id":"2500789","gnis:state_id":"36","leisure":"park","name":"Colonel Charles Young Playground","source":"Bing","wikidata":"Q34819240"},"id":"way/118524671"},{"arcs":[[-55,56]],"type":"Polygon","properties":{"@id":"way/118524677","ele":"3","gnis:county_id":"061","gnis:created":"10/02/2008","gnis:feature_id":"2500785","gnis:state_id":"36","leisure":"park","name":"Fredrick Johnson Park","source":"Bing"},"id":"way/118524677"},{"type":null,"properties":{"@id":"way/118524678","ele":"3","gnis:county_id":"061","gnis:created":"10/02/2008","gnis:feature_id":"2500799","gnis:state_id":"36","leisure":"park","name":"Abe Lincoln Playground"},"id":"way/118524678"},{"type":null,"properties":{"@id":"way/118524689","ele":"4","gnis:county_id":"061","gnis:created":"10/02/2008","gnis:feature_id":"2500782","gnis:state_id":"36","leisure":"park","name":"Holcombe Rucker Playground","source":"Bing","wikidata":"Q34835453"},"id":"way/118524689"},{"arcs":[[57,58]],"type":"Polygon","properties":{"@id":"way/118524694","ele":"2","gnis:county_id":"061","gnis:created":"01/17/2006","gnis:feature_id":"2082742","gnis:state_id":"36","layer":"2","leisure":"park","name":"Riverbank State Park","source":"Bing","wikidata":"Q2724117"},"id":"way/118524694"},{"type":null,"properties":{"@id":"way/118524697","ele":"3","gnis:county_id":"061","gnis:created":"10/06/2008","gnis:feature_id":"2500818","gnis:state_id":"36","leisure":"park","name":"Crack Is Wack Playground","source":"Bing","wikidata":"Q34820466"},"id":"way/118524697"},{"type":null,"properties":{"@id":"way/118524700","ele":"2","gnis:county_id":"061","gnis:created":"10/02/2008","gnis:feature_id":"2500806","gnis:state_id":"36","leisure":"park","name":"Harlem River Park"},"id":"way/118524700"},{"type":null,"properties":{"@id":"way/118524701","ele":"7","gnis:county_id":"061","gnis:created":"10/02/2008","gnis:feature_id":"2500787","gnis:state_id":"36","leisure":"park","name":"Bradhurst Urban Renewal Park","source":"Bing","wikidata":"Q34810316"},"id":"way/118524701"},{"type":null,"properties":{"@id":"way/118524706","ele":"34","gnis:county_id":"061","gnis:created":"10/02/2008","gnis:feature_id":"2500780","gnis:state_id":"36","leisure":"park","name":"Convent Garden","source":"Bing","wikidata":"Q34819646"},"id":"way/118524706"},{"type":null,"properties":{"@id":"way/118528233","leisure":"park","name":"Sakura Park","source":"Bing","wikidata":"Q1100655"},"id":"way/118528233"},{"type":null,"properties":{"@id":"way/118528235","leisure":"park","name":"West Harlem Piers Park","source":"Bing"},"id":"way/118528235"},{"arcs":[[59,-8,60,-29]],"type":"Polygon","properties":{"@id":"way/118528587","leisure":"park"},"id":"way/118528587"},{"type":null,"properties":{"@id":"way/121759268","leisure":"park"},"id":"way/121759268"},{"type":null,"properties":{"@id":"way/124814434","leisure":"park","name":"Bogardus Plaza"},"id":"way/124814434"},{"type":null,"properties":{"@id":"way/129002500","leisure":"park"},"id":"way/129002500"},{"type":null,"properties":{"@id":"way/129700421","dog":"no","ele":"0","gnis:county_id":"061","gnis:created":"01/01/2000","gnis:feature_id":"2057413","gnis:state_id":"36","leisure":"park","name":"Wagner Park","operator":"Battery City Park Authotity","website":"https://bpcparks.org/whats-here/parks/wagner-park/"},"id":"way/129700421"},{"arcs":[[61,62]],"type":"Polygon","properties":{"@id":"way/129700423","ele":"0","gnis:county_id":"061","gnis:created":"01/01/2000","gnis:feature_id":"2060105","gnis:state_id":"36","leisure":"park","name":"South Cove Park"},"id":"way/129700423"},{"arcs":[[63,-5,64,65,-62]],"type":"Polygon","properties":{"@id":"way/129700430","ele":"0","gnis:county_id":"061","gnis:created":"01/01/2000","gnis:feature_id":"2060104","gnis:state_id":"36","leisure":"park","name":"The Esplanade"},"id":"way/129700430"},{"arcs":[[66,67]],"type":"Polygon","properties":{"@id":"way/134158685","ele":"18","gnis:county_id":"081","gnis:created":"09/05/2007","gnis:feature_id":"2351683","gnis:state_id":"36","leisure":"park","name":"Travers Park","website":"https://www.nycgovparks.org/parks/travers-park/","wikidata":"Q7836135"},"id":"way/134158685"},{"type":null,"properties":{"@id":"way/134164203","ele":"20","gnis:county_id":"081","gnis:created":"09/05/2007","gnis:feature_id":"2351663","gnis:state_id":"36","leisure":"park","name":"Astoria Heights Playground","website":"https://www.nycgovparks.org/parks/astoria-heights-playground"},"id":"way/134164203"},{"type":null,"properties":{"@id":"way/134164229","leisure":"park","name":"Dutch Kills Playground","website":"https://www.nycgovparks.org/parks/dutchkillsplayground/"},"id":"way/134164229"},{"type":null,"properties":{"@id":"way/134164241","ele":"5","gnis:feature_id":"2351603","leisure":"park","name":"Ravenswood Playground","website":"https://www.nycgovparks.org/parks/Q333/","wikidata":"Q34855704"},"id":"way/134164241"},{"type":null,"properties":{"@id":"way/143292128","leisure":"park","name":"Windmuller Park"},"id":"way/143292128"},{"type":null,"properties":{"@id":"way/143292941","ele":"29","gnis:county_id":"081","gnis:created":"09/07/2007","gnis:feature_id":"2352550","gnis:state_id":"36","leisure":"park","name":"Charles Steinmann Square","wikidata":"Q34816513"},"id":"way/143292941"},{"type":null,"properties":{"@id":"way/143295853","leisure":"park"},"id":"way/143295853"},{"type":null,"properties":{"@id":"way/143296810","ele":"30","gnis:county_id":"081","gnis:created":"09/07/2007","gnis:feature_id":"2352552","gnis:state_id":"36","leisure":"park","name":"Lawrence Virgilio Playground","wikidata":"Q34841507"},"id":"way/143296810"},{"type":null,"properties":{"@id":"way/143928484","ele":"30","gnis:county_id":"081","gnis:created":"09/07/2007","gnis:feature_id":"2352553","gnis:state_id":"36","leisure":"park","name":"Vincent Daniels Square"},"id":"way/143928484"},{"type":null,"properties":{"@id":"way/143928485","ele":"28","gnis:county_id":"081","gnis:created":"09/07/2007","gnis:feature_id":"2352569","gnis:state_id":"36","leisure":"park","name":"Lance Corporal Thomas P Noonan Playground","website":"https://www.nycgovparks.org/parks/l-cpl-thomas-p-noonan-jr-playground","wikidata":"Q34840559"},"id":"way/143928485"},{"type":null,"properties":{"@id":"way/143928486","leisure":"park","name":"John Downing Park"},"id":"way/143928486"},{"type":null,"properties":{"@id":"way/143932285","leisure":"park","name":"Queensboro Bridge Greenway"},"id":"way/143932285"},{"type":null,"properties":{"@id":"way/143932286","leisure":"park","name":"Dutch Kills Green"},"id":"way/143932286"},{"type":null,"properties":{"@id":"way/144630614","designation":"Van Cortlandt's Tail","leisure":"park","source":"Local knowledge"},"id":"way/144630614"},{"type":null,"properties":{"@id":"way/147035202","dog":"leashed","ele":"5","gnis:feature_id":"2060143","leisure":"park","name":"Duane Park","opening_hours":"Mo-Su 06:00-01:00","smoking":"no","website":"https://www.nycgovparks.org/parks/duane-park","wikidata":"Q3950666","wikipedia":"en:Duane Park"},"id":"way/147035202"},{"type":null,"properties":{"@id":"way/147475917","ele":"5","gnis:feature_id":"952096","leisure":"park","name":"Hamilton Fish Park","start_date":"1936","wikidata":"Q5644941","wikipedia":"en:Hamilton Fish Park Pool"},"id":"way/147475917"},{"type":null,"properties":{"@id":"way/154374795","ele":"12","gnis:feature_id":"945331","leisure":"park","park":"Maria Hernandez Park","wikidata":"Q6761260"},"id":"way/154374795"},{"type":null,"properties":{"@id":"way/154416663","leisure":"park","name":"Dante Park","wikidata":"Q5221180","wikipedia":"en:Dante Park"},"id":"way/154416663"},{"type":null,"properties":{"@id":"way/154416666","leisure":"park","name":"Richard Tucker Square","website":"https://www.nycgovparks.org/parks/richard-tucker-square"},"id":"way/154416666"},{"type":null,"properties":{"@id":"way/159028631","ele":"21","gnis:feature_id":"2083265","leisure":"park","name":"Channel Gardens","wikidata":"Q34816322"},"id":"way/159028631"},{"type":null,"properties":{"@id":"way/160062196","leisure":"park","name":"Space Park","source":"Bing","tourism":"attraction"},"id":"way/160062196"},{"type":null,"properties":{"@id":"way/160754300","ele":"10","gnis:county_id":"081","gnis:created":"09/07/2007","gnis:feature_id":"2352109","gnis:state_id":"36","leisure":"park","name":"Hoyt Playground","wikidata":"Q34836293"},"id":"way/160754300"},{"type":null,"properties":{"@id":"way/160903868","ele":"9","gnis:feature_id":"2500563","leisure":"park","name":"McKinley Playground","website":"https://www.nycgovparks.org/parks/mckinley-playground"},"id":"way/160903868"},{"type":null,"properties":{"@id":"way/161768219","dog":"leashed","leisure":"park","name":"Hudson River Park"},"id":"way/161768219"},{"type":null,"properties":{"@id":"way/163161187","leisure":"park","name":"Whitney Lane Memorial Park"},"id":"way/163161187"},{"type":null,"properties":{"@id":"way/165166156","leisure":"park"},"id":"way/165166156"},{"type":null,"properties":{"@id":"way/165166160","leisure":"park"},"id":"way/165166160"},{"type":null,"properties":{"@id":"way/169483357","leisure":"park"},"id":"way/169483357"},{"type":null,"properties":{"@id":"way/170832238","leisure":"park","name":"Riverdale Park"},"id":"way/170832238"},{"type":null,"properties":{"@id":"way/171562481","ele":"5","gnis:county_id":"061","gnis:created":"10/02/2008","gnis:feature_id":"2500748","gnis:state_id":"36","leisure":"park","name":"Father Demo Square","website":"https://www.nycgovparks.org/parks/father-demo-square/","wikidata":"Q28209059"},"id":"way/171562481"},{"type":null,"properties":{"@id":"way/171805412","ele":"6","gnis:county_id":"061","gnis:created":"01/23/1980","gnis:edited":"10/01/2008","gnis:feature_id":"948618","gnis:state_id":"36","leisure":"park","name":"Luther Gulick Playground"},"id":"way/171805412"},{"type":null,"properties":{"@id":"way/171815618","construction":"yes","leisure":"park","name":"Pier 35 Park"},"id":"way/171815618"},{"arcs":[[-47,68]],"type":"Polygon","properties":{"@id":"way/171830094","construction":"yes","landuse":"construction","leisure":"park","name":"Pier 42 Park","proposed":"yes","source":"http://www.lowermanhattan.info/construction/project_updates/east_river_waterfront_78637.aspx","website":"https://www.nycgovparks.org/parks/pier-42/map"},"id":"way/171830094"},{"type":null,"properties":{"@id":"way/175952772","leisure":"park","name":"Father Studzinski Square"},"id":"way/175952772"},{"type":null,"properties":{"@id":"way/182431377","landuse":"recreation_ground","leisure":"park","name":"Playground Thirty Five XXXV","website":"https://www.nycgovparks.org/parks/playground-thirty-five-xxxv/"},"id":"way/182431377"},{"type":null,"properties":{"@id":"way/182440063","ele":"31","gnis:county_id":"081","gnis:created":"09/07/2007","gnis:feature_id":"2352551","gnis:state_id":"36","leisure":"park","name":"Doughboy Plaza","wikidata":"Q34825869"},"id":"way/182440063"},{"arcs":[[69]],"type":"Polygon","properties":{"@id":"way/182919752","ele":"5","gnis:feature_id":"956240","leisure":"park","name":"Macombs Dam Park","wikidata":"Q6724823","wikipedia":"en:Macombs Dam Park"},"id":"way/182919752"},{"type":null,"properties":{"@id":"way/192855283","ele":"4","gnis:county_id":"081","gnis:created":"09/07/2007","gnis:feature_id":"2352597","gnis:state_id":"36","leisure":"park","name":"Vernon Mall"},"id":"way/192855283"},{"type":null,"properties":{"@id":"way/194212578","ele":"26","gnis:county_id":"061","gnis:created":"06/12/2006","gnis:feature_id":"2078976;2500941","gnis:state_id":"36","leisure":"park","name":"Tecumseh Playground","note":"Closed during school hours during weekdays on the school year."},"id":"way/194212578"},{"type":null,"properties":{"@id":"way/197064614","leisure":"park","name":"James J Walker Park"},"id":"way/197064614"},{"type":null,"properties":{"@id":"way/197066133","leisure":"park","surface":"grass"},"id":"way/197066133"},{"arcs":[[70]],"type":"Polygon","properties":{"@id":"way/199925533","alt_name":"Marcus Garvey Park","leisure":"park","name":"Marcus Garvey Memorial Park","source":"Bing","wikidata":"Q1585658","wikipedia":"en:Marcus Garvey Park"},"id":"way/199925533"},{"arcs":[[71,72,73]],"type":"Polygon","properties":{"@id":"way/201158183","historic":"memorial","leisure":"park","name":"Irish Hunger Memorial","start_date":"2002","wikidata":"Q2899155","wikipedia":"en:Irish Hunger Memorial"},"id":"way/201158183"},{"type":null,"properties":{"@id":"way/207179573","ele":"5","gnis:county_id":"047","gnis:created":"03/19/2008","gnis:feature_id":"2381054","gnis:state_id":"36","leisure":"park","name":"Jacob's Ladder Playground"},"id":"way/207179573"},{"type":null,"properties":{"@id":"way/207181491","leisure":"park","name":"Schaefer Esplanade"},"id":"way/207181491"},{"type":null,"properties":{"@id":"way/207181495","leisure":"park","name":"Schaefer Esplanade"},"id":"way/207181495"},{"type":null,"properties":{"@id":"way/207181499","ele":"6","gnis:county_id":"047","gnis:created":"03/19/2008","gnis:feature_id":"2381053","gnis:state_id":"36","leisure":"park","name":"Roberto Clemente Ballfield"},"id":"way/207181499"},{"type":null,"properties":{"@id":"way/207181501","ele":"16","gnis:county_id":"047","gnis:created":"03/19/2008","gnis:feature_id":"2381048","gnis:state_id":"36","leisure":"park","name":"Roebling Playground"},"id":"way/207181501"},{"type":null,"properties":{"@id":"way/207181502","ele":"15","gnis:county_id":"047","gnis:created":"03/19/2008","gnis:feature_id":"2381049","gnis:state_id":"36","leisure":"park","name":"Sobel Green"},"id":"way/207181502"},{"arcs":[[74]],"type":"Polygon","properties":{"@id":"way/207361411","leisure":"park","name":"Veteran's Park","source":"local_knowledge and http://www.edgewaternj.org/pdf/final/Final%20MPRendering.pdf"},"id":"way/207361411"},{"type":null,"properties":{"@id":"way/208501777","addr:city":"Brooklyn","addr:housenumber":"201-203","addr:postcode":"11211","addr:state":"NY","addr:street":"South 2nd Street","garden:type":"community","leisure":"park","name":"El Puente Espíritu Tierra Community Garden","start_date":"1991","website":"http://www.elpuente.us/content/community-garden"},"id":"way/208501777"},{"type":null,"properties":{"@id":"way/210845349","leisure":"park","name":"Ciccarone Park"},"id":"way/210845349"},{"type":null,"properties":{"@id":"way/217650795","leisure":"park","name":"Firemen's Park"},"id":"way/217650795"},{"type":null,"properties":{"@id":"way/217655029","leisure":"park","name":"Monument Park","wikidata":"Q49527962"},"id":"way/217655029"},{"type":null,"properties":{"@id":"way/217722093","leisure":"park","name":"J. Hood Wright Park","wikidata":"Q6166715"},"id":"way/217722093"},{"type":null,"properties":{"@id":"way/218327131","access":"permissive","leisure":"park","name":"Verizon Plaza"},"id":"way/218327131"},{"type":null,"properties":{"@id":"way/218337945","leisure":"park","name":"Sean's Place","website":"https://www.nycgovparks.org/parks/seans-place"},"id":"way/218337945"},{"type":null,"properties":{"@id":"way/218395372","leisure":"park","name":"Gorman Playground"},"id":"way/218395372"},{"type":null,"properties":{"@id":"way/220354581","ele":"12","gnis:county_id":"081","gnis:created":"09/07/2007","gnis:feature_id":"2352111","gnis:state_id":"36","leisure":"park","name":"Athens Square","website":"https://www.nycgovparks.org/parks/athenssquare/history","wikidata":"Q34803522"},"id":"way/220354581"},{"type":null,"properties":{"@id":"way/220380961","ele":"0","gnis:county_id":"081","gnis:created":"09/07/2007","gnis:feature_id":"2352117","gnis:state_id":"36","leisure":"park","name":"Ralph Demarco Park"},"id":"way/220380961"},{"type":null,"properties":{"@id":"way/220634528","addr:city":"Queens","addr:postcode":"11101","addr:street":"37th Avenue, 14th Street, 21st Street","ele":"5","gnis:county_id":"081","gnis:created":"09/05/2007","gnis:feature_id":"2351623","gnis:state_id":"36","leisure":"park","name":"Sixteen Oaks Park","website":"https://www.nycgovparks.org/parks/Q284/"},"id":"way/220634528"},{"type":null,"properties":{"@id":"way/221922459","area":"yes","leisure":"park","name":"Chelsea Waterside Park"},"id":"way/221922459"},{"arcs":[[75,-27,76]],"type":"Polygon","properties":{"@id":"way/221922480","leisure":"park","name":"Riverside Park South","source":"nyc parks and bing"},"id":"way/221922480"},{"type":null,"properties":{"@id":"way/222233979","leisure":"park","name":"Marble Hill Playground"},"id":"way/222233979"},{"type":null,"properties":{"@id":"way/223185219","leisure":"park"},"id":"way/223185219"},{"type":null,"properties":{"@id":"way/223185220","leisure":"park"},"id":"way/223185220"},{"type":null,"properties":{"@id":"way/224028029","ele":"8","gnis:county_id":"061","gnis:created":"10/06/2008","gnis:state_id":"36","leisure":"park","name":"Onehundredthirtysecond Street Block Association Park","source":"http://www.nycgovparks.org","wikidata":"Q34852020"},"id":"way/224028029"},{"type":null,"properties":{"@id":"way/224029303","leisure":"park","name":"Rev. Linnette C Williamson Memorial Park"},"id":"way/224029303"},{"type":null,"properties":{"@id":"way/224029501","leisure":"park"},"id":"way/224029501"},{"type":null,"properties":{"@id":"way/224031776","leisure":"park","name":"Collyer Brothers Park","name:en":"Collyer Brothers Park","source":"http://www.nycgovparks.org/parks/"},"id":"way/224031776"},{"type":null,"properties":{"@id":"way/224034804","leisure":"park","name":"A Philip Randolph Square"},"id":"way/224034804"},{"type":null,"properties":{"@id":"way/225132539","alt_name":"McNair Park","leisure":"park","name":"Dr. Ronald E. McNair Playground","wikidata":"Q34848332"},"id":"way/225132539"},{"type":null,"properties":{"@id":"way/225134048","leisure":"park","name":"Dream Street Park","source":"http://www.nycgovparks.org/parks/"},"id":"way/225134048"},{"type":null,"properties":{"@id":"way/225134049","leisure":"park","name":"Harlem Art Park","source":"http://www.nycgovparks.org/parks/harlemartpark/map"},"id":"way/225134049"},{"arcs":[[77,78,79]],"type":"Polygon","properties":{"@id":"way/225135028","leisure":"park","name":"Wagner Houses Pool"},"id":"way/225135028"},{"type":null,"properties":{"@id":"way/225141499","leisure":"park","name":"Wagner Playground"},"id":"way/225141499"},{"type":null,"properties":{"@id":"way/225143097","ele":"7","gnis:county_id":"061","gnis:created":"10/06/2008","gnis:feature_id":"2500832","gnis:state_id":"36","leisure":"park","name":"Martin Luther King Playground","name:etymology:wikidata":"Q8027","wikidata":"Q34846827"},"id":"way/225143097"},{"type":null,"properties":{"@id":"way/225159200","alt_name":"Hancock Square","leisure":"park","name":"Hancock Park","website":"https://www.nycgovparks.org/parks/hancock-park","wikidata":"Q34833288"},"id":"way/225159200"},{"type":null,"properties":{"@id":"way/225171034","leisure":"park","name":"Peter Minuit Park"},"id":"way/225171034"},{"type":null,"properties":{"@id":"way/225172733","leisure":"park"},"id":"way/225172733"},{"type":null,"properties":{"@id":"way/225172734","leisure":"park"},"id":"way/225172734"},{"type":null,"properties":{"@id":"way/225172758","leisure":"park"},"id":"way/225172758"},{"type":null,"properties":{"@id":"way/225173157","leisure":"park"},"id":"way/225173157"},{"arcs":[[80,-78,81]],"type":"Polygon","properties":{"@id":"way/225173158","leisure":"park"},"id":"way/225173158"},{"type":null,"properties":{"@id":"way/225173159","leisure":"park"},"id":"way/225173159"},{"type":null,"properties":{"@id":"way/225173160","leisure":"park"},"id":"way/225173160"},{"type":null,"properties":{"@id":"way/225173161","leisure":"park"},"id":"way/225173161"},{"type":null,"properties":{"@id":"way/225173312","leisure":"park"},"id":"way/225173312"},{"type":null,"properties":{"@id":"way/225173313","leisure":"park"},"id":"way/225173313"},{"type":null,"properties":{"@id":"way/225173496","leisure":"park"},"id":"way/225173496"},{"type":null,"properties":{"@id":"way/225173571","leisure":"park"},"id":"way/225173571"},{"type":null,"properties":{"@id":"way/225173572","leisure":"park"},"id":"way/225173572"},{"type":null,"properties":{"@id":"way/225173799","leisure":"park"},"id":"way/225173799"},{"type":null,"properties":{"@id":"way/225188061","leisure":"park","name":"Mae Grant Playground"},"id":"way/225188061"},{"type":null,"properties":{"@id":"way/225188879","gnis:feature_id":"2500962","leisure":"park","name":"Sunshine Playground"},"id":"way/225188879"},{"type":null,"properties":{"@id":"way/225188968","leisure":"park","name":"Cherry Tree Park"},"id":"way/225188968"},{"type":null,"properties":{"@id":"way/225189359","leisure":"park","name":"White Park"},"id":"way/225189359"},{"type":null,"properties":{"@id":"way/225189391","leisure":"park","name":"103rd Street Community Garden","operator":"New York Restoration Project","website":"https://www.nyrp.org/green-spaces/garden-details/103rd-street-community-garden/"},"id":"way/225189391"},{"type":null,"properties":{"@id":"way/225189513","leisure":"park","name":"Poor Richard's Playground"},"id":"way/225189513"},{"type":null,"properties":{"@id":"way/225190178","ele":"4","gnis:county_id":"061","gnis:created":"10/06/2008","gnis:feature_id":"2500955","gnis:state_id":"36","leisure":"park","name":"Marx Brothers Playground","old_name":"Playground 96","website":"https://www.nycgovparks.org/parks/marx-brothers-playground"},"id":"way/225190178"},{"type":null,"properties":{"@id":"way/225190195","leisure":"park","name":"Stanley Isaacs Courts"},"id":"way/225190195"},{"type":null,"properties":{"@id":"way/225190397","leisure":"park","sport":"baseball"},"id":"way/225190397"},{"type":null,"properties":{"@id":"way/225190636","leisure":"park","name":"Playground 103"},"id":"way/225190636"},{"type":null,"properties":{"@id":"way/225190643","leisure":"park"},"id":"way/225190643"},{"type":null,"properties":{"@id":"way/225191605","leisure":"park","name":"Harlem River Drive Greenway"},"id":"way/225191605"},{"arcs":[[-49,82]],"type":"Polygon","properties":{"@id":"way/225336126","leisure":"park","name":"Randalls Island Park","website":"https://www.nycgovparks.org/parks/randalls-island"},"id":"way/225336126"},{"type":null,"properties":{"@id":"way/226010200","barrier":"fence","ele":"71","gnis:county_id":"061","gnis:created":"10/02/2008","gnis:feature_id":"2500770","gnis:state_id":"36","leisure":"park","name":"Jacob K. Javits Playground"},"id":"way/226010200"},{"type":null,"properties":{"@id":"way/226438197","designation":"B196","leisure":"park","name":"Pvt. Sonsire Triangle","source":"http://www.nycgovparks.org/parks/B196/"},"id":"way/226438197"},{"type":null,"properties":{"@id":"way/226763199","ele":"35","gnis:county_id":"005","gnis:created":"01/23/1980","gnis:feature_id":"948376","gnis:state_id":"36","leisure":"park","name":"Devoe Park"},"id":"way/226763199"},{"type":null,"properties":{"@id":"way/230064839","leisure":"park","name":"Mill Pond Park"},"id":"way/230064839"},{"type":null,"properties":{"@id":"way/231847469","ele":"2","gnis:county_id":"081","gnis:created":"11/21/2005","gnis:feature_id":"2079301","gnis:state_id":"36","leisure":"park","name":"Socrates Sculpture Garden"},"id":"way/231847469"},{"arcs":[[83]],"type":"Polygon","properties":{"@id":"way/232065142","landuse":"grass","leisure":"park","name":"Weehawken Waterfront Park and Recreation Center"},"id":"way/232065142"},{"type":null,"properties":{"@id":"way/236001561","ele":"6","gnis:county_id":"081","gnis:created":"09/07/2007","gnis:feature_id":"2352086","gnis:state_id":"36","leisure":"park","name":"Planeview Park","website":"https://www.nycgovparks.org/parks/planeview-park"},"id":"way/236001561"},{"type":null,"properties":{"@id":"way/236586871","ele":"10","gnis:county_id":"081","gnis:created":"09/05/2007","gnis:edited":"10/23/2007","gnis:feature_id":"2351665","gnis:state_id":"36","leisure":"park","name":"Saint Michael's Playground","website":"https://www.nycgovparks.org/parks/st-michaels-playground/"},"id":"way/236586871"},{"type":null,"properties":{"@id":"way/236930411","leisure":"park","name":"Corona Plaza"},"id":"way/236930411"},{"type":null,"properties":{"@id":"way/237039128","leisure":"park","name":"Concrete Park"},"id":"way/237039128"},{"type":null,"properties":{"@id":"way/237040790","gnis:feature_id":"2062188","leisure":"park","name":"Monsignor Raul Del Valle Square"},"id":"way/237040790"},{"type":null,"properties":{"@id":"way/237044437","ele":"2","gnis:county_id":"005","gnis:created":"11/01/2006","gnis:edited":"08/01/2007","gnis:feature_id":"2095892","gnis:state_id":"36","leisure":"park","name":"Barretto Point Park","wikidata":"Q23091401"},"id":"way/237044437"},{"type":null,"properties":{"@id":"way/237054245","leisure":"park","name":"Plaza de las Americas"},"id":"way/237054245"},{"arcs":[[84,-53]],"type":"Polygon","properties":{"@id":"way/237393267","addr:city":"Roosevelt Island","addr:postcode":"10044","addr:street":"East Road","leisure":"park","name":"South Point Park","opening_hours":"Mo-Su 6:00-22:00"},"id":"way/237393267"},{"type":null,"properties":{"@id":"way/237397736","leisure":"park"},"id":"way/237397736"},{"type":null,"properties":{"@id":"way/237845863","leisure":"park","name":"Sitting Area"},"id":"way/237845863"},{"type":null,"properties":{"@id":"way/237845864","ele":"10","gnis:county_id":"081","gnis:created":"09/07/2007","gnis:feature_id":"2352110","gnis:state_id":"36","leisure":"park","name":"Chappetto Square","website":"https://www.nycgovparks.org/parks/chappetto-square/","wikidata":"Q34816485"},"id":"way/237845864"},{"type":null,"properties":{"@id":"way/237845865","leisure":"park","name":"Triborough Bridge Playground B","website":"https://www.nycgovparks.org/parks/triborough-bridge-playground-b"},"id":"way/237845865"},{"type":null,"properties":{"@id":"way/237845866","leisure":"park","name":"Triborough Bridge Playground C","website":"https://www.nycgovparks.org/parks/triborough-bridge-playground-c"},"id":"way/237845866"},{"type":null,"properties":{"@id":"way/237845867","leisure":"park","name":"Triborough Bridge Playground D","website":"https://www.nycgovparks.org/parks/triborough-bridge-playground-d"},"id":"way/237845867"},{"type":null,"properties":{"@id":"way/237845868","leisure":"park","name":"Triborough Bridge Playground E","website":"https://www.nycgovparks.org/parks/triborough-bridge-playground-e"},"id":"way/237845868"},{"type":null,"properties":{"@id":"way/238073821","leisure":"park","name":"Goodwill Park"},"id":"way/238073821"},{"type":null,"properties":{"@id":"way/239239029","ele":"3","gnis:county_id":"081","gnis:created":"09/07/2007","gnis:id":"2352592","gnis:state_id":"36","leisure":"park","name":"Gordan Triangle"},"id":"way/239239029"},{"arcs":[[-22,85]],"type":"Polygon","properties":{"@id":"way/239795718","leisure":"park","name":"Bushwick Inlet Park","wikidata":"Q16954648"},"id":"way/239795718"},{"type":null,"properties":{"@id":"way/239982768","leisure":"park","name":"LentSpace","wikidata":"Q6523273"},"id":"way/239982768"},{"type":null,"properties":{"@id":"way/239988106","gnis:feature_id":"2500758","leisure":"park","name":"Spring Street Park","website":"https://www.nycgovparks.org/parks/soho-square","wikidata":"Q28209401"},"id":"way/239988106"},{"type":null,"properties":{"@id":"way/239988114","ele":"6","gnis:county_id":"061","gnis:created":"10/02/2008","gnis:feature_id":"2500750","gnis:state_id":"36","leisure":"park","name":"Minetta Triangle","website":"https://www.nycgovparks.org/parks/minetta-triangle/","wikidata":"Q34851511"},"id":"way/239988114"},{"type":null,"properties":{"@id":"way/239988118","gnis:feature_id":"2500755","leisure":"park","name":"Father Fagan Park"},"id":"way/239988118"},{"type":null,"properties":{"@id":"way/239988120","leisure":"park","name":"Jefferson Market Garden","source":"http://www.jeffersonmarketgarden.org/","website":"https://www.jeffersonmarketgarden.org/"},"id":"way/239988120"},{"type":null,"properties":{"@id":"way/240313423","ele":"8","gnis:county_id":"081","gnis:created":"09/07/2007","gnis:feature_id":"2352104","gnis:state_id":"36","leisure":"park","name":"Paul Raimonda Playground"},"id":"way/240313423"},{"type":null,"properties":{"@id":"way/240502982","ele":"8","gnis:county_id":"081","gnis:created":"09/07/2007","gnis:feature_id":"2352107","gnis:state_id":"36","leisure":"park","name":"Steinway Playground"},"id":"way/240502982"},{"type":null,"properties":{"@id":"way/240504085","ele":"6","gnis:county_id":"081","gnis:created":"09/07/2007","gnis:feature_id":"2352108","gnis:state_id":"36","leisure":"park","name":"Woodtree Playground"},"id":"way/240504085"},{"type":null,"properties":{"@id":"way/240569209","bicycle":"no","ele":"4","gnis:county_id":"081","gnis:created":"09/05/2007","gnis:feature_id":"2351604","gnis:state_id":"36","leisure":"park","name":"Spirit Playground","pets":"no","smoking":"no"},"id":"way/240569209"},{"type":null,"properties":{"@id":"way/241883186","leisure":"park"},"id":"way/241883186"},{"type":null,"properties":{"@id":"way/243007199","leisure":"park","name":"Long Island City High School Playground"},"id":"way/243007199"},{"type":null,"properties":{"@id":"way/244726397","leisure":"park","name":"Spuyten Duyvil Shorefront Park"},"id":"way/244726397"},{"type":null,"properties":{"@id":"way/244728119","leisure":"park"},"id":"way/244728119"},{"type":null,"properties":{"@id":"way/244737770","leisure":"park","name":"Henry Hudson Park","wikidata":"Q5723397"},"id":"way/244737770"},{"type":null,"properties":{"@id":"way/244776381","leisure":"park","name":"Spuyten Duyvil Playground"},"id":"way/244776381"},{"type":null,"properties":{"@id":"way/244790315","leisure":"park","name":"Riverdale Playground","wikidata":"Q34857571"},"id":"way/244790315"},{"type":null,"properties":{"@id":"way/244977216","alt_name":"Passannante Square","ele":"6","gnis:county_id":"061","gnis:created":"10/02/2008","gnis:feature_id":"2500753","gnis:state_id":"36","leisure":"park","name":"William E. Passannante Ballfield","website":"https://www.nycgovparks.org/parks/william-f-passannante-ballfield/"},"id":"way/244977216"},{"type":null,"properties":{"@id":"way/244978444","leisure":"park","name":"Winston Churchill Square","wikidata":"Q22073932","wikipedia":"en:Winston Churchill Square"},"id":"way/244978444"},{"type":null,"properties":{"@id":"way/246964616","ele":"28","gnis:county_id":"061","gnis:created":"10/06/2008","gnis:feature_id":"2500841","gnis:state_id":"36","leisure":"park","name":"Booker T Washington Playground","wikidata":"Q34809775"},"id":"way/246964616"},{"type":null,"properties":{"@id":"way/248544351","ele":"19","gnis:county_id":"005","gnis:created":"01/14/2008","gnis:feature_id":"2374639","gnis:state_id":"36","leisure":"park","name":"Vidalia Park"},"id":"way/248544351"},{"type":null,"properties":{"@id":"way/249665058","ele":"6","gnis:county_id":"061","gnis:created":"10/02/2008","gnis:feature_id":"2500754","gnis:state_id":"36","leisure":"park","name":"Playground of the Americas","website":"https://www.nycgovparks.org/parks/playground-of-the-americas/"},"id":"way/249665058"},{"type":null,"properties":{"@id":"way/250049345","addr:housenumber":"80","addr:postcode":"10013","addr:street":"North Moore Street","leisure":"park","nycdoitt:bin":"1083157"},"id":"way/250049345"},{"type":null,"properties":{"@id":"way/250051493","addr:housenumber":"308","addr:postcode":"10013","addr:street":"Greenwich Street","leisure":"park","nycdoitt:bin":"1083243"},"id":"way/250051493"},{"type":null,"properties":{"@id":"way/250265371","ele":"4","gnis:county_id":"061","gnis:created":"10/01/2008","gnis:feature_id":"2500558","gnis:state_id":"36","leisure":"park","name":"Orchard Alley Garden","wikidata":"Q34853057"},"id":"way/250265371"},{"type":null,"properties":{"@id":"way/250265505","ele":"5","gnis:county_id":"061","gnis:created":"12/08/2005","gnis:edited":"10/01/2008","gnis:feature_id":"2080613","gnis:state_id":"36","leisure":"park","name":"Hartman Triangle","wikidata":"Q34834117"},"id":"way/250265505"},{"type":null,"properties":{"@id":"way/250398947","ele":"50","leisure":"park","name":"Clumber Corner"},"id":"way/250398947"},{"type":null,"properties":{"@id":"way/252823151","leisure":"park","name":"Straus Square","wikidata":"Q34863820"},"id":"way/252823151"},{"type":null,"properties":{"@id":"way/256192518","leisure":"park"},"id":"way/256192518"},{"type":null,"properties":{"@id":"way/257388624","leisure":"park","name":"Greeley Square Park","website":"https://www.nycgovparks.org/parks/greeley-square-park"},"id":"way/257388624"},{"type":null,"properties":{"@id":"way/260328878","ele":"34","gnis:county_id":"081","gnis:created":"03/25/2008","gnis:feature_id":"2414638","gnis:state_id":"36","leisure":"park","name":"Manton Playground","source":"http://www.nycgovparks.org/parks/Q220G/map","website":"https://www.nycgovparks.org/","wheelchair":"yes"},"id":"way/260328878"},{"type":null,"properties":{"@id":"way/261891233","leisure":"park","name":"Captain Tilly Park","website":"https://www.nycgovparks.org/parks/captain-tilly-park","wheelchair":"yes"},"id":"way/261891233"},{"type":null,"properties":{"@id":"way/261906194","ele":"25","gnis:feature_id":"2414681","leisure":"park","name":"Major Mark Park","website":"https://www.nycgovparks.org/parks/Q025/","wheelchair":"yes"},"id":"way/261906194"},{"type":null,"properties":{"@id":"way/261909196","addr:postcode":"11432","ele":"17","gnis:county_id":"081","gnis:created":"03/20/2008","gnis:feature_id":"2400234","gnis:state_id":"36","leisure":"park","name":"Harvard Playground","website":"https://www.nycgovparks.org/","wheelchair":"yes"},"id":"way/261909196"},{"type":null,"properties":{"@id":"way/261911914","addr:city":"Jamaica","addr:postcode":"11423","ele":"14","gnis:county_id":"081","gnis:created":"03/20/2008","gnis:feature_id":"2400232","gnis:state_id":"36","leisure":"park","name":"Peters Field","wheelchair":"yes"},"id":"way/261911914"},{"type":null,"properties":{"@id":"way/261918034","ele":"14","gnis:county_id":"081","gnis:created":"03/24/2008","gnis:feature_id":"2414672","gnis:state_id":"36","leisure":"park","name":"Howard Von Dohlen Playground","website":"https://www.nycgovparks.org/parks/howard-von-dohlen-playground","wheelchair":"yes","wikidata":"Q34836056"},"id":"way/261918034"},{"type":null,"properties":{"@id":"way/262350725","access":"private","leisure":"park","name":"Coliseum Park"},"id":"way/262350725"},{"type":null,"properties":{"@id":"way/263324655","leisure":"park","name":"MacDonald Park"},"id":"way/263324655"},{"type":null,"properties":{"@id":"way/263481478","leisure":"park","name":"Fagan Square","wikidata":"Q34829332"},"id":"way/263481478"},{"type":null,"properties":{"@id":"way/264003876","addr:city":"New York","addr:country":"US","addr:housenumber":"3","addr:postcode":"10022","addr:state":"NY","addr:street":"East 53rd Street","ele":"20","gnis:feature_id":"2083278","leisure":"park","name":"Paley Park","name:ja":"ペイリーパーク","start_date":"1967","wikidata":"Q5951152","wikipedia":"en:Paley Park"},"id":"way/264003876"},{"type":null,"properties":{"@id":"way/264408707","ele":"26","gnis:county_id":"081","gnis:created":"12/08/2005","gnis:feature_id":"2080577","gnis:state_id":"36","leisure":"park","name":"DeSilva Memorial Field","sport":"multi"},"id":"way/264408707"},{"type":null,"properties":{"@id":"way/264408708","ele":"36","gnis:county_id":"081","gnis:created":"12/08/2005","gnis:feature_id":"2080578","gnis:state_id":"36","leisure":"park","name":"Redstorm Field","sport":"baseball","wikidata":"Q34856076"},"id":"way/264408708"},{"type":null,"properties":{"@id":"way/264408709","ele":"31","gnis:county_id":"081","gnis:created":"12/08/2005","gnis:feature_id":"2080579","gnis:state_id":"36","leisure":"park","name":"The Ballpark at Saint John's","sport":"baseball","wikidata":"Q6113390"},"id":"way/264408709"},{"type":null,"properties":{"@id":"way/264851981","lastcheck":"2019-06-22","leisure":"park","name":"Big Screen Plaza1","opening_hours":"06:00-23:59","operator":"835 6th Ave Master LP","wheelchair":"yes"},"id":"way/264851981"},{"type":null,"properties":{"@id":"way/266077859","addr:city":"New York","ele":"12","gnis:feature_id":"2500947","gnis:state_id":"36","leisure":"park","name":"Hells Kitchen Park","start_date":"1979","wikidata":"Q5706428","wikipedia":"en:Hell's Kitchen Park"},"id":"way/266077859"},{"type":null,"properties":{"@id":"way/266097823","ele":"10","gnis:feature_id":"2500949","image":"https://commons.wikimedia.org/wiki/File:May_Mathews_Playground.jpg","leisure":"park","name":"Matthews-Palmer Playground","website":"https://www.nycgovparks.org/parks/matthews-palmer-playground/history","wikidata":"Q34847743"},"id":"way/266097823"},{"type":null,"properties":{"@id":"way/266113539","ele":"15","gnis:feature_id":"2500950","gnis:state_id":"36","leisure":"park","name":"Ramone Aponte Park"},"id":"way/266113539"},{"type":null,"properties":{"@id":"way/270765902","addr:city":"New York","addr:housenumber":"520-522","addr:postcode":"10009","addr:street":"East 13th Street","garden:type":"community","leisure":"park","name":"Dias y Flores Community Garden","recycling:compost":"yes","start_date":"1978","website":"https://diasyfloresgarden.wordpress.com/"},"id":"way/270765902"},{"type":null,"properties":{"@id":"way/270791455","leisure":"park","name":"Freeman Plaza West"},"id":"way/270791455"},{"type":null,"properties":{"@id":"way/271957470","addr:city":"Forest Hills","addr:housenumber":"Deepdene Road and Underwood Road","leisure":"park","name":"Deepdene Park","note":"Great sledding in the WInter & firefly catching in warmer months! :)"},"id":"way/271957470"},{"type":null,"properties":{"@id":"way/272692065","leisure":"park","name":"Wood Park"},"id":"way/272692065"},{"type":null,"properties":{"@id":"way/273017814","leisure":"park","name":"Herald Square Park","website":"https://www.nycgovparks.org/parks/herald-square"},"id":"way/273017814"},{"type":null,"properties":{"@id":"way/276213883","access":"private","leisure":"park","name":"Flagpole park"},"id":"way/276213883"},{"type":null,"properties":{"@id":"way/276213909","leisure":"park","name":"Federoff Triangle"},"id":"way/276213909"},{"type":null,"properties":{"@id":"way/277175057","leisure":"park","name":"Marie Curie Park","name:etymology:wikidata":"Q7186"},"id":"way/277175057"},{"type":null,"properties":{"@id":"way/277477830","ele":"3","gnis:county_id":"081","gnis:created":"08/10/2007","gnis:feature_id":"2330935","gnis:state_id":"36","leisure":"park","name":"Hinton Park","website":"https://www.nycgovparks.org/parks/hinton-park"},"id":"way/277477830"},{"type":null,"properties":{"@id":"way/277477831","leisure":"park","name":"Louis Armstrong Playground"},"id":"way/277477831"},{"type":null,"properties":{"@id":"way/279480836","leisure":"park","name":"Hamilton Park","wikidata":"Q34833119"},"id":"way/279480836"},{"arcs":[[86,87]],"type":"Polygon","properties":{"@id":"way/279483471","leisure":"park","name":"Veterans Memorial Park","wikidata":"Q49574473"},"id":"way/279483471"},{"type":null,"properties":{"@id":"way/279595950","ele":"13","gnis:county_id":"047","gnis:created":"02/22/2008","gnis:feature_id":"2381050","gnis:state_id":"36","leisure":"park","name":"Cohn Triangle"},"id":"way/279595950"},{"type":null,"properties":{"@id":"way/280415397","leisure":"park","name":"Joseph Austin Playground"},"id":"way/280415397"},{"type":null,"properties":{"@id":"way/280850909","leisure":"park","name":"Old Glory Park","wikidata":"Q49535027"},"id":"way/280850909"},{"type":null,"properties":{"@id":"way/280850921","leisure":"park","name":"Michael A. Leggiero Music Park"},"id":"way/280850921"},{"type":null,"properties":{"@id":"way/280850938","leisure":"park","name":"Jaun Pablo Duarte Park"},"id":"way/280850938"},{"type":null,"properties":{"@id":"way/281499420","addr:city":"New York","ele":"6","gnis:feature_id":"2500578","leisure":"park","name":"Open Road Park","wikidata":"Q20858185","wikipedia":"en:Open Road Park"},"id":"way/281499420"},{"type":null,"properties":{"@id":"way/281875220","ele":"9","gnis:county_id":"005","gnis:created":"12/20/2007","gnis:feature_id":"2370280","gnis:state_id":"36","height":"4.7","leisure":"park","name":"Virginia Playground","nycdoitt:bin":"2000000"},"id":"way/281875220"},{"type":null,"properties":{"@id":"way/282124799","addr:housenumber":"807","addr:postcode":"10465","addr:street":"Throgs Neck Expressway Service Road","height":"10.0","leisure":"park","nycdoitt:bin":"2076848"},"id":"way/282124799"},{"type":null,"properties":{"@id":"way/285973713","ele":"17","gnis:county_id":"005","gnis:created":"01/23/1980","gnis:edited":"11/02/2007","gnis:feature_id":"949352","gnis:state_id":"36","leisure":"park","name":"Julius Richman \"Echo\" Park","website":"https://www.nycgovparks.org/parks/richman-echo-park"},"id":"way/285973713"},{"type":null,"properties":{"@id":"way/286996622","ele":"36","gnis:county_id":"005","gnis:created":"10/03/2005","gnis:feature_id":"2072558","gnis:state_id":"36","leisure":"park","name":"University Woods Park","wikidata":"Q7894982"},"id":"way/286996622"},{"type":null,"properties":{"@id":"way/287462475","ele":"9","gnis:feature_id":"2500679","leisure":"park","name":"Bellevue South Park","wikidata":"Q34806742"},"id":"way/287462475"},{"type":null,"properties":{"@id":"way/288530626","leisure":"park","name":"Washington Street Plaza","wikidata":"Q18159158","wikipedia":"en:Washington Street Plaza"},"id":"way/288530626"},{"type":null,"properties":{"@id":"way/291205919","alt_name":"Hudson Yards Park and Boulevard","leisure":"park","name":"Bella Abzug Park","source":"hydc.org"},"id":"way/291205919"},{"type":null,"properties":{"@id":"way/291205920","alt_name":"Hudson Yards Park and Boulevard","leisure":"park","name":"Bella Abzug Park","source":"hydc.org"},"id":"way/291205920"},{"type":null,"properties":{"@id":"way/291206015","alt_name":"Hudson Yards Park and Boulevard","leisure":"park","name":"Bella Abzug Park","source":"hydc.org"},"id":"way/291206015"},{"type":null,"properties":{"@id":"way/292727035","leisure":"park"},"id":"way/292727035"},{"type":null,"properties":{"@id":"way/293720019","leisure":"park","name":"Balsley Park"},"id":"way/293720019"},{"type":null,"properties":{"@id":"way/294176664","ele":"13","gnis:county_id":"005","gnis:created":"10/28/2005","gnis:feature_id":"2073889","gnis:state_id":"36","leisure":"park","name":"Van Nest Memorial Square","wikidata":"Q34868124"},"id":"way/294176664"},{"type":null,"properties":{"@id":"way/295109956","ele":"4","gnis:county_id":"081","gnis:created":"09/07/2007","gnis:feature_id":"2352598","gnis:state_id":"36","leisure":"park","name":"Bridge And Tunnel Park","wikidata":"Q34810658"},"id":"way/295109956"},{"type":null,"properties":{"@id":"way/295636175","leisure":"park","name":"Elmhurst Park","website":"https://www.nycgovparks.org/parks/elmhurst-park","wikidata":"Q16890976"},"id":"way/295636175"},{"arcs":[[88]],"type":"Polygon","properties":{"@id":"way/295640569","leisure":"park","name":"Juniper Valley Park","name:ru":"Парк Джунипер Вэлли","wikidata":"Q6313638"},"id":"way/295640569"},{"type":null,"properties":{"@id":"way/295969929","ele":"15","gnis:feature_id":"2500966","leisure":"park","name":"St. Catherine's Park","website":"https://www.nycgovparks.org/parks/st-catherines-park"},"id":"way/295969929"},{"type":null,"properties":{"@id":"way/296164200","leisure":"park","name":"Continental Army Plaza"},"id":"way/296164200"},{"type":null,"properties":{"@id":"way/296164202","ele":"15","gnis:county_id":"047","gnis:created":"12/21/2005","gnis:feature_id":"2081639","gnis:state_id":"36","leisure":"park","name":"Washington Plaza"},"id":"way/296164202"},{"arcs":[[-87,89]],"type":"Polygon","properties":{"@id":"way/296308572","ele":"45","gnis:county_id":"017","gnis:created":"07/01/1981","gnis:feature_id":"2059173","gnis:state_id":"34","leisure":"park","name":"Columbus Park","wikidata":"Q49479406"},"id":"way/296308572"},{"type":null,"properties":{"@id":"way/296687393","leisure":"park"},"id":"way/296687393"},{"type":null,"properties":{"@id":"way/296687397","barrier":"fence","ele":"14","gnis:county_id":"081","gnis:created":"09/07/2007","gnis:feature_id":"2352103","gnis:state_id":"36","leisure":"park","name":"Carlos Lillo Triangle","wikidata":"Q34814377"},"id":"way/296687397"},{"type":null,"properties":{"@id":"way/298133598","alt_name":"Columbus Triangle","ele":"10","gnis:county_id":"081","gnis:created":"12/07/2005","gnis:edited":"09/05/2007","gnis:feature_id":"2080479","gnis:state_id":"36","leisure":"park","name":"Columbus Square","wikidata":"Q34819400"},"id":"way/298133598"},{"type":null,"properties":{"@id":"way/298219083","leisure":"park","name":"Abe Wolfson Triangle"},"id":"way/298219083"},{"type":null,"properties":{"@id":"way/298761168","ele":"4","leisure":"park","name":"Lindsay Triangle"},"id":"way/298761168"},{"type":null,"properties":{"@id":"way/298767142","leisure":"park","name":"Real Good Park"},"id":"way/298767142"},{"type":null,"properties":{"@id":"way/298767144","leisure":"park","name":"Lost Batallion Playground","website":"https://www.nycgovparks.org/parks/lost-battalion-hall-recreation-center/facilities/playgrounds"},"id":"way/298767144"},{"type":null,"properties":{"@id":"way/298787293","leisure":"park","name":"Horace Harding Playground","website":"https://www.nycgovparks.org/parks/horace-harding-playground"},"id":"way/298787293"},{"type":null,"properties":{"@id":"way/298794354","leisure":"park"},"id":"way/298794354"},{"type":null,"properties":{"@id":"way/298794356","leisure":"park"},"id":"way/298794356"},{"type":null,"properties":{"@id":"way/298794360","leisure":"park"},"id":"way/298794360"},{"type":null,"properties":{"@id":"way/299513781","leisure":"park","name":"Corona Golf Playground","wikidata":"Q34819971"},"id":"way/299513781"},{"type":null,"properties":{"@id":"way/302961318","leisure":"park","name":"Edward Hart Playground"},"id":"way/302961318"},{"type":null,"properties":{"@id":"way/304129981","leisure":"park"},"id":"way/304129981"},{"type":null,"properties":{"@id":"way/305086297","ele":"42","gnis:county_id":"005","gnis:created":"01/23/1980","gnis:feature_id":"960801","gnis:state_id":"36","leisure":"park","name":"Poe Park"},"id":"way/305086297"},{"type":null,"properties":{"@id":"way/306671092","leisure":"park","name":"Albert E Short Triangle","wikidata":"Q34802255"},"id":"way/306671092"},{"type":null,"properties":{"@id":"way/306671093","leisure":"park","name":"Court Square Park","wikidata":"Q34820138"},"id":"way/306671093"},{"type":null,"properties":{"@id":"way/306671094","leisure":"park","name":"McKenna Triangle","wikidata":"Q34848080"},"id":"way/306671094"},{"type":null,"properties":{"@id":"way/306777600","leisure":"park","name":"Bicentennial Veterans Memorial Park","opening_hours":"\"sunrise to sunset\"","pets":"leashed","smoking":"no"},"id":"way/306777600"},{"type":null,"properties":{"@id":"way/309161246","ele":"22","gnis:county_id":"081","gnis:created":"09/05/2007","gnis:feature_id":"2351693","gnis:state_id":"36","leisure":"park","name":"Northern Playground","website":"https://www.nycgovparks.org/parks/northern-playground"},"id":"way/309161246"},{"type":null,"properties":{"@id":"way/309161247","ele":"17","gnis:county_id":"081","gnis:created":"09/05/2007","gnis:feature_id":"2351690","gnis:state_id":"36","leisure":"park","name":"Veterans Plaza"},"id":"way/309161247"},{"arcs":[[90,36]],"type":"Polygon","properties":{"@id":"way/309830809","leisure":"park","name":"Pier 3 Brooklyn Bridge Park"},"id":"way/309830809"},{"type":null,"properties":{"@id":"way/310077175","ele":"0","leisure":"park","name":"Gilbert Ramirez Park","wheelchair":"yes"},"id":"way/310077175"},{"type":null,"properties":{"@id":"way/310891343","leisure":"park","source":"Bing"},"id":"way/310891343"},{"type":null,"properties":{"@id":"way/318328998","leisure":"park"},"id":"way/318328998"},{"type":null,"properties":{"@id":"way/318329003","ele":"8","gnis:county_id":"061","gnis:feature_id":"2500838","gnis:state_id":"36","leisure":"park","name":"Roosevelt Triangle","wikidata":"Q34858736"},"id":"way/318329003"},{"type":null,"properties":{"@id":"way/319016487","leisure":"park","name":"Woodside Plaza","source":"BIng"},"id":"way/319016487"},{"type":null,"properties":{"@id":"way/319612782","leisure":"park","name":"Manuel De Dios Unanue Triangle","source":"Bing, NYC"},"id":"way/319612782"},{"type":null,"properties":{"@id":"way/319612956","leisure":"park","name":"Vietnam Veterans Triangle","source":"Bing, NYC"},"id":"way/319612956"},{"type":null,"properties":{"@id":"way/319615856","leisure":"park","source":"Bing"},"id":"way/319615856"},{"type":null,"properties":{"@id":"way/321905068","leisure":"park","source":"Bing"},"id":"way/321905068"},{"type":null,"properties":{"@id":"way/323048816","leisure":"park","name":"Mohegan Triangle"},"id":"way/323048816"},{"type":null,"properties":{"@id":"way/324750157","leisure":"park","name":"First Park"},"id":"way/324750157"},{"type":null,"properties":{"@id":"way/324975287","leisure":"park"},"id":"way/324975287"},{"type":null,"properties":{"@id":"way/324975291","leisure":"park","name":"Canal Park","wikidata":"Q34813853"},"id":"way/324975291"},{"type":null,"properties":{"@id":"way/324979163","gnis:feature_id":"2414618","leisure":"park","name":"Veteran's Square"},"id":"way/324979163"},{"type":null,"properties":{"@id":"way/325008929","leisure":"park","name":"Alfred E Smith Park","wikidata":"Q34802358"},"id":"way/325008929"},{"type":null,"properties":{"@id":"way/328238569","leisure":"park"},"id":"way/328238569"},{"type":null,"properties":{"@id":"way/328849068","gnis:county_id":"005","gnis:created":"10/28/2005","gnis:edited":"11/02/2007","gnis:feature_id":"2073612","gnis:state_id":"36","leisure":"park","name":"Rose Hill Park","wikidata":"Q34858817"},"id":"way/328849068"},{"type":null,"properties":{"@id":"way/329041506","leisure":"park","name":"Freeman Plaza East"},"id":"way/329041506"},{"type":null,"properties":{"@id":"way/329041537","leisure":"park","name":"Freeman Plaza North"},"id":"way/329041537"},{"type":null,"properties":{"@id":"way/329988692","leisure":"park"},"id":"way/329988692"},{"type":null,"properties":{"@id":"way/330304527","elevation":"16","gnis:feature_id":"2370284","leisure":"park","name":"Young Park"},"id":"way/330304527"},{"type":null,"properties":{"@id":"way/334715965","leisure":"park","name":"Poses Park","website":"http://www.hunter.cuny.edu/communications/pressroom/news/hunter-college-officially-re-opens-poses-park-to-the-public"},"id":"way/334715965"},{"type":null,"properties":{"@id":"way/337113281","leisure":"park","name":"Ye Olde Burial Ground of Flushing","opening_hours":"sunrise-21:00"},"id":"way/337113281"},{"type":null,"properties":{"@id":"way/338078742","leisure":"park","name":"Haggerty Park"},"id":"way/338078742"},{"type":null,"properties":{"@id":"way/338078871","leisure":"park"},"id":"way/338078871"},{"type":null,"properties":{"@id":"way/338079299","leisure":"park","name":"Gladys Warren Triangle"},"id":"way/338079299"},{"type":null,"properties":{"@id":"way/343765233","ele":"5","gnis:feature_id":"2500972","gnis:state_id":"36","leisure":"park","name":"Peter Detmold Park Dog Run","operator":"City of New York Parks"},"id":"way/343765233"},{"type":null,"properties":{"@id":"way/351201923","ele":"19","gnis:county_id":"061","gnis:created":"10/06/2008","gnis:feature_id":"2500967","gnis:state_id":"36","leisure":"park","name":"Tramway Plaza"},"id":"way/351201923"},{"type":null,"properties":{"@id":"way/351236826","ele":"15","gnis:county_id":"081","gnis:created":"09/05/2007","gnis:feature_id":"2351647","gnis:state_id":"36","leisure":"park","name":"Strippoli Triangle","wikidata":"Q34863874"},"id":"way/351236826"},{"type":null,"properties":{"@id":"way/351276055","ele":"21","gnis:county_id":"081","gnis:created":"08/10/2007","gnis:feature_id":"2330937","gnis:state_id":"36","leisure":"park","name":"Barclay Triangle","wikidata":"Q34804658"},"id":"way/351276055"},{"type":null,"properties":{"@id":"way/351276058","ele":"5","gnis:county_id":"081","gnis:created":"09/07/2007","gnis:feature_id":"2352112","gnis:state_id":"36","leisure":"park","name":"Van Alst Playground","wikidata":"Q34867947"},"id":"way/351276058"},{"type":null,"properties":{"@id":"way/352412115","ele":"7","gnis:county_id":"061","gnis:created":"04/17/2008","gnis:feature_id":"2418018","gnis:state_id":"36","historic":"yes","landuse":"residential","leisure":"park","name":"MacDougal-Sullivan Gardens Historic District","wikidata":"Q6721855","wikipedia":"en:MacDougal-Sullivan Gardens Historic District"},"id":"way/352412115"},{"type":null,"properties":{"@id":"way/353000933","ele":"12","gnis:feature_id":"2500965","leisure":"park","name":"Ruppert Park","ref":"M294","website":"https://www.nycgovparks.org/parks/ruppert-park","wikidata":"Q34859240"},"id":"way/353000933"},{"type":null,"properties":{"@id":"way/353133685","leisure":"park","name":"Park Avenue Malls","ref":"M060C","website":"https://www.nycgovparks.org/parks/park-avenue-malls-m060c"},"id":"way/353133685"},{"type":null,"properties":{"@id":"way/357269230","leisure":"park"},"id":"way/357269230"},{"type":null,"properties":{"@id":"way/357523569","leisure":"park"},"id":"way/357523569"},{"type":null,"properties":{"@id":"way/359048860","ele":"29","gnis:county_id":"081","gnis:created":"09/07/2007","gnis:feature_id":"2352613","gnis:state_id":"36","leisure":"park","name":"Drumn Circle","wikidata":"Q34826394"},"id":"way/359048860"},{"type":null,"properties":{"@id":"way/361610147","ele":"21","gnis:county_id":"081","gnis:created":"09/07/2007","gnis:feature_id":"2352527","gnis:state_id":"36","leisure":"park","name":"Dunningham Triangle"},"id":"way/361610147"},{"type":null,"properties":{"@id":"way/361611157","ele":"22","gnis:county_id":"081","gnis:created":"09/07/2007","gnis:feature_id":"2352508","gnis:state_id":"36","leisure":"park","name":"Frank D O'Connor Playground","website":"https://www.nycgovparks.org/parks/frank-d-oconnor-playground/"},"id":"way/361611157"},{"type":null,"properties":{"@id":"way/361611926","ele":"14","gnis:county_id":"081","gnis:created":"09/07/2007","gnis:feature_id":"2352509","gnis:state_id":"36","leisure":"park","name":"Veterans Grove","website":"https://www.nycgovparks.org/parks/veterans-grove"},"id":"way/361611926"},{"type":null,"properties":{"@id":"way/361611928","alt_name":"Clement Clarke Moore Homestead Park","ele":"13","gnis:county_id":"081","gnis:created":"09/07/2007","gnis:feature_id":"2352507","gnis:state_id":"36","leisure":"park","name":"Moore Homestead Playground","website":"https://www.nycgovparks.org/parks/moore-homestead-playground/","wikidata":"Q34818371"},"id":"way/361611928"},{"type":null,"properties":{"@id":"way/362678286","addr:city":"Brooklyn","addr:housenumber":"61","addr:postcode":"11222","addr:state":"NY","addr:street":"Franklin Street","leisure":"park","name":"61 Franklin Street Garden","note":"Owned by NYC Department of Parks and Recreation","source":"596 Acres","website":"https://livinglotsnyc.org/lot/3025710021/"},"id":"way/362678286"},{"type":null,"properties":{"@id":"way/362679830","addr:city":"Long Island City","addr:housenumber":"25-1","addr:postcode":"11101","addr:state":"NY","addr:street":"49th Avenue","leisure":"park","name":"Smiling Hogshead Ranch","note":"Owned by New York City Transit","source":"596 Acres","website":"https://livinglotsnyc.org/lot/4001000002/"},"id":"way/362679830"},{"type":null,"properties":{"@id":"way/362683587","addr:city":"New York","addr:housenumber":"330","addr:postcode":"10027","addr:state":"NY","addr:street":"Saint Nicholas Avenue","leisure":"park","name":"Saint Nicholas Miracle Garden","source":"596 Acres","website":"https://livinglotsnyc.org/lot/1019530044/"},"id":"way/362683587"},{"type":null,"properties":{"@id":"way/362684406","addr:city":"New York","addr:housenumber":"227","addr:postcode":"10026","addr:state":"NY","addr:street":"West 115th Street","leisure":"park","name":"227 Garden","note":"Owned by NYC Department of Parks and Recreation","source":"596 Acres","website":"https://livinglotsnyc.org/lot/1018310016/"},"id":"way/362684406"},{"type":null,"properties":{"@id":"way/362684725","addr:city":"Brooklyn","addr:housenumber":"237","addr:postcode":"11211","addr:state":"NY","addr:street":"Grand Street","leisure":"park","name":"Grand Street Garden","note":"Owned by NYC Department of Parks and Recreation","source":"596 Acres","website":"https://livinglotsnyc.org/lot/3023820028/"},"id":"way/362684725"},{"type":null,"properties":{"@id":"way/362685891","addr:city":"Brooklyn","addr:housenumber":"59","addr:postcode":"11222","addr:state":"NY","addr:street":"Java Street","leisure":"park","name":"Java Street Garden","note":"Owned by NYC Department of Housing Preservation and Development","source":"596 Acres","website":"https://livinglotsnyc.org/lot/3025390029/"},"id":"way/362685891"},{"type":null,"properties":{"@id":"way/362826160","addr:city":"New York","addr:housenumber":"197","addr:postcode":"10030","addr:state":"NY","addr:street":"West 134th Street","leisure":"park","name":"Harlem Valley Garden","note":"Owned by NYC Department of Housing Preservation and Development","source":"596 Acres","website":"https://livinglotsnyc.org/lot/1019190005/"},"id":"way/362826160"},{"type":null,"properties":{"@id":"way/362826846","addr:city":"New York","addr:housenumber":"239-37","addr:postcode":"10026","addr:state":"NY","addr:street":"West 111th Street","leisure":"park","name":"Electric Ladybug Garden","note":"Owned by NYC Department of Housing Preservation and Development","source":"596 Acres","website":"https://livinglotsnyc.org/lot/1018270014/"},"id":"way/362826846"},{"type":null,"properties":{"@id":"way/362827398","addr:city":"New York","addr:housenumber":"265","addr:postcode":"10027","addr:state":"NY","addr:street":"West 126th Street","leisure":"park","name":"Mandela Garden","note":"Owned by NYC Department of Housing Preservation and Development","source":"596 Acres","website":"https://livinglotsnyc.org/lot/58229/"},"id":"way/362827398"},{"type":null,"properties":{"@id":"way/363061941","addr:city":"Brooklyn","addr:housenumber":"347","addr:postcode":"11211","addr:state":"NY","addr:street":"Keap Street","leisure":"park","name":"Keap Fourth Community Garden","note":"Owned by NYC Department of Parks and Recreation","source":"596 Acres","website":"https://livinglotsnyc.org/lot/58275/"},"id":"way/363061941"},{"type":null,"properties":{"@id":"way/363600520","access":"private","leisure":"park"},"id":"way/363600520"},{"type":null,"properties":{"@id":"way/363600521","access":"private","leisure":"park"},"id":"way/363600521"},{"type":null,"properties":{"@id":"way/363600522","access":"private","leisure":"park"},"id":"way/363600522"},{"type":null,"properties":{"@id":"way/363600617","access":"private","leisure":"park"},"id":"way/363600617"},{"type":null,"properties":{"@id":"way/363600660","access":"private","leisure":"park"},"id":"way/363600660"},{"type":null,"properties":{"@id":"way/363600661","access":"private","leisure":"park"},"id":"way/363600661"},{"type":null,"properties":{"@id":"way/363600878","access":"private","leisure":"park"},"id":"way/363600878"},{"type":null,"properties":{"@id":"way/363601834","access":"private","leisure":"park"},"id":"way/363601834"},{"type":null,"properties":{"@id":"way/363601859","access":"private","leisure":"park"},"id":"way/363601859"},{"type":null,"properties":{"@id":"way/363602010","access":"private","leisure":"park"},"id":"way/363602010"},{"type":null,"properties":{"@id":"way/363602011","access":"private","leisure":"park"},"id":"way/363602011"},{"type":null,"properties":{"@id":"way/363602082","access":"private","leisure":"park"},"id":"way/363602082"},{"type":null,"properties":{"@id":"way/363602173","access":"private","leisure":"park"},"id":"way/363602173"},{"type":null,"properties":{"@id":"way/363602573","access":"private","leisure":"park"},"id":"way/363602573"},{"type":null,"properties":{"@id":"way/363602575","access":"private","leisure":"park"},"id":"way/363602575"},{"type":null,"properties":{"@id":"way/363602576","access":"private","leisure":"park"},"id":"way/363602576"},{"arcs":[[91,92]],"type":"Polygon","properties":{"@id":"way/363602788","access":"private","leisure":"park"},"id":"way/363602788"},{"type":null,"properties":{"@id":"way/363602789","access":"private","leisure":"park"},"id":"way/363602789"},{"type":null,"properties":{"@id":"way/363765872","access":"private","leisure":"park"},"id":"way/363765872"},{"type":null,"properties":{"@id":"way/364555731","access":"private","leisure":"park"},"id":"way/364555731"},{"type":null,"properties":{"@id":"way/364555732","access":"private","leisure":"park"},"id":"way/364555732"},{"type":null,"properties":{"@id":"way/364561423","ele":"21","gnis:county_id":"081","gnis:created":"09/05/2007","gnis:feature_id":"2351695","gnis:state_id":"36","leisure":"park","name":"Playground Ninety","website":"https://www.nycgovparks.org/parks/playground-ninety/"},"id":"way/364561423"},{"arcs":[[93,94]],"type":"Polygon","properties":{"@id":"way/365098997","leisure":"park","name":"Rory Staunton Field","website":"https://www.nycgovparks.org/parks/rory-stanton-field/"},"id":"way/365098997"},{"type":null,"properties":{"@id":"way/365936358","leisure":"park"},"id":"way/365936358"},{"type":null,"properties":{"@id":"way/365936496","ele":"7","gnis:county_id":"047","gnis:created":"11/22/2006","gnis:edited":"11/05/2007","gnis:feature_id":"2097567","gnis:state_id":"36","leisure":"park","name":"Ascenzi Square","wikidata":"Q20857807"},"id":"way/365936496"},{"type":null,"properties":{"@id":"way/365936661","ele":"9","gnis:county_id":"047","gnis:created":"03/19/2008","gnis:feature_id":"2381039","gnis:state_id":"36","leisure":"park","name":"Marcy Green North"},"id":"way/365936661"},{"type":null,"properties":{"@id":"way/365936662","ele":"10","gnis:county_id":"047","gnis:created":"03/19/2008","gnis:feature_id":"2381040","gnis:state_id":"36","leisure":"park","name":"Marcy Green Center"},"id":"way/365936662"},{"type":null,"properties":{"@id":"way/365936688","ele":"12","gnis:county_id":"047","gnis:created":"03/19/2008","gnis:feature_id":"2381041","gnis:state_id":"36","leisure":"park","name":"Marcy Green South"},"id":"way/365936688"},{"type":null,"properties":{"@id":"way/365936698","ele":"5","gnis:county_id":"047","gnis:created":"03/19/2008","gnis:feature_id":"2381036","gnis:state_id":"36","leisure":"park","name":"Rodney Playground North"},"id":"way/365936698"},{"type":null,"properties":{"@id":"way/365936796","ele":"6","gnis:county_id":"047","gnis:created":"03/19/2008","gnis:feature_id":"2381037","gnis:state_id":"36","leisure":"park","name":"Rodney Playground Center"},"id":"way/365936796"},{"type":null,"properties":{"@id":"way/365936797","ele":"6","gnis:county_id":"047","gnis:created":"03/19/2008","gnis:feature_id":"2381038","gnis:state_id":"36","leisure":"park","name":"Rodney Playground South"},"id":"way/365936797"},{"type":null,"properties":{"@id":"way/365936839","ele":"5","gnis:county_id":"047","gnis:created":"03/19/2008","gnis:feature_id":"2381042","gnis:state_id":"36","leisure":"park","name":"Rodney Park North"},"id":"way/365936839"},{"type":null,"properties":{"@id":"way/365936840","ele":"9","gnis:county_id":"047","gnis:created":"03/19/2008","gnis:feature_id":"2381043","gnis:state_id":"36","leisure":"park","name":"Rodney Park Center"},"id":"way/365936840"},{"type":null,"properties":{"@id":"way/365936851","ele":"13","gnis:county_id":"047","gnis:created":"03/19/2008","gnis:feature_id":"2381044","gnis:state_id":"36","leisure":"park","name":"Rodney Park South"},"id":"way/365936851"},{"type":null,"properties":{"@id":"way/365936852","ele":"15","gnis:county_id":"047","gnis:created":"03/19/2008","gnis:feature_id":"2381045","gnis:state_id":"36","leisure":"park","name":"Marcy Park South"},"id":"way/365936852"},{"type":null,"properties":{"@id":"way/365937095","ele":"4","gnis:county_id":"047","gnis:created":"03/19/2008","gnis:feature_id":"2377260","gnis:state_id":"36","leisure":"park","name":"Father Popieluszko Square"},"id":"way/365937095"},{"type":null,"properties":{"@id":"way/365937182","ele":"4","gnis:county_id":"047","gnis:created":"03/19/2008","gnis:feature_id":"2381046","gnis:state_id":"36","leisure":"park","name":"Middleton Playground"},"id":"way/365937182"},{"type":null,"properties":{"@id":"way/365937277","ele":"10","gnis:county_id":"047","gnis:created":"02/22/2008","gnis:feature_id":"2381057","gnis:state_id":"36","leisure":"park","name":"Classon Playground"},"id":"way/365937277"},{"type":null,"properties":{"@id":"way/366377960","access":"permissive","leisure":"park"},"id":"way/366377960"},{"type":null,"properties":{"@id":"way/366377961","access":"permissive","leisure":"park"},"id":"way/366377961"},{"type":null,"properties":{"@id":"way/366528947","ele":"17","gnis:county_id":"081","gnis:created":"09/07/2007","gnis:feature_id":"2352615","gnis:state_id":"36","leisure":"park","name":"Middleburgh Triangle","wikidata":"Q34850308"},"id":"way/366528947"},{"type":null,"properties":{"@id":"way/366535373","ele":"18","gnis:county_id":"081","gnis:created":"09/07/2007","gnis:feature_id":"2352526","gnis:state_id":"36","leisure":"park","name":"Triangle 90"},"id":"way/366535373"},{"type":null,"properties":{"@id":"way/367482920","leisure":"park","name":"Sergeant Collins Triangle"},"id":"way/367482920"},{"type":null,"properties":{"@id":"way/367619512","ele":"9","gnis:county_id":"081","gnis:created":"09/07/2007","gnis:feature_id":"2352087","gnis:state_id":"36","leisure":"park","name":"Bulova Park","wikidata":"Q34812478"},"id":"way/367619512"},{"type":null,"properties":{"@id":"way/367644938","ele":"20","fenced":"yes","gnis:county_id":"081","gnis:created":"08/10/2007","gnis:feature_id":"2330939","gnis:state_id":"36","leisure":"park","name":"Fisher Pool","operator":"NYC Parks & Recreation"},"id":"way/367644938"},{"type":null,"properties":{"@id":"way/367660576","leisure":"park","name":"Junction Playground","website":"https://www.nycgovparks.org/parks/junction-playground"},"id":"way/367660576"},{"type":null,"properties":{"@id":"way/367660740","ele":"3","gnis:county_id":"005","gnis:created":"10/28/2005","gnis:feature_id":"2073954","gnis:state_id":"36","leisure":"park","name":"Roberto Clemente State Park","wikidata":"Q3436866"},"id":"way/367660740"},{"type":null,"properties":{"@id":"way/367688645","ele":"22","gnis:county_id":"081","gnis:created":"08/10/2007","gnis:feature_id":"2330941","gnis:state_id":"36","leisure":"park","name":"Overlook Park","website":"https://www.nycgovparks.org/parks/overlook-park"},"id":"way/367688645"},{"type":null,"properties":{"@id":"way/367688676","ele":"19","gnis:county_id":"081","gnis:created":"08/10/2007","gnis:feature_id":"2330940","gnis:state_id":"36","leisure":"park","name":"East Elmhurst Playground"},"id":"way/367688676"},{"type":null,"properties":{"@id":"way/367689021","ele":"16","gnis:county_id":"081","gnis:created":"09/07/2007","gnis:feature_id":"2352085","gnis:state_id":"36","leisure":"park","name":"Jackson Mill Green"},"id":"way/367689021"},{"type":null,"properties":{"@id":"way/367689581","ele":"16","gnis:county_id":"081","gnis:created":"08/10/2007","gnis:feature_id":"2330938","gnis:state_id":"36","leisure":"park","name":"Trolley Car Triangle","website":"https://www.nycgovparks.org/parks/trolley-car-triangle"},"id":"way/367689581"},{"type":null,"properties":{"@id":"way/367689955","ele":"8","gnis:county_id":"081","gnis:created":"09/07/2007","gnis:feature_id":"2352043","gnis:state_id":"36","leisure":"park","name":"One Room Schoolhouse Park","wikidata":"Q20858183"},"id":"way/367689955"},{"type":null,"properties":{"@id":"way/367691249","ele":"8","gnis:county_id":"081","gnis:created":"09/07/2007","gnis:feature_id":"2352083","gnis:state_id":"36","leisure":"park","name":"O'Sullivan Plaza"},"id":"way/367691249"},{"type":null,"properties":{"@id":"way/367807621","access":"private","leisure":"park","name":"Sunnyside Garden Park"},"id":"way/367807621"},{"type":null,"properties":{"@id":"way/367859701","leisure":"park","name":"Hunter’s Point South Waterfront Park","website":"https://www.nycgovparks.org/parks/hunters-point-south-park"},"id":"way/367859701"},{"type":null,"properties":{"@id":"way/367860394","access":"private","leisure":"park"},"id":"way/367860394"},{"type":null,"properties":{"@id":"way/367860395","access":"private","leisure":"park"},"id":"way/367860395"},{"type":null,"properties":{"@id":"way/367860396","access":"private","leisure":"park"},"id":"way/367860396"},{"type":null,"properties":{"@id":"way/367860397","access":"private","leisure":"park"},"id":"way/367860397"},{"type":null,"properties":{"@id":"way/367860398","access":"private","leisure":"park"},"id":"way/367860398"},{"type":null,"properties":{"@id":"way/367860399","access":"private","leisure":"park"},"id":"way/367860399"},{"type":null,"properties":{"@id":"way/367860400","access":"private","leisure":"park"},"id":"way/367860400"},{"type":null,"properties":{"@id":"way/367860401","access":"private","leisure":"park"},"id":"way/367860401"},{"type":null,"properties":{"@id":"way/367860402","access":"private","leisure":"park"},"id":"way/367860402"},{"type":null,"properties":{"@id":"way/367860403","access":"private","leisure":"park"},"id":"way/367860403"},{"type":null,"properties":{"@id":"way/367860404","access":"private","leisure":"park"},"id":"way/367860404"},{"type":null,"properties":{"@id":"way/367860405","access":"private","leisure":"park"},"id":"way/367860405"},{"type":null,"properties":{"@id":"way/369699550","ele":"12","gnis:county_id":"081","gnis:created":"01/23/1980","gnis:edited":"11/02/2007","gnis:feature_id":"955402","gnis:state_id":"36","leisure":"park","name":"Park of the Americas","website":"https://www.nycgovparks.org/parks/park-of-the-americas"},"id":"way/369699550"},{"type":null,"properties":{"@id":"way/370224628","ele":"5","gnis:county_id":"081","gnis:created":"09/07/2007","gnis:feature_id":"2352591","gnis:state_id":"36","leisure":"park","name":"Rafferty Triangle"},"id":"way/370224628"},{"type":null,"properties":{"@id":"way/370593582","leisure":"park"},"id":"way/370593582"},{"type":null,"properties":{"@id":"way/370943110","leisure":"park","name":"Long Island City Community Garden","name_1":"LIC Roots","name_2":"Firefighter Brennan Memorial"},"id":"way/370943110"},{"type":null,"properties":{"@id":"way/370965390","ele":"11","gnis:county_id":"081","gnis:created":"09/05/2007","gnis:feature_id":"2351646","gnis:state_id":"36","leisure":"park","name":"Dwyer Square"},"id":"way/370965390"},{"type":null,"properties":{"@id":"way/371390419","leisure":"park"},"id":"way/371390419"},{"type":null,"properties":{"@id":"way/371391661","leisure":"park"},"id":"way/371391661"},{"type":null,"properties":{"@id":"way/371765883","leisure":"park","name":"Greenstreets"},"id":"way/371765883"},{"type":null,"properties":{"@id":"way/371765890","leisure":"park"},"id":"way/371765890"},{"type":null,"properties":{"@id":"way/371765892","leisure":"park"},"id":"way/371765892"},{"type":null,"properties":{"@id":"way/372050312","ele":"4","gnis:county_id":"047","gnis:created":"02/22/2008","gnis:feature_id":"2377230","gnis:state_id":"36","leisure":"park","name":"American Playground"},"id":"way/372050312"},{"type":null,"properties":{"@id":"way/372721441","email":"info@bpcparks.org","leisure":"park","name":"Teardrop Park","operator":"Battery Park City Parks Conservancy","website":"http://bpcparks.org/whats-here/parks/teardrop-park/","wikidata":"Q3516739","wikipedia":"en:Teardrop Park"},"id":"way/372721441"},{"type":null,"properties":{"@id":"way/373468766","leisure":"park"},"id":"way/373468766"},{"type":null,"properties":{"@id":"way/373473549","ele":"6","gnis:county_id":"081","gnis:created":"01/23/1980","gnis:edited":"01/17/2008","gnis:feature_id":"956690","gnis:state_id":"36","leisure":"park","name":"Frank Principe Park"},"id":"way/373473549"},{"type":null,"properties":{"@id":"way/374079678","ele":"18","gnis:county_id":"081","gnis:created":"09/19/2007","gnis:feature_id":"2352536","gnis:state_id":"36","leisure":"park","name":"Carl L Sohncke Square","wikidata":"Q34824383"},"id":"way/374079678"},{"type":null,"properties":{"@id":"way/374128175","ele":"10","gnis:county_id":"081","gnis:created":"09/07/2007","gnis:feature_id":"2352533","gnis:state_id":"36","leisure":"park","name":"Big Bush Park","website":"https://www.nycgovparks.org/parks/big-bush-park/"},"id":"way/374128175"},{"type":null,"properties":{"@id":"way/374128188","ele":"10","gnis:county_id":"081","gnis:created":"09/07/2007","gnis:feature_id":"2352534","gnis:state_id":"36","leisure":"park","name":"Nathan Weidenbaum Park","website":"https://www.nycgovparks.org/parks/nathan-weidenbaum-park/"},"id":"way/374128188"},{"type":null,"properties":{"@id":"way/374134772","ele":"21","gnis:county_id":"081","gnis:created":"09/07/2007","gnis:feature_id":"2352531","gnis:state_id":"36","leisure":"park","name":"Latham Park","website":"https://www.nycgovparks.org/parks/latham-park/","wikidata":"Q34840889"},"id":"way/374134772"},{"type":null,"properties":{"@id":"way/374134773","ele":"14","gnis:county_id":"081","gnis:created":"09/07/2007","gnis:feature_id":"2352530","gnis:state_id":"36","leisure":"park","name":"Spargo Park","website":"https://www.nycgovparks.org/parks/spargo-park/","wikidata":"Q34862876"},"id":"way/374134773"},{"type":null,"properties":{"@id":"way/374134774","alt_name":"Sherry Park","ele":"19","gnis:county_id":"081","gnis:created":"09/07/2007","gnis:feature_id":"2352532","gnis:state_id":"36","leisure":"park","name":"Sherry Dog Run","website":"https://www.nycgovparks.org/parks/sherry-dog-run/"},"id":"way/374134774"},{"type":null,"properties":{"@id":"way/374134775","ele":"21","gnis:county_id":"081","gnis:created":"09/07/2007","gnis:feature_id":"2352529","gnis:state_id":"36","leisure":"park","name":"Winfield Plaza","website":"https://www.nycgovparks.org/parks/winfield-plaza/","wikidata":"Q34869880"},"id":"way/374134775"},{"type":null,"properties":{"@id":"way/374151988","leisure":"park","name":"Crosson Green","website":"https://www.nycgovparks.org/parks/park-q341a"},"id":"way/374151988"},{"type":null,"properties":{"@id":"way/375369088","leisure":"park","opening_hours":"sunrise-sunset"},"id":"way/375369088"},{"type":null,"properties":{"@id":"way/375369089","leisure":"park","opening_hours":"sunrise-sunset"},"id":"way/375369089"},{"type":null,"properties":{"@id":"way/375529007","leisure":"park","name":"O'Connor's Tail","website":"https://www.nycgovparks.org/parks/oconners-tail/"},"id":"way/375529007"},{"type":null,"properties":{"@id":"way/376015439","leisure":"park","name":"CU SIPA Commons"},"id":"way/376015439"},{"type":null,"properties":{"@id":"way/376015442","leisure":"park","name":"CU SE Field"},"id":"way/376015442"},{"type":null,"properties":{"@id":"way/377616839","ele":"42","gnis:feature_id":"2370303","leisure":"park","name":"Highbridge Park","website":"https://www.nycgovparks.org/parks/highbridge-park_bronx/"},"id":"way/377616839"},{"type":null,"properties":{"@id":"way/377631245","leisure":"park","name":"South Park"},"id":"way/377631245"},{"type":null,"properties":{"@id":"way/377631466","leisure":"park","name":"North Park"},"id":"way/377631466"},{"type":null,"properties":{"@id":"way/377645166","leisure":"park","name":"Guttenberg/North Bergen Waterfront Park"},"id":"way/377645166"},{"type":null,"properties":{"@id":"way/377995615","leisure":"park","name":"A.R.R.O.W. Community Garden"},"id":"way/377995615"},{"type":null,"properties":{"@id":"way/378326872","ele":"16","gnis:county_id":"081","gnis:created":"09/07/2007","gnis:feature_id":"2352503","gnis:state_id":"36","leisure":"park","name":"Federalist Triangle"},"id":"way/378326872"},{"type":null,"properties":{"@id":"way/378326874","ele":"15","gnis:county_id":"081","gnis:created":"09/07/2007","gnis:feature_id":"2352223","gnis:state_id":"36","leisure":"park","name":"Cowbird Triangle","wikidata":"Q34820371"},"id":"way/378326874"},{"type":null,"properties":{"@id":"way/378326875","ele":"12","gnis:county_id":"081","gnis:created":"09/07/2007","gnis:feature_id":"2352224","gnis:state_id":"36","leisure":"park","name":"Hull Triangle","website":"https://www.nycgovparks.org/parks/hull-triangle","wikidata":"Q34836923"},"id":"way/378326875"},{"type":null,"properties":{"@id":"way/378326876","ele":"19","gnis:county_id":"081","gnis:created":"09/07/2007","gnis:feature_id":"2352225","gnis:state_id":"36","leisure":"park","name":"Oliver Hazard Triangle"},"id":"way/378326876"},{"type":null,"properties":{"@id":"way/378359193","ele":"9","gnis:county_id":"061","gnis:created":"10/01/2008","gnis:feature_id":"2500680","gnis:state_id":"36","leisure":"park","name":"Vincent F. Albano Jr. Playground","opening_hours":"Mar 2-Oct 31: Mo-Su 06:00-21:00; Nov 1-Mar 1: Mo-Su 06:00-18:00","website":"https://www.nycgovparks.org/parks/vincent-f-albano-jr-playground"},"id":"way/378359193"},{"type":null,"properties":{"@id":"way/378532952","leisure":"park","name":"Community Garden"},"id":"way/378532952"},{"type":null,"properties":{"@id":"way/379542657","ele":"27","gnis:county_id":"081","gnis:created":"01/23/1980","gnis:feature_id":"950760","gnis:state_id":"36","leisure":"park","name":"Frontera Park","website":"https://www.nycgovparks.org/parks/frontera-park"},"id":"way/379542657"},{"type":null,"properties":{"@id":"way/379542658","leisure":"park","name":"Peter Chahales Park"},"id":"way/379542658"},{"type":null,"properties":{"@id":"way/379587713","ele":"20","gnis:county_id":"081","gnis:created":"09/07/2007","gnis:feature_id":"2352506","gnis:state_id":"36","leisure":"park","name":"Crowley Playground","website":"https://www.nycgovparks.org/parks/crowley-playground/","wikidata":"Q34821325"},"id":"way/379587713"},{"type":null,"properties":{"@id":"way/379634622","leisure":"park"},"id":"way/379634622"},{"type":null,"properties":{"@id":"way/379634625","leisure":"park"},"id":"way/379634625"},{"type":null,"properties":{"@id":"way/379657566","leisure":"park","source":"Bing"},"id":"way/379657566"},{"type":null,"properties":{"@id":"way/379747570","leisure":"park","source":"Bing"},"id":"way/379747570"},{"type":null,"properties":{"@id":"way/379749111","leisure":"park","source":"Bing"},"id":"way/379749111"},{"type":null,"properties":{"@id":"way/379758354","leisure":"park"},"id":"way/379758354"},{"type":null,"properties":{"@id":"way/380294002","leisure":"park","name":"Memorial Park"},"id":"way/380294002"},{"type":null,"properties":{"@id":"way/380425199","leisure":"park"},"id":"way/380425199"},{"type":null,"properties":{"@id":"way/382243431","ele":"8","gnis:county_id":"081","gnis:created":"03/20/2008","gnis:feature_id":"2414472","gnis:state_id":"36","leisure":"park","name":"Corona Mac Park","wikidata":"Q34819984"},"id":"way/382243431"},{"type":null,"properties":{"@id":"way/382243432","ele":"16","gnis:county_id":"081","gnis:created":"03/25/2008","gnis:feature_id":"2414616","gnis:state_id":"36","leisure":"park","name":"William F Moore Park","website":"https://www.nycgovparks.org/parks/william-f-moore-park"},"id":"way/382243432"},{"type":null,"properties":{"@id":"way/382243435","ele":"8","gnis:county_id":"081","gnis:created":"03/21/2008","gnis:feature_id":"2414473","gnis:state_id":"36","leisure":"park","name":"Lewis Simeone Park","website":"https://www.nycgovparks.org/parks/simeone-park","wikidata":"Q34842091"},"id":"way/382243435"},{"type":null,"properties":{"@id":"way/382243436","leisure":"park"},"id":"way/382243436"},{"type":null,"properties":{"@id":"way/382243438","ele":"14","gnis:county_id":"081","gnis:created":"03/21/2008","gnis:feature_id":"2414474","gnis:state_id":"36","leisure":"park","name":"Josephine Caminiti Playground","website":"https://www.nycgovparks.org/parks/josephine-caminiti-playground","wikidata":"Q34839289"},"id":"way/382243438"},{"type":null,"properties":{"@id":"way/382252581","alt_name":"Horsebrook Island","ele":"8","gnis:county_id":"081","gnis:created":"03/21/2008","gnis:feature_id":"2414470","gnis:state_id":"36","leisure":"park","name":"Libra Triangle","website":"https://www.nycgovparks.org/parks/horsebrook-island-q152/"},"id":"way/382252581"},{"type":null,"properties":{"@id":"way/382252582","ele":"8","gnis:county_id":"081","gnis:created":"03/21/2008","gnis:feature_id":"2414471","gnis:state_id":"36","leisure":"park","name":"Newtown Playground","website":"https://www.nycgovparks.org/parks/newtown-playground"},"id":"way/382252582"},{"type":null,"properties":{"@id":"way/382282477","leisure":"park","name":"American Triangle","website":"https://www.nycgovparks.org/parks/american-triangle/"},"id":"way/382282477"},{"type":null,"properties":{"@id":"way/382664539","leisure":"park","name":"Judge Moses Weinstein Playground","website":"https://www.nycgovparks.org/parks/judge-moses-weinstein-playground"},"id":"way/382664539"},{"type":null,"properties":{"@id":"way/382668135","alt_name":"Freedom Square Playground","ele":"22","gnis:county_id":"081","gnis:created":"03/24/2008","gnis:feature_id":"2414733","gnis:state_id":"36","leisure":"park","name":"Freedom Square","website":"https://www.nycgovparks.org/parks/freedom-square-playground"},"id":"way/382668135"},{"type":null,"properties":{"@id":"way/382668146","ele":"14","gnis:county_id":"081","gnis:created":"03/25/2008","gnis:feature_id":"2414734","gnis:state_id":"36","leisure":"park","name":"Queens Valley Playground","website":"https://www.nycgovparks.org/parks/queens-valley-playground"},"id":"way/382668146"},{"type":null,"properties":{"@id":"way/382669634","ele":"23","gnis:county_id":"081","gnis:created":"03/25/2008","gnis:feature_id":"2414730","gnis:state_id":"36","leisure":"park","name":"Vleigh Playground","website":"https://www.nycgovparks.org/parks/vleigh-playground","wikidata":"Q20880885"},"id":"way/382669634"},{"type":null,"properties":{"@id":"way/385106972","ele":"15","gnis:feature_id":"2500682","leisure":"park","name":"Ralph Bunche Park","official_name":"Ralph J. Bunche Park","start_date":"1979","website":"https://www.nycgovparks.org/parks/ralph-bunche-park/","wikidata":"Q865971","wikipedia":"en:Ralph Bunche Park"},"id":"way/385106972"},{"type":null,"properties":{"@id":"way/385247973","ele":"11","gnis:county_id":"081","gnis:created":"09/05/2007","gnis:feature_id":"2351666","gnis:state_id":"36","leisure":"park","name":"Saint Michael's Park"},"id":"way/385247973"},{"type":null,"properties":{"@id":"way/385278920","leisure":"park"},"id":"way/385278920"},{"type":null,"properties":{"@id":"way/385418609","leisure":"park"},"id":"way/385418609"},{"type":null,"properties":{"@id":"way/385418610","leisure":"park"},"id":"way/385418610"},{"type":null,"properties":{"@id":"way/389547537","ele":"4","gnis:county_id":"081","gnis:created":"08/10/2007","gnis:feature_id":"2330909","gnis:state_id":"36","leisure":"park","name":"Onehundredthirtysixth Street Playground","wikidata":"Q34852034"},"id":"way/389547537"},{"type":null,"properties":{"@id":"way/389586605","ele":"15","gnis:county_id":"081","gnis:created":"08/10/2007","gnis:feature_id":"2330908","gnis:state_id":"36","leisure":"park","name":"Poppenhusen Playground","website":"https://www.nycgovparks.org/parks/poppenhusen-playground"},"id":"way/389586605"},{"type":null,"properties":{"@id":"way/389592778","ele":"10","gnis:county_id":"081","gnis:created":"08/10/2007","gnis:feature_id":"2330905","gnis:state_id":"36","leisure":"park","name":"115th Street Playground","wikidata":"Q34851966"},"id":"way/389592778"},{"type":null,"properties":{"@id":"way/389598466","ele":"15","gnis:county_id":"081","gnis:created":"08/10/2007","gnis:edited":"10/24/2007","gnis:feature_id":"2330906","gnis:state_id":"36","leisure":"park","name":"College Point Park","website":"https://www.nycgovparks.org/parks/college-point-park"},"id":"way/389598466"},{"type":null,"properties":{"@id":"way/389691037","alt_name":"Poppenhusen Park","ele":"20","gnis:county_id":"081","gnis:created":"08/10/2007","gnis:feature_id":"2330907","gnis:state_id":"36","leisure":"park","name":"Poppenhusen Triangle","website":"https://www.nycgovparks.org/parks/poppenhusen-park/"},"id":"way/389691037"},{"type":null,"properties":{"@id":"way/389691039","leisure":"park"},"id":"way/389691039"},{"type":null,"properties":{"@id":"way/390086292","ele":"10","gnis:county_id":"005","gnis:created":"12/18/2007","gnis:feature_id":"2370273","gnis:state_id":"36","leisure":"park","name":"Randall Playground"},"id":"way/390086292"},{"type":null,"properties":{"@id":"way/395678163","access":"private","leisure":"park","opening_hours":"Mo-Su 08:00-sunset"},"id":"way/395678163"},{"type":null,"properties":{"@id":"way/400780940","leisure":"park","name":"Teardrop Park South","website":"http://bpcparks.org/whats-here/parks/south-teardrop/"},"id":"way/400780940"},{"type":null,"properties":{"@id":"way/400782867","leisure":"park"},"id":"way/400782867"},{"type":null,"properties":{"@id":"way/400782868","leisure":"park"},"id":"way/400782868"},{"arcs":[[-4,-72,95,-65]],"type":"Polygon","properties":{"@id":"way/400782869","ele":"0","gnis:county_id":"061","gnis:created":"01/01/2000","gnis:feature_id":"2060113","gnis:state_id":"36","leisure":"park","name":"Vesey Green"},"id":"way/400782869"},{"arcs":[[-39,96]],"type":"Polygon","properties":{"@id":"way/400782871","leisure":"park"},"id":"way/400782871"},{"type":null,"properties":{"@id":"way/400782872","leisure":"park","name":"West Thames Park","website":"http://bpcparks.org/whats-here/parks/west-thames-park/"},"id":"way/400782872"},{"type":null,"properties":{"@id":"way/401272976","ele":"17","gnis:county_id":"081","gnis:created":"09/07/2007","gnis:feature_id":"2352105","gnis:state_id":"36","leisure":"park","name":"Ditmars Park","website":"https://www.nycgovparks.org/parks/ditmars-park"},"id":"way/401272976"},{"type":null,"properties":{"@id":"way/402324768","leisure":"park","name":"Harborside Park"},"id":"way/402324768"},{"type":null,"properties":{"@id":"way/402795851","ele":"4","gnis:county_id":"017","gnis:created":"07/01/1981","gnis:feature_id":"2060279","gnis:state_id":"34","leisure":"park","name":"Shipyard Park","wikidata":"Q34860825"},"id":"way/402795851"},{"type":null,"properties":{"@id":"way/403104542","leisure":"park"},"id":"way/403104542"},{"type":null,"properties":{"@id":"way/404069492","ele":"23","gnis:county_id":"081","gnis:created":"03/20/2008","gnis:feature_id":"2392979","gnis:state_id":"36","leisure":"park","name":"Seven Gables Playground","website":"https://www.nycgovparks.org/parks/seven-gables-playground/"},"id":"way/404069492"},{"type":null,"properties":{"@id":"way/404246337","ele":"20","gnis:county_id":"081","gnis:created":"03/20/2008","gnis:feature_id":"2392978","gnis:state_id":"36","leisure":"park","name":"Farm Playground","website":"https://www.nycgovparks.org/parks/farm-playground/"},"id":"way/404246337"},{"type":null,"properties":{"@id":"way/404248325","ele":"13","gnis:county_id":"081","gnis:created":"03/25/2008","gnis:feature_id":"2414685","gnis:state_id":"36","leisure":"park","name":"Utopia Playground","website":"https://www.nycgovparks.org/parks/utopia-playground","wikidata":"Q34867736"},"id":"way/404248325"},{"type":null,"properties":{"@id":"way/409216519","leisure":"park","location":"Hamilton Heights","name":"Soccer Field"},"id":"way/409216519"},{"type":null,"properties":{"@id":"way/409341913","description":"Basketball Court","leisure":"park"},"id":"way/409341913"},{"type":null,"properties":{"@id":"way/409838741","ele":"24","gnis:county_id":"081","gnis:created":"03/25/2008","gnis:feature_id":"2414637","gnis:state_id":"36","leisure":"park","name":"Maple Grove Park","website":"https://www.nycgovparks.org/parks/maple-grove-park"},"id":"way/409838741"},{"type":null,"properties":{"@id":"way/410310399","leisure":"park","name":"Coleman Field"},"id":"way/410310399"},{"type":null,"properties":{"@id":"way/413055246","leisure":"park","name":"City Hall Park","name:el":"Πάρκο Δημαρχείου","smoking":"no","website":"https://www.nycgovparks.org/parks/city-hall-park","wikidata":"Q34817857"},"id":"way/413055246"},{"type":null,"properties":{"@id":"way/413886379","access":"private","leisure":"park","name":"Hawthorne Park"},"id":"way/413886379"},{"type":null,"properties":{"@id":"way/415432911","alt_name":"Mount Playground","ele":"23","gnis:county_id":"081","gnis:created":"03/25/2008","gnis:feature_id":"2414631","gnis:state_id":"36","leisure":"park","name":"The Painter's Playground"},"id":"way/415432911"},{"type":null,"properties":{"@id":"way/415720617","leisure":"park"},"id":"way/415720617"},{"type":null,"properties":{"@id":"way/415747115","leisure":"park"},"id":"way/415747115"},{"type":null,"properties":{"@id":"way/423243993","leisure":"park"},"id":"way/423243993"},{"type":null,"properties":{"@id":"way/423244567","leisure":"park"},"id":"way/423244567"},{"type":null,"properties":{"@id":"way/423245502","leisure":"park"},"id":"way/423245502"},{"type":null,"properties":{"@id":"way/423245946","leisure":"park"},"id":"way/423245946"},{"type":null,"properties":{"@id":"way/423247653","leisure":"park","name":"Ewen Park","natural":"wood"},"id":"way/423247653"},{"type":null,"properties":{"@id":"way/423893814","leisure":"park","name":"Jerome Park"},"id":"way/423893814"},{"type":null,"properties":{"@id":"way/423894006","leisure":"park","name":"Fort Independence Park","wikidata":"Q34830761"},"id":"way/423894006"},{"type":null,"properties":{"@id":"way/423894148","leisure":"park","name":"Bailey Playground"},"id":"way/423894148"},{"type":null,"properties":{"@id":"way/423895885","leisure":"park"},"id":"way/423895885"},{"arcs":[[97]],"type":"Polygon","properties":{"@id":"way/423896820","leisure":"park"},"id":"way/423896820"},{"type":null,"properties":{"@id":"way/425616454","ele":"9","gnis:county_id":"081","gnis:created":"08/10/2007","gnis:feature_id":"2330901","gnis:state_id":"36","leisure":"park","name":"Bland Playground","website":"https://www.nycgovparks.org/parks/bland-playground","wikidata":"Q34808867"},"id":"way/425616454"},{"type":null,"properties":{"@id":"way/425616455","ele":"15","gnis:county_id":"081","gnis:created":"08/10/2007","gnis:feature_id":"2330902","gnis:state_id":"36","leisure":"park","name":"Maple Playground","website":"https://www.nycgovparks.org/parks/maple-playground"},"id":"way/425616455"},{"type":null,"properties":{"@id":"way/425616456","ele":"18","gnis:county_id":"081","gnis:created":"08/10/2007","gnis:feature_id":"2330903","gnis:state_id":"36","leisure":"park","name":"Bowne Playground","website":"https://www.nycgovparks.org/parks/bowne-playground/","wikidata":"Q34810225"},"id":"way/425616456"},{"type":null,"properties":{"@id":"way/425627322","ele":"22","gnis:county_id":"081","gnis:created":"08/10/2007","gnis:feature_id":"2330896","gnis:state_id":"36","leisure":"park","name":"Murray Hill Playground","website":"https://www.nycgovparks.org/parks/Q437"},"id":"way/425627322"},{"type":null,"properties":{"@id":"way/425627323","ele":"17","gnis:county_id":"081","gnis:created":"08/10/2007","gnis:feature_id":"2330922","gnis:state_id":"36","leisure":"park","name":"Lawrence Triangle","website":"https://www.nycgovparks.org/parks/Q209/","wikidata":"Q34841471"},"id":"way/425627323"},{"arcs":[[98]],"type":"Polygon","properties":{"@id":"way/427818536","architect":"Frederick Law Olmstead;Calvert Vaux","heritage":"2","heritage:operator":"nrhp","heritage:website":"https://www.nps.gov/subjects/nationalregister/index.htm","leisure":"park","name":"Central Park","name:el":"Κεντρικό πάρκο","name:fa":"پارک مرکزی","name:hi":"सेंट्रल पार्क","name:ja":"中央公園","name:kn":"ಸೆಂಟ್ರಲ್ ಪಾರ್ಕ್","name:ko":"센트럴 파크","name:ru":"Центральный парк","name:tr":"Central Park","name:zh":"中央公园","nrhp:inscription_date":"1966-10-15","nrhp:nhl":"yes","nrhp:nhl:inscription_date":"1963-05-23","opening_hours":"06:00-01:00","operator":"Central Park Conservancy","owner":"NYC Parks","ref:nrhp":"66000538","website":"https://www.centralparknyc.org","wikidata":"Q160409","wikipedia":"en:Central Park"},"id":"way/427818536"},{"type":null,"properties":{"@id":"way/432294700","addr:street":"Gildersleeve Avenue","ele":"6","gnis:county_id":"005","gnis:created":"12/17/2007","gnis:feature_id":"2369825","gnis:state_id":"36","leisure":"park","name":"Harding Park"},"id":"way/432294700"},{"type":null,"properties":{"@id":"way/440055119","ele":"6","gnis:county_id":"061","gnis:created":"10/02/2008","gnis:feature_id":"2500749","gnis:state_id":"36","leisure":"park","name":"Minetta Green","website":"https://www.nycgovparks.org/parks/minetta-green","wikidata":"Q34851485"},"id":"way/440055119"},{"type":null,"properties":{"@id":"way/440055120","ele":"6","gnis:county_id":"061","gnis:created":"10/02/2008","gnis:feature_id":"2500746","gnis:state_id":"36","leisure":"park","name":"West Fourth Street Courts","website":"https://www.nycgovparks.org/parks/west-4th-street-courts","wikidata":"Q7985184","wikipedia":"en:West Fourth Street Courts"},"id":"way/440055120"},{"type":null,"properties":{"@id":"way/440055121","ele":"6","gnis:county_id":"061","gnis:created":"10/02/2008","gnis:feature_id":"2500747","gnis:state_id":"36","leisure":"park","name":"Minetta Playground","website":"https://www.nycgovparks.org/parks/minetta-playground/","wikidata":"Q34851498"},"id":"way/440055121"},{"type":null,"properties":{"@id":"way/440530202","leisure":"park"},"id":"way/440530202"},{"type":null,"properties":{"@id":"way/440530203","leisure":"park"},"id":"way/440530203"},{"type":null,"properties":{"@id":"way/440530204","leisure":"park"},"id":"way/440530204"},{"type":null,"properties":{"@id":"way/440530205","leisure":"park"},"id":"way/440530205"},{"type":null,"properties":{"@id":"way/440530206","leisure":"park"},"id":"way/440530206"},{"type":null,"properties":{"@id":"way/449139914","leisure":"park","name":"Urban Park"},"id":"way/449139914"},{"type":null,"properties":{"@id":"way/450562592","leisure":"park","name":"Webster School Park"},"id":"way/450562592"},{"type":null,"properties":{"@id":"way/450607368","leisure":"park"},"id":"way/450607368"},{"type":null,"properties":{"@id":"way/450835310","leisure":"park","name":"Gregory Park"},"id":"way/450835310"},{"type":null,"properties":{"@id":"way/451258411","leisure":"park","name":"Louisa Park"},"id":"way/451258411"},{"type":null,"properties":{"@id":"way/451481490","leisure":"park","name":"Plaza 67"},"id":"way/451481490"},{"type":null,"properties":{"@id":"way/453456965","highway":"pedestrian","leisure":"park"},"id":"way/453456965"},{"type":null,"properties":{"@id":"way/453461400","leisure":"park","name":"Elizabeth Street Garden","website":"https://elizabethstreetgarden.org/","wikidata":"Q28401894","wikipedia":"en:Elizabeth Street Garden"},"id":"way/453461400"},{"type":null,"properties":{"@id":"way/453528989","ele":"3","gnis:county_id":"061","gnis:created":"10/01/2008","gnis:feature_id":"2500585","gnis:state_id":"36","leisure":"park","name":"Dry Dock Playground","wikidata":"Q34826672"},"id":"way/453528989"},{"type":null,"properties":{"@id":"way/454082289","leisure":"park","name":"Washington Park","wikidata":"Q49577180"},"id":"way/454082289"},{"type":null,"properties":{"@id":"way/454612296","leisure":"park","name":"Fillmore Park"},"id":"way/454612296"},{"type":null,"properties":{"@id":"way/455062314","leisure":"park"},"id":"way/455062314"},{"type":null,"properties":{"@id":"way/455314804","ele":"23","gnis:county_id":"061","gnis:created":"10/01/2008","gnis:feature_id":"2500683","leisure":"park","name":"Trygve Lie Plaza","website":"https://www.nycgovparks.org/parks/trygve-lie-plaza/"},"id":"way/455314804"},{"type":null,"properties":{"@id":"way/456147667","leisure":"park","name":"Saint Mary's Park","wikidata":"Q49556059"},"id":"way/456147667"},{"type":null,"properties":{"@id":"way/456657919","amenity":"place_of_worship","building":"church","ele":"5","gnis:county_id":"119","gnis:created":"11/06/2000","gnis:feature_id":"1888959","gnis:state_id":"36","leisure":"park","name":"Saint Paul's Church","religion":"christian"},"id":"way/456657919"},{"type":null,"properties":{"@id":"way/458511171","leisure":"park"},"id":"way/458511171"},{"type":null,"properties":{"@id":"way/458642434","leisure":"park"},"id":"way/458642434"},{"type":null,"properties":{"@id":"way/458642435","leisure":"park"},"id":"way/458642435"},{"type":null,"properties":{"@id":"way/458774022","leisure":"park"},"id":"way/458774022"},{"type":null,"properties":{"@id":"way/458797597","leisure":"park"},"id":"way/458797597"},{"type":null,"properties":{"@id":"way/459488236","leisure":"park","name":"Detective Keith L Williams Park"},"id":"way/459488236"},{"type":null,"properties":{"@id":"way/461448945","leisure":"park","name":"courtyard"},"id":"way/461448945"},{"type":null,"properties":{"@id":"way/462694128","access":"private","leisure":"park"},"id":"way/462694128"},{"type":null,"properties":{"@id":"way/462694299","access":"private","leisure":"park"},"id":"way/462694299"},{"type":null,"properties":{"@id":"way/462694723","access":"private","leisure":"park"},"id":"way/462694723"},{"type":null,"properties":{"@id":"way/462695341","access":"private","leisure":"park"},"id":"way/462695341"},{"type":null,"properties":{"@id":"way/462695394","access":"private","leisure":"park"},"id":"way/462695394"},{"type":null,"properties":{"@id":"way/464002068","leisure":"park","name":"LES Park"},"id":"way/464002068"},{"type":null,"properties":{"@id":"way/465720502","leisure":"park"},"id":"way/465720502"},{"type":null,"properties":{"@id":"way/468199096","leisure":"park","name":"Fountain of Youth"},"id":"way/468199096"},{"type":null,"properties":{"@id":"way/468338079","gnis:county_id":"001","gnis:created":"02/27/1996","gnis:edited":"06/04/2007","gnis:feature_id":"1675530","gnis:state_id":"06","leisure":"park","leisure_2":"playground","name":"Francis Lewis Playground"},"id":"way/468338079"},{"type":null,"properties":{"@id":"way/468341479","leisure":"park","name":"Plaut Triangle"},"id":"way/468341479"},{"type":null,"properties":{"@id":"way/468343596","leisure":"park","name":"Fresh Meadows Park"},"id":"way/468343596"},{"type":null,"properties":{"@id":"way/468344482","leisure":"park","name":"Edgar G. Holmes, Jr. Oval"},"id":"way/468344482"},{"type":null,"properties":{"@id":"way/468344483","leisure":"park","name":"Oak Grove"},"id":"way/468344483"},{"type":null,"properties":{"@id":"way/468345813","leisure":"park"},"id":"way/468345813"},{"type":null,"properties":{"@id":"way/468459751","leisure":"park","name":"Cottage Gardens Park"},"id":"way/468459751"},{"type":null,"properties":{"@id":"way/468459753","leisure":"park"},"id":"way/468459753"},{"type":null,"properties":{"@id":"way/468472559","leisure":"park","name":"Long Island Mews"},"id":"way/468472559"},{"type":null,"properties":{"@id":"way/468472672","leisure":"park"},"id":"way/468472672"},{"type":null,"properties":{"@id":"way/468485719","leisure":"park"},"id":"way/468485719"},{"type":null,"properties":{"@id":"way/468523946","leisure":"park"},"id":"way/468523946"},{"type":null,"properties":{"@id":"way/468548548","ele":"35","gnis:county_id":"061","gnis:created":"08/10/2007","gnis:feature_id":"2336413","gnis:state_id":"36","leisure":"park","name":"West 111th Street People's Garden"},"id":"way/468548548"},{"type":null,"properties":{"@id":"way/468552750","leisure":"park","name":"Harte Park"},"id":"way/468552750"},{"type":null,"properties":{"@id":"way/468555499","leisure":"park"},"id":"way/468555499"},{"type":null,"properties":{"@id":"way/468591558","addr:city":"New York","addr:housenumber":"6-18","addr:postcode":"10025","addr:state":"NY","addr:street":"West 104th Street","description":"Open to the Public Community Garden with Gazebo, lawn areas, and garden. Part of City of New York Parks & Recreation and maintained by neighborhood volunteers through GreenThumb. Updates on Events on their website or twitter: @west104garden .","leisure":"park","name":"West 104th Street Garden","note":"Public Park (Garden) of City of New York Parks & Recreation, maintained by neighborhood volunteers. Previously listed in OpenStreetMap but only as a Point, not as an Area. The area of the garden covers the open plots on each side of 12 W 104th Street.","phone":"+1-212-788-8078","website":"http://west104garden.org"},"id":"way/468591558"},{"arcs":[[99,-43,100,101]],"type":"Polygon","properties":{"@id":"way/468946468","ele":"1","leisure":"park","name":"Brooklyn Bridge Park","source":"bing"},"id":"way/468946468"},{"type":null,"properties":{"@id":"way/469101347","leisure":"park","name":"Tenzer Garden"},"id":"way/469101347"},{"type":null,"properties":{"@id":"way/469101348","leisure":"park","name":"Danciger Quadrangle"},"id":"way/469101348"},{"type":null,"properties":{"@id":"way/469203131","alt_name":"Mafera Park","gnis:feature_id":"951191","leisure":"park","name":"Joseph F. Mafera Park","website":"https://www.nycgovparks.org/parks/mafera-park","wikidata":"Q34839180"},"id":"way/469203131"},{"type":null,"properties":{"@id":"way/469216265","leisure":"park","name":"Harvard Playground"},"id":"way/469216265"},{"type":null,"properties":{"@id":"way/469218862","leisure":"park","name":"Park"},"id":"way/469218862"},{"type":null,"properties":{"@id":"way/470031811","leisure":"park"},"id":"way/470031811"},{"type":null,"properties":{"@id":"way/470069693","leisure":"park"},"id":"way/470069693"},{"type":null,"properties":{"@id":"way/471346102","ele":"5","gnis:county_id":"059","gnis:created":"01/23/1980","gnis:feature_id":"966359","gnis:state_id":"36","leisure":"park","name":"Stepping Stone Park"},"id":"way/471346102"},{"type":null,"properties":{"@id":"way/471549306","leisure":"park","name":"St. Vincent's Triangle Park"},"id":"way/471549306"},{"type":null,"properties":{"@id":"way/474173970","barrier":"fence","leisure":"park","name":"Sherman Creek"},"id":"way/474173970"},{"type":null,"properties":{"@id":"way/474175699","barrier":"fence","leisure":"park"},"id":"way/474175699"},{"type":null,"properties":{"@id":"way/474180626","leisure":"park","name":"Sherman Creek"},"id":"way/474180626"},{"type":null,"properties":{"@id":"way/474390266","landuse":"forest","leisure":"park","name":"Zalewski Park","source":"Bing, local knowledge","surface":"grass","tiger:zip_left":"07010","tiger:zip_right":"07010"},"id":"way/474390266"},{"type":null,"properties":{"@id":"way/476650290","leisure":"park"},"id":"way/476650290"},{"type":null,"properties":{"@id":"way/479358564","leisure":"park","name":"Rooftop Park"},"id":"way/479358564"},{"type":null,"properties":{"@id":"way/480966277","description":"Park for neighborhood residents of 148th Street and their guests.","leisure":"park","name":"Onehundredfourtyeighth Street Block Association Park","source":"www.nycgovparks.org"},"id":"way/480966277"},{"type":null,"properties":{"@id":"way/482789491","leisure":"park"},"id":"way/482789491"},{"type":null,"properties":{"@id":"way/483509921","leisure":"park","name":"Poinsettia Community Garden"},"id":"way/483509921"},{"type":null,"properties":{"@id":"way/483509926","leisure":"park","name":"Ruggles Commons"},"id":"way/483509926"},{"type":null,"properties":{"@id":"way/483702983","ele":"7","gnis:county_id":"061","gnis:created":"10/01/2008","gnis:feature_id":"2500677","gnis:state_id":"36","leisure":"park","name":"Augustus Saint-Gaudens Playground","wikidata":"Q34803557"},"id":"way/483702983"},{"type":null,"properties":{"@id":"way/484550933","ele":"19","gnis:county_id":"081","gnis:created":"03/25/2008","gnis:feature_id":"2414635","gnis:state_id":"36","leisure":"park","name":"Willow Lake Playground","website":"https://www.nycgovparks.org/parks/willow-lake-playground"},"id":"way/484550933"},{"type":null,"properties":{"@id":"way/484550937","ele":"16","gnis:county_id":"081","gnis:created":"03/25/2008","gnis:feature_id":"2414627","gnis:state_id":"36","leisure":"park","name":"Yellowstone Municipal Park","website":"https://www.nycgovparks.org/parks/yellowstone-park"},"id":"way/484550937"},{"type":null,"properties":{"@id":"way/484552778","ele":"15","gnis:county_id":"081","gnis:created":"03/24/2008","gnis:feature_id":"2414624","gnis:state_id":"36","leisure":"park","name":"Annadale Playground","website":"https://www.nycgovparks.org/parks/annadale-playground/","wikidata":"Q34803317"},"id":"way/484552778"},{"type":null,"properties":{"@id":"way/485118563","leisure":"park","name":"Briarwood Playground","website":"https://www.nycgovparks.org/parks/briarwood-playground/"},"id":"way/485118563"},{"type":null,"properties":{"@id":"way/485197592","ele":"36","gnis:county_id":"081","gnis:created":"09/07/2007","gnis:feature_id":"2352612","gnis:state_id":"36","leisure":"park","name":"Middle Village Veterans Triangle","wikidata":"Q34850291"},"id":"way/485197592"},{"type":null,"properties":{"@id":"way/485204069","ele":"30","gnis:county_id":"081","gnis:created":"03/25/2008","gnis:feature_id":"2414633","gnis:state_id":"36","leisure":"park","name":"Middle Village Playground","website":"https://www.nycgovparks.org/parks/middle-village-playground/","wikidata":"Q34850276"},"id":"way/485204069"},{"type":null,"properties":{"@id":"way/485881797","alt_name":"Glendale Playground","ele":"28","gnis:county_id":"081","gnis:created":"01/23/1980","gnis:feature_id":"951205","gnis:state_id":"36","leisure":"park","name":"\"Uncle\" Vito E. Maranzano Glendale Playground","website":"https://www.nycgovparks.org/parks/uncle-vito-e-maranzano-glendale-playground/"},"id":"way/485881797"},{"type":null,"properties":{"@id":"way/485881800","leisure":"park","name":"Pinocchio Playground","website":"https://www.nycgovparks.org/parks/pinocchio-playground"},"id":"way/485881800"},{"type":null,"properties":{"@id":"way/485891857","ele":"24","gnis:county_id":"081","gnis:created":"01/23/1980","gnis:feature_id":"949777","gnis:state_id":"36","leisure":"park","name":"Evergreen Park","website":"https://www.nycgovparks.org/parks/evergreen-park","wikidata":"Q34829255"},"id":"way/485891857"},{"type":null,"properties":{"@id":"way/485949002","ele":"33","gnis:county_id":"005","gnis:created":"01/14/2008","gnis:feature_id":"2374659","gnis:state_id":"36","leisure":"park","name":"Whalen Park"},"id":"way/485949002"},{"type":null,"properties":{"@id":"way/485965905","ele":"56","gnis:county_id":"005","gnis:created":"12/12/2007","gnis:feature_id":"2368934","gnis:state_id":"36","leisure":"park","name":"Bell Tower Park","wikidata":"Q34806640"},"id":"way/485965905"},{"type":null,"properties":{"@id":"way/486637640","ele":"22","gnis:county_id":"081","gnis:created":"03/25/2008","gnis:feature_id":"2414629","gnis:state_id":"36","leisure":"park","name":"Russell Sage Playground","website":"https://www.nycgovparks.org/parks/russell-sage-playground","wikidata":"Q34859368"},"id":"way/486637640"},{"type":null,"properties":{"@id":"way/486685012","leisure":"park","name":"46th Street Park","opening_hours":"07:00-sunset"},"id":"way/486685012"},{"type":null,"properties":{"@id":"way/487535868","leisure":"park","name":"PARQUE DE LOS NINOS"},"id":"way/487535868"},{"type":null,"properties":{"@id":"way/488903668","description":"A park with a bog yard and a basketball court","leisure":"park","name":"Madison Park"},"id":"way/488903668"},{"type":null,"properties":{"@id":"way/494976854","leisure":"park","name":"play house prak"},"id":"way/494976854"},{"type":null,"properties":{"@id":"way/494978182","ele":"11","gnis:county_id":"005","gnis:created":"12/20/2007","gnis:feature_id":"2370269","gnis:state_id":"36","leisure":"park","name":"chief dennis l. devlin park"},"id":"way/494978182"},{"type":null,"properties":{"@id":"way/495484489","leisure":"park","name":"P.S. 150 Lot"},"id":"way/495484489"},{"type":null,"properties":{"@id":"way/495495629","leisure":"park"},"id":"way/495495629"},{"type":null,"properties":{"@id":"way/497484756","leisure":"park","name":"Albert Capsouto Park","website":"https://www.nycgovparks.org/parks/capsouto-park","wikidata":"Q2582732","wikipedia":"en:Albert Capsouto Park"},"id":"way/497484756"},{"type":null,"properties":{"@id":"way/498315576","leisure":"park","source":"Bing"},"id":"way/498315576"},{"type":null,"properties":{"@id":"way/498671779","description":"A small public city park under an elevated ramp to the Brooklyn Bridge. Mostly paved, with a number of trees, planted areas, and benches. ","leisure":"park","material":"concrete","name":"Drumgoole Plaza","wheelchair":"yes","wikidata":"Q5309158","wikipedia":"en:Drumgoole Plaza"},"id":"way/498671779"},{"type":null,"properties":{"@id":"way/504045549","leisure":"park","outdoor_seating":"yes","wheelchair":"yes"},"id":"way/504045549"},{"type":null,"properties":{"@id":"way/508817951","leisure":"park","name":"The Quadrangle"},"id":"way/508817951"},{"type":null,"properties":{"@id":"way/508935794","ele":"7","gnis:county_id":"005","gnis:created":"10/28/2005","gnis:edited":"08/10/2007","gnis:feature_id":"2073677","gnis:state_id":"36","leisure":"park","name":"Woodrow Wilson Triangle"},"id":"way/508935794"},{"type":null,"properties":{"@id":"way/508935795","ele":"28","gnis:county_id":"005","gnis:created":"01/15/2008","gnis:feature_id":"2374895","gnis:state_id":"36","leisure":"park","name":"Julio Carballo Field","wikidata":"Q34839465"},"id":"way/508935795"},{"type":null,"properties":{"@id":"way/508935796","ele":"5","gnis:county_id":"005","gnis:created":"01/23/1980","gnis:edited":"11/02/2007","gnis:feature_id":"948632","gnis:state_id":"36","leisure":"park","name":"Joseph Rodman Drake Park","wikidata":"Q34839254"},"id":"way/508935796"},{"type":null,"properties":{"@id":"way/514342564","leisure":"park","name":"Colonial/Montclair Greenspace"},"id":"way/514342564"},{"type":null,"properties":{"@id":"way/516204836","ele":"4","gnis:county_id":"005","gnis:feature_id":"2370308","gnis:state_id":"36","leisure":"park","name":"Bridge Park","wikidata":"Q23091439"},"id":"way/516204836"},{"arcs":[[102]],"type":"Polygon","properties":{"@id":"way/517205427","leisure":"park","name":"Astoria Park","website":"https://www.nycgovparks.org/parks/astoria-park/","wikidata":"Q4811114","wikipedia":"en:Astoria Park"},"id":"way/517205427"},{"type":null,"properties":{"@id":"way/525999207","leisure":"park","name":"Jerome Slope"},"id":"way/525999207"},{"type":null,"properties":{"@id":"way/526880328","bench":"yes","leisure":"park","name":"Quick Brown Fox Triangle"},"id":"way/526880328"},{"type":null,"properties":{"@id":"way/529831128","leisure":"park","name":"Electric Playground"},"id":"way/529831128"},{"type":null,"properties":{"@id":"way/531272222","leisure":"park","name":"CS Garden"},"id":"way/531272222"},{"type":null,"properties":{"@id":"way/531480623","leisure":"park","name":"Green Grass"},"id":"way/531480623"},{"type":null,"properties":{"@id":"way/531580782","ele":"10","gnis:county_id":"061","gnis:created":"10/01/2008","gnis:feature_id":"2500681","gnis:state_id":"36","leisure":"park","name":"Robert Moses Playground","wikidata":"Q7347847"},"id":"way/531580782"},{"type":null,"properties":{"@id":"way/539005582","leisure":"park"},"id":"way/539005582"},{"type":null,"properties":{"@id":"way/543993340","leisure":"park"},"id":"way/543993340"},{"type":null,"properties":{"@id":"way/544675664","description":"Boulders and World War 1 Memorial","leisure":"park","name":"Mitchell Park"},"id":"way/544675664"},{"type":null,"properties":{"@id":"way/546768653","leisure":"park","name":"English Neighborhood Park"},"id":"way/546768653"},{"type":null,"properties":{"@id":"way/547493359","leisure":"park","name":"Art Area/ Various Sculptures"},"id":"way/547493359"},{"type":null,"properties":{"@id":"way/549375436","description":"Public playground. Formerly known as Depot Park.","leisure":"park","name":"Veteran's Memorial Park"},"id":"way/549375436"},{"type":null,"properties":{"@id":"way/550177716","ele":"30","leisure":"park","name":"Tall Oak Playground"},"id":"way/550177716"},{"type":null,"properties":{"@id":"way/551946386","leisure":"park","name":"Charlie's Place"},"id":"way/551946386"},{"type":null,"properties":{"@id":"way/551954779","leisure":"park"},"id":"way/551954779"},{"type":null,"properties":{"@id":"way/551959436","leisure":"park","name":"Pebblestone Triangle"},"id":"way/551959436"},{"type":null,"properties":{"@id":"way/553154555","leisure":"park"},"id":"way/553154555"},{"type":null,"properties":{"@id":"way/553154558","leisure":"park"},"id":"way/553154558"},{"type":null,"properties":{"@id":"way/553286421","leisure":"park","name":"Sternberg Park"},"id":"way/553286421"},{"type":null,"properties":{"@id":"way/553859309","leisure":"park","name":"Glendale Veterans Triangle"},"id":"way/553859309"},{"type":null,"properties":{"@id":"way/554059831","leisure":"park","name":"Emerald Playground"},"id":"way/554059831"},{"type":null,"properties":{"@id":"way/554938633","leisure":"park","name":"Leonard Square"},"id":"way/554938633"},{"type":null,"properties":{"@id":"way/556532453","leisure":"park","name":"Forest Hills Gardens (Private)"},"id":"way/556532453"},{"type":null,"properties":{"@id":"way/556544865","ele":"21","gnis:county_id":"081","gnis:created":"03/25/2008","gnis:feature_id":"2414736","gnis:state_id":"36","leisure":"park","name":"Turtle Playground","wikidata":"Q34867016"},"id":"way/556544865"},{"type":null,"properties":{"@id":"way/556557925","addr:city":"Yonkers","addr:postcode":"10704","addr:state":"NY","addr:street":"McLean Avenue","leisure":"park","name":"General Joseph Stillwell Park"},"id":"way/556557925"},{"type":null,"properties":{"@id":"way/556607149","leisure":"park","name":"Alumni Plaza"},"id":"way/556607149"},{"type":null,"properties":{"@id":"way/556607150","ele":"25","gnis:county_id":"081","gnis:created":"03/25/2008","gnis:feature_id":"2414731","gnis:state_id":"36","leisure":"park","name":"Pomonok Playground"},"id":"way/556607150"},{"type":null,"properties":{"@id":"way/562586511","alt_name":"Arthur Murphy Square Park","gnis:feature_id":"2374634","leisure":"park","name":"Murphy Triangle","wikidata":"Q34803439"},"id":"way/562586511"},{"type":null,"properties":{"@id":"way/562586512","gnis:feature_id":"2072555","leisure":"park","name":"Bergen Triangle","wikidata":"Q34807236"},"id":"way/562586512"},{"type":null,"properties":{"@id":"way/562586513","gnis:feature_id":"2374671","leisure":"park","name":"Mount Hope Garden","website":"https://www.nycgovparks.org/parks/X274"},"id":"way/562586513"},{"type":null,"properties":{"@id":"way/562586514","gnis:feature_id":"2073613","leisure":"park","name":"Hutton Square"},"id":"way/562586514"},{"type":null,"properties":{"@id":"way/562599443","leisure":"park","name":"Fleetwood Triangle"},"id":"way/562599443"},{"type":null,"properties":{"@id":"way/562607569","leisure":"park","name":"Travis Triangle"},"id":"way/562607569"},{"type":null,"properties":{"@id":"way/562630646","gnis:feature_id":"2374622","leisure":"park","name":"Cleopatra Playground","wikidata":"Q34818440"},"id":"way/562630646"},{"type":null,"properties":{"@id":"way/562630648","gnis:feature_id":"2374621","leisure":"park","name":"Peace Park","wikidata":"Q34854625"},"id":"way/562630648"},{"type":null,"properties":{"@id":"way/562630649","gnis:feature_id":"2374620","leisure":"park","name":"Barry Plaza","wikidata":"Q34804990"},"id":"way/562630649"},{"type":null,"properties":{"@id":"way/562642205","gnis:feature_id":"2062094","leisure":"park","name":"Ryan Triangle","wikidata":"Q34859423"},"id":"way/562642205"},{"type":null,"properties":{"@id":"way/562767690","gnis:feature_id":"2374773","leisure":"park","name":"Bill Rainey Park","wikidata":"Q34807931"},"id":"way/562767690"},{"type":null,"properties":{"@id":"way/562776207","leisure":"park","name":"Bryant Hill Community Garden"},"id":"way/562776207"},{"type":null,"properties":{"@id":"way/563074623","construction":"yes","ele":"13","gnis:county_id":"005","gnis:created":"01/14/2008","gnis:feature_id":"2374713","gnis:state_id":"36","landuse":"construction","leisure":"park","name":"Ranaqua Park Reconstruction","operator":"NYC Parks & Recreation"},"id":"way/563074623"},{"arcs":[[103]],"type":"Polygon","properties":{"@id":"way/566781700","leisure":"park","name":"Weehawken Reservoir Park","opening_hours":"07:00-dusk; Jun-Aug 07:00-21:00"},"id":"way/566781700"},{"type":null,"properties":{"@id":"way/568793923","leisure":"park","name":"Cedar Grove Playground"},"id":"way/568793923"},{"type":null,"properties":{"@id":"way/568796367","leisure":"park","name":"Bellaire Playground"},"id":"way/568796367"},{"type":null,"properties":{"@id":"way/573724120","leisure":"park"},"id":"way/573724120"},{"type":null,"properties":{"@id":"way/575321062","leisure":"park"},"id":"way/575321062"},{"type":null,"properties":{"@id":"way/577506684","leisure":"park","name":"1600 Park"},"id":"way/577506684"},{"type":null,"properties":{"@id":"way/580123906","ele":"8","gnis:county_id":"061","gnis:created":"01/17/2006","gnis:feature_id":"2082841","gnis:state_id":"36","leisure":"park","name":"Mulry Square","wikidata":"Q12062165"},"id":"way/580123906"},{"type":null,"properties":{"@id":"way/581024270","ele":"40","gnis:county_id":"017","gnis:created":"09/08/1979","gnis:feature_id":"876130","gnis:state_id":"34","leisure":"park","name":"82nd Street Park","wikidata":"Q49486067"},"id":"way/581024270"},{"type":null,"properties":{"@id":"way/581027347","ele":"59","gnis:county_id":"017","gnis:created":"07/01/1981","gnis:feature_id":"2059170","gnis:state_id":"34","leisure":"park","name":"Robert Allen Field","wikidata":"Q49551919"},"id":"way/581027347"},{"type":null,"properties":{"@id":"way/581031211","leisure":"park","name":"Sybil’s Cave"},"id":"way/581031211"},{"type":null,"properties":{"@id":"way/581031801","ele":"0","gnis:county_id":"017","gnis:created":"07/01/1981","gnis:feature_id":"2060272","gnis:state_id":"34","leisure":"park","name":"Castle Point Park","wikidata":"Q34850501"},"id":"way/581031801"},{"type":null,"properties":{"@id":"way/581036089","ele":"0","gnis:county_id":"017","gnis:created":"07/01/1981","gnis:feature_id":"2060268","gnis:state_id":"34","leisure":"park","name":"Erie-Lackawanna Park","wikidata":"Q49512602"},"id":"way/581036089"},{"type":null,"properties":{"@id":"way/581037418","ele":"1","gnis:county_id":"017","gnis:created":"07/01/1981","gnis:feature_id":"2060280","gnis:state_id":"34","leisure":"park","name":"Shipyard Piers","wikidata":"Q34860840"},"id":"way/581037418"},{"type":null,"properties":{"@id":"way/581328722","leisure":"park","name":"Clemens Triangle","opening_hours":"24/7","phone":"+1-212-639-9675","ref":"Q056","website":"https://www.nycgovparks.org/parks/clemens-triangle/","wheelchair":"yes"},"id":"way/581328722"},{"type":null,"properties":{"@id":"way/581666857","addr:city":"New York","addr:housenumber":"36-40","addr:postcode":"10014","addr:state":"NY","addr:street":"Jane Street","description":"Community garden.  Locked gate, but open to public on weekends.","leisure":"park","name":"Jane Street Garden","website":"https://greenthumb.nycgovparks.org/"},"id":"way/581666857"},{"type":null,"properties":{"@id":"way/582732638","leisure":"park","name":"De Diego Playground"},"id":"way/582732638"},{"type":null,"properties":{"@id":"way/584643781","leisure":"park","name":"Grand slope"},"id":"way/584643781"},{"type":null,"properties":{"@id":"way/585788256","alt_name":"Michael Friedsam Memorial Carousel","building":"yes","height":"8.2","leisure":"park","name":"Central Park Carousel","nycdoitt:bin":"1083826","tourism":"attraction","website":"http://www.centralparknyc.org/things-to-see-and-do/attractions/carousel.html","wikidata":"Q5061605","wikipedia":"en:Central Park Carousel"},"id":"way/585788256"},{"type":null,"properties":{"@id":"way/588313535","ele":"6","gnis:county_id":"005","gnis:created":"12/17/2007","gnis:feature_id":"2369828","gnis:state_id":"36","leisure":"park","name":"Hawkins Park","wikidata":"Q34834914"},"id":"way/588313535"},{"type":null,"properties":{"@id":"way/588483880","leisure":"park"},"id":"way/588483880"},{"type":null,"properties":{"@id":"way/591380736","addr:city":"Weehawken","addr:state":"NJ","addr:street":"Park Avenue","leisure":"park","name":"Garden Park","website":"http://weehawken-nj.us/parks"},"id":"way/591380736"},{"type":null,"properties":{"@id":"way/592085644","leisure":"park"},"id":"way/592085644"},{"type":null,"properties":{"@id":"way/597501147","leisure":"park"},"id":"way/597501147"},{"type":null,"properties":{"@id":"way/597501162","leisure":"park","name":"Ashmead Mall"},"id":"way/597501162"},{"type":null,"properties":{"@id":"way/597549843","leisure":"park"},"id":"way/597549843"},{"type":null,"properties":{"@id":"way/597550226","addr:city":"Union City","addr:housenumber":"219","addr:postcode":"07087","addr:state":"NJ","addr:street":"48th Street","leisure":"park","name":"Hudson park"},"id":"way/597550226"},{"type":null,"properties":{"@id":"way/598320135","leisure":"park","name":"Union City Public Library Park"},"id":"way/598320135"},{"type":null,"properties":{"@id":"way/598320162","leisure":"park"},"id":"way/598320162"},{"type":null,"properties":{"@id":"way/601119443","ele":"16","gnis:county_id":"059","gnis:created":"10/27/2005","gnis:feature_id":"2075020","gnis:state_id":"36","leisure":"park"},"id":"way/601119443"},{"type":null,"properties":{"@id":"way/604024562","bicycle":"no","leisure":"park","name":"Devanney Triangle","website":"https://www.nycgovparks.org/parks/devanney-triangle"},"id":"way/604024562"},{"type":null,"properties":{"@id":"way/605961437","leisure":"park","name":"Hawthorne/Rooney Tennis Courts"},"id":"way/605961437"},{"type":null,"properties":{"@id":"way/606179062","ele":"73","gnis:county_id":"003","gnis:created":"07/01/1981","gnis:feature_id":"2054686","gnis:state_id":"34","leisure":"park","name":"Inwood Terrace Park"},"id":"way/606179062"},{"type":null,"properties":{"@id":"way/606179071","ele":"79","gnis:county_id":"003","gnis:created":"07/01/1981","gnis:feature_id":"2054685","gnis:state_id":"34","leisure":"park","name":"Whitey Lang Park","wikidata":"Q34869588"},"id":"way/606179071"},{"type":null,"properties":{"@id":"way/606454035","leisure":"park"},"id":"way/606454035"},{"type":null,"properties":{"@id":"way/606901055","addr:city":"New York","addr:housenumber":"293","addr:postcode":"10009","addr:state":"NY","addr:street":"East 3rd Street","description":"Founded in 1980\nProtected in 1999 by The Trust for Public Land","leisure":"park","name":"All People's Garden","start_date":"1980"},"id":"way/606901055"},{"arcs":[[-24,104]],"type":"Polygon","properties":{"@id":"way/608663280","leisure":"park","name":"Domino Park","wikidata":"Q55609822"},"id":"way/608663280"},{"type":null,"properties":{"@id":"way/609748996","leisure":"park"},"id":"way/609748996"},{"type":null,"properties":{"@id":"way/610035083","leisure":"park","name":"Pigeon Paradise"},"id":"way/610035083"},{"type":null,"properties":{"@id":"way/613509792","addr:city":"New York","addr:state":"NY","dog":"leashed","ele":"3","gnis:feature_id":"2500760","leisure":"park","name":"Tribeca Park","opening_hours":"Mo-Su 06:00-01:00","smoking":"no","source":"bing","start_date":"1810","website":"https://www.nycgovparks.org/parks/tribeca-park"},"id":"way/613509792"},{"type":null,"properties":{"@id":"way/613550605","leisure":"park","name":"Libra Triangle"},"id":"way/613550605"},{"type":null,"properties":{"@id":"way/614586241","leisure":"park","name":"Playground Seventy-Five"},"id":"way/614586241"},{"type":null,"properties":{"@id":"way/614586894","leisure":"park"},"id":"way/614586894"},{"type":null,"properties":{"@id":"way/615335303","leisure":"park"},"id":"way/615335303"},{"type":null,"properties":{"@id":"way/615651879","leisure":"park"},"id":"way/615651879"},{"type":null,"properties":{"@id":"way/615653553","leisure":"park"},"id":"way/615653553"},{"type":null,"properties":{"@id":"way/617699508","leisure":"park","name":"Frost Plyground"},"id":"way/617699508"},{"type":null,"properties":{"@id":"way/617699515","leisure":"park","name":"Cooper Park"},"id":"way/617699515"},{"type":null,"properties":{"@id":"way/618063127","leisure":"park","name":"Fresh Meadows Playground"},"id":"way/618063127"},{"type":null,"properties":{"@id":"way/618063129","leisure":"park"},"id":"way/618063129"},{"type":null,"properties":{"@id":"way/624153485","leisure":"park","name":"Weehawken Water Tower Park"},"id":"way/624153485"},{"type":null,"properties":{"@id":"way/627427303","leisure":"park","name":"Greenstreets"},"id":"way/627427303"},{"type":null,"properties":{"@id":"way/627958210","leisure":"park"},"id":"way/627958210"},{"type":null,"properties":{"@id":"way/627958594","leisure":"park","name":"Brandt park"},"id":"way/627958594"},{"type":null,"properties":{"@id":"way/627959357","leisure":"park","name":"University Park"},"id":"way/627959357"},{"type":null,"properties":{"@id":"way/627960061","leisure":"park","name":"Half-Nelson Playground"},"id":"way/627960061"},{"type":null,"properties":{"@id":"way/628643575","leisure":"park","name":"Preston Park"},"id":"way/628643575"},{"type":null,"properties":{"@id":"way/631181715","leisure":"park","name":"Columbus Park"},"id":"way/631181715"},{"type":null,"properties":{"@id":"way/632555076","landuse":"grass","leisure":"park"},"id":"way/632555076"},{"type":null,"properties":{"@id":"way/664153164","leisure":"park","name":"Bill \"Bojangles\" Robinson Playground"},"id":"way/664153164"},{"type":null,"properties":{"@id":"way/664153165","leisure":"park","name":"LaGuardia Corner Garden"},"id":"way/664153165"},{"type":null,"properties":{"@id":"way/664697032","access":"yes","dog":"no","ele":"13","gnis:county_id":"061","gnis:created":"02/03/2006","gnis:feature_id":"2083564","gnis:state_id":"36","leisure":"park","lit":"yes","name":"Monterey Public Garden","opening_hours":"24/7","operator":"Monterey 96 Street, LLC"},"id":"way/664697032"},{"type":null,"properties":{"@id":"way/665341327","addr:city":"Bronx","addr:housenumber":"2","addr:postcode":"10474","addr:state":"NY","addr:street":"Farragut Street","architect":"MNLA","leisure":"park","name":"Hunts Point Landing","website":"https://www.mnlandscape.com/projects/hunts_point_landing"},"id":"way/665341327"},{"type":null,"properties":{"@id":"way/665341342","leisure":"park"},"id":"way/665341342"},{"type":null,"properties":{"@id":"way/667073866","ele":"4","gnis:county_id":"047","gnis:created":"03/19/2008","gnis:feature_id":"2381055","gnis:state_id":"36","leisure":"park","name":"Penn Triangle"},"id":"way/667073866"},{"type":null,"properties":{"@id":"way/667593365","addr:city":"Bronx","addr:postcode":"10459","addr:state":"ny","addr:street":"Dawson Street","leisure":"park","name":"Dawson playground park","operator":"NYC parks","website":"https://www.nycgovparks.org/parks/rainey-park"},"id":"way/667593365"},{"type":null,"properties":{"@id":"way/667593487","access":"yes","description":"Small garden made for decoration.","garden:type":"community","leisure":"park","lit":"yes","operator":"Super of 1320 odell"},"id":"way/667593487"},{"type":null,"properties":{"@id":"way/667595129","addr:city":"Bronx","addr:housenumber":"2151","addr:postcode":"10462","addr:state":"ny","addr:street":"Saint Raymonds Avenue","leisure":"park","name":"Susan Caserta Playground","operator":"NYC parks","website":"https://www.nycgovparks.org/parks/caserta-playground"},"id":"way/667595129"},{"type":null,"properties":{"@id":"way/667599606","addr:city":"Bronx","addr:postcode":"10473","addr:state":"ny","addr:street":"Turnbull Avenue","leisure":"park","name":"Police Officer Hilario Serrano Playground","operator":"NYC parks","website":"https://www.nycgovparks.org/parks/po-serrano-playground/history"},"id":"way/667599606"},{"type":null,"properties":{"@id":"way/667732474","leisure":"park","name":"Veterans Memorial Park"},"id":"way/667732474"},{"type":null,"properties":{"@id":"way/667732475","leisure":"park","name":"Ridgefield Community Pool"},"id":"way/667732475"},{"type":null,"properties":{"@id":"way/667732476","leisure":"park","name":"Veterans Field"},"id":"way/667732476"},{"type":null,"properties":{"@id":"way/667732477","leisure":"park","name":"Five Fireman's Field"},"id":"way/667732477"},{"type":null,"properties":{"@id":"way/667732478","leisure":"park","name":"Handball Courts"},"id":"way/667732478"},{"type":null,"properties":{"@id":"way/668146844","leisure":"park"},"id":"way/668146844"},{"type":null,"properties":{"@id":"way/670642208","leisure":"park"},"id":"way/670642208"},{"type":null,"properties":{"@id":"way/672251427","addr:city":"New York","addr:street":"2nd Avenue","leisure":"park"},"id":"way/672251427"},{"type":null,"properties":{"@id":"way/672481885","leisure":"park"},"id":"way/672481885"},{"type":null,"properties":{"@id":"way/675913161","leisure":"park"},"id":"way/675913161"},{"type":null,"properties":{"@id":"way/675935774","leisure":"park"},"id":"way/675935774"},{"type":null,"properties":{"@id":"way/675935775","leisure":"park"},"id":"way/675935775"},{"type":null,"properties":{"@id":"way/675935776","leisure":"park"},"id":"way/675935776"},{"type":null,"properties":{"@id":"way/675935777","leisure":"park"},"id":"way/675935777"},{"type":null,"properties":{"@id":"way/675935778","leisure":"park"},"id":"way/675935778"},{"type":null,"properties":{"@id":"way/675935779","leisure":"park"},"id":"way/675935779"},{"type":null,"properties":{"@id":"way/675935780","leisure":"park"},"id":"way/675935780"},{"type":null,"properties":{"@id":"way/675937259","leisure":"park"},"id":"way/675937259"},{"type":null,"properties":{"@id":"way/676050631","ele":"9","gnis:county_id":"005","gnis:created":"10/03/2005","gnis:edited":"11/02/2007","gnis:feature_id":"2072475","gnis:state_id":"36","leisure":"park","name":"O'Neill Triangle","website":"https://www.nycgovparks.org/parks/oneill-triangle/"},"id":"way/676050631"},{"type":null,"properties":{"@id":"way/676051615","ele":"8","gnis:county_id":"005","gnis:created":"01/15/2008","gnis:feature_id":"2374791","gnis:state_id":"36","leisure":"park","name":"Flynn Brothers Playground","website":"https://www.nycgovparks.org/parks/flynn-playground/"},"id":"way/676051615"},{"type":null,"properties":{"@id":"way/676105718","access":"private","leisure":"park"},"id":"way/676105718"},{"type":null,"properties":{"@id":"way/676105719","access":"private","leisure":"park"},"id":"way/676105719"},{"type":null,"properties":{"@id":"way/676105721","access":"private","leisure":"park"},"id":"way/676105721"},{"type":null,"properties":{"@id":"way/676105729","access":"private","leisure":"park"},"id":"way/676105729"},{"type":null,"properties":{"@id":"way/676107993","access":"private","leisure":"park"},"id":"way/676107993"},{"type":null,"properties":{"@id":"way/676921074","leisure":"park"},"id":"way/676921074"},{"type":null,"properties":{"@id":"way/677115651","leisure":"park"},"id":"way/677115651"},{"type":null,"properties":{"@id":"way/677194410","description":"project greenstreets","leisure":"park","lit":"automatic","operator":"nyc parks","website":"https://www1.nyc.gov/nyc-resources/service/1780/greenstreets-program"},"id":"way/677194410"},{"type":null,"properties":{"@id":"way/683460865","addr:city":"New York","addr:housenumber":"West of FDR Drive","addr:postcode":"10017","addr:state":"NY","addr:street":"betw East 49th and East 51st Streets","leisure":"park","name":"Peter Detmold Park Dog Run","operator":"City of New York Parks"},"id":"way/683460865"},{"type":null,"properties":{"@id":"way/683610526","leisure":"park","name":"Delacroix Park","note":"Community Association even owns the streets and sewers in this neighborhood","private":"yes","source":"https://www.fieldstonhistoricdistrict.com/about1"},"id":"way/683610526"},{"type":null,"properties":{"@id":"way/684670439","access":"private","leisure":"park"},"id":"way/684670439"},{"type":null,"properties":{"@id":"way/685022240","access":"private","covered":"yes","garden:type":"community","landuse":"greenfield","leisure":"park","lit":"yes","operator":"super of 1320 odell & residence","sport":"soccer;basketball;multi"},"id":"way/685022240"},{"arcs":[[105,106,107,108,109,110]],"type":"Polygon","properties":{"@id":"way/685059370","leisure":"park","name":"Battery Park","wikipedia":"en:Battery Park"},"id":"way/685059370"},{"type":null,"properties":{"@id":"way/687661469","leisure":"park","name":"First Street Green Cultural Park"},"id":"way/687661469"},{"type":null,"properties":{"@id":"way/688069584","leisure":"park","name":"Bill Rainey football field","operator":"NYC parks and PAL","website":"https://www.nycgovparks.org/parks/rainey-park/history"},"id":"way/688069584"},{"type":null,"properties":{"@id":"way/695732622","leisure":"park","name":"Rita Ley Triangle"},"id":"way/695732622"},{"type":null,"properties":{"@id":"way/700245923","leisure":"park"},"id":"way/700245923"},{"type":null,"properties":{"@id":"way/700245924","ele":"8","gnis:feature_id":"2391821","leisure":"park","name":"Brooklyn Anchorage Plaza","source":"Mapbox"},"id":"way/700245924"},{"type":null,"properties":{"@id":"way/702078581","access":"no","leisure":"park"},"id":"way/702078581"},{"type":null,"properties":{"@id":"way/704224755","leisure":"park"},"id":"way/704224755"},{"type":null,"properties":{"@id":"way/705304809","addr:city":"New York","addr:housenumber":"1886","addr:postcode":"10023","addr:state":"NY","addr:street":"Broadway","architect":"Philip Birnbaum","architect:wikidata":"Q45940822","architect:wikipedia":"Philip Birnbaum (architect)","leisure":"park","name":"30 Lincoln Plaza","opening_hours":"8:00-23:00","start_date":"1978","website":"https://capitalplanning.nyc.gov/pops/M070015#16.52/40.76956/-73.98279"},"id":"way/705304809"},{"type":null,"properties":{"@id":"way/718438725","ele":"1","gnis:feature_id":"958187","leisure":"park","name":"Murphy Park","source":"Mapbox"},"id":"way/718438725"},{"type":null,"properties":{"@id":"way/718471254","leisure":"park"},"id":"way/718471254"},{"type":null,"properties":{"@id":"way/720392297","leisure":"park"},"id":"way/720392297"},{"type":null,"properties":{"@id":"way/720974812","leisure":"park","name":"Maxwell Place Lawn"},"id":"way/720974812"},{"type":null,"properties":{"@id":"way/723006467","ele":"16","gnis:county_id":"005","gnis:created":"10/28/2005","gnis:feature_id":"2073760","gnis:state_id":"36","leisure":"park","name":"Metropolitan Oval","sport":"fitness","wikidata":"Q6825173"},"id":"way/723006467"},{"type":null,"properties":{"@id":"way/723090342","leisure":"park"},"id":"way/723090342"},{"type":null,"properties":{"@id":"way/727268703","addr:city":"Bronx","addr:street":"East 174th Street","ele":"9","gnis:county_id":"005","gnis:created":"12/20/2007","gnis:feature_id":"2370282","gnis:state_id":"36","leisure":"park","name":"Wood Park"},"id":"way/727268703"},{"type":null,"properties":{"@id":"way/727339422","leisure":"park","name":"Flushing Creek Waterfront Park"},"id":"way/727339422"},{"type":null,"properties":{"@id":"way/727609681","leisure":"park"},"id":"way/727609681"},{"type":null,"properties":{"@id":"way/727631339","addr:street":"East 177th Street","ele":"12","gnis:county_id":"005","gnis:created":"10/28/2005","gnis:edited":"08/10/2007","gnis:feature_id":"2073744","gnis:state_id":"36","leisure":"park","name":"Church Triangle","wikidata":"Q34817780"},"id":"way/727631339"},{"type":null,"properties":{"@id":"way/727964618","addr:housenumber":"335","addr:street":"Manhattan Avenue","ele":"12","gnis:county_id":"061","gnis:created":"10/06/2008","gnis:feature_id":"2500834","gnis:state_id":"36","leisure":"park","name":"Lafayette Square","website":"https://www.nycgovparks.org/parks/lafayette-square/highlights/7727"},"id":"way/727964618"},{"type":null,"properties":{"@id":"way/728248369","ele":"5","gnis:county_id":"005","gnis:created":"12/20/2007","gnis:feature_id":"2370281","gnis:state_id":"36","leisure":"park","name":"Watson Gleason Playground"},"id":"way/728248369"},{"type":null,"properties":{"@id":"way/729170776","leisure":"park"},"id":"way/729170776"},{"type":null,"properties":{"@id":"way/729460737","leisure":"park","name":"Mackel Park"},"id":"way/729460737"},{"type":null,"properties":{"@id":"way/741738483","leisure":"park"},"id":"way/741738483"},{"type":null,"properties":{"@id":"way/741775621","elevation":"17","gnis:county_id":"081","gnis:created":"08/10/2007","gnis:feature_id":"2330914","gnis:state_id":"36","leisure":"park","name":"Willets Point Playground"},"id":"way/741775621"},{"type":null,"properties":{"@id":"way/741776804","ele":"17","gnis:county_id":"081","gnis:created":"08/10/2007","gnis:feature_id":"2330913","gnis:state_id":"36","leisure":"park","name":"Clintonville Playground","wikidata":"Q34818683"},"id":"way/741776804"},{"type":null,"properties":{"@id":"way/741777273","ele":"26","gnis:county_id":"081","gnis:created":"08/10/2007","gnis:feature_id":"2330915","gnis:state_id":"36","leisure":"park","name":"Playground Twenty-One"},"id":"way/741777273"},{"type":null,"properties":{"@id":"way/741783189","ele":"17","gnis:county_id":"081","gnis:created":"03/20/2008","gnis:feature_id":"2392975","gnis:state_id":"36","leisure":"park","name":"Saul Weprin Playground"},"id":"way/741783189"},{"type":null,"properties":{"@id":"way/741784455","ele":"32","gnis:county_id":"081","gnis:created":"08/10/2007","gnis:edited":"08/19/2007","gnis:feature_id":"2330824","gnis:state_id":"36","leisure":"park","name":"Auburndale Playground","wikidata":"Q34803536"},"id":"way/741784455"},{"type":null,"properties":{"@id":"way/743395860","layer":"1","leisure":"park","name":"The Elevated Acre"},"id":"way/743395860"},{"type":null,"properties":{"@id":"way/745537380","ele":"11","gnis:feature_id":"2381032","leisure":"park","name":"Martinez Playground","website":"https://www.nycgovparks.org/parks/martinez-playground"},"id":"way/745537380"},{"type":null,"properties":{"@id":"way/749231557","leisure":"park"},"id":"way/749231557"},{"type":null,"properties":{"@id":"way/759460622","leisure":"park","name":"Minerva Bernadino Green Street","operator":"New York City Department of Parks and Recreation"},"id":"way/759460622"},{"type":null,"properties":{"@id":"way/765274333","leisure":"park"},"id":"way/765274333"},{"type":null,"properties":{"@id":"way/765274338","leisure":"park"},"id":"way/765274338"},{"type":null,"properties":{"@id":"way/765986002","leisure":"park"},"id":"way/765986002"},{"type":null,"properties":{"@id":"way/767304565","ele":"11","gnis:county_id":"005","gnis:created":"01/01/2000","gnis:feature_id":"2062104","gnis:state_id":"36","leisure":"park","name":"Gouverneur Morris Square"},"id":"way/767304565"},{"type":null,"properties":{"@id":"way/767304570","ele":"12","gnis:county_id":"005","gnis:created":"01/15/2008","gnis:feature_id":"2374778","gnis:state_id":"36","leisure":"park","name":"I Am Park","wikidata":"Q34837534"},"id":"way/767304570"},{"type":null,"properties":{"@id":"way/769687690","access":"private","landuse":"courtyard","leisure":"park","name":"College Courtyard"},"id":"way/769687690"},{"type":null,"properties":{"@id":"way/769716502","leisure":"park","name":"Hillman Park"},"id":"way/769716502"},{"type":null,"properties":{"@id":"way/769716504","ele":"9","gnis:feature_id":"2500462","leisure":"park","name":"Sol Lain Playground","website":"https://www.nycgovparks.org/parks/sol-lain-playground/"},"id":"way/769716504"},{"type":null,"properties":{"@id":"way/771140715","addr:city":"Jackson Heights","addr:postcode":"11372","addr:state":"NY","addr:street":"34th Avenue","leisure":"park","name":"Community Park","opening_hours":"sunrise-sunset"},"id":"way/771140715"},{"type":null,"properties":{"@id":"way/780546163","addr:city":"Bronx","addr:housenumber":"1250","addr:postcode":"10472","addr:state":"NY","addr:street":"Ward Avenue","leisure":"park","name":"PS 195/196X Schoolyard","operator":"NYC DOE"},"id":"way/780546163"},{"type":null,"properties":{"@id":"way/780546417","addr:city":"Bronx","addr:housenumber":"1250","addr:postcode":"10472","addr:state":"NY","addr:street":"Ward Avenue","leisure":"park","name":"PS 195X Outdoor Play Area"},"id":"way/780546417"},{"type":null,"properties":{"@id":"way/782248275","addr:city":"Bronx","addr:housenumber":"288","addr:postcode":"10456","addr:state":"NY","addr:street":"East 168th Street","leisure":"park","name":"Community Flower Garden"},"id":"way/782248275"},{"type":null,"properties":{"@id":"way/785102262","addr:city":"Bronx","addr:postcode":"10456","addr:state":"NY","addr:street":"Grant Avenue","dog":"no","leisure":"park","name":"Grant Playground"},"id":"way/785102262"},{"type":null,"properties":{"@id":"way/788677966","leisure":"park","name":"Van Fleet Park","wikidata":"Q34868082"},"id":"way/788677966"},{"type":null,"properties":{"@id":"way/789772879","leisure":"park","name":"Westview Place Park"},"id":"way/789772879"},{"type":null,"properties":{"@id":"way/790625039","leisure":"park","name":"Coytesville Park"},"id":"way/790625039"},{"type":null,"properties":{"@id":"way/790900539","leisure":"park","surface":"grass_paver"},"id":"way/790900539"},{"type":null,"properties":{"@id":"way/791023703","dog":"no","leisure":"park","name":"Andrew Freedman House Gardens"},"id":"way/791023703"},{"type":null,"properties":{"@id":"way/796271669","leisure":"park","name":"Italian American Organizations of Queens Soccer"},"id":"way/796271669"},{"type":null,"properties":{"@id":"way/166839383","leisure":"park","name":"Silverstein Family Park","@relations":[{"role":"outer","rel":5568778,"reltags":{"highway":"pedestrian","leisure":"park","type":"multipolygon"}}]},"id":"way/166839383"}]}}}